<?xml version="1.0" ?>
<gpx xmlns="http://www.topografix.com/GPX/1/1" xmlns:xsi="http://www.w3.org/2001/XMLSchema-instance" version="1.1" creator="PaleoWave" xsi:schemaLocation="http://www.topografix.com/GPX/1/1 http://www.topografix.com/GPX/1/1/gpx.xsd">
  <metadata>
    <name>PaleoWave Ichthyosaur Target Sites</name>
    <desc>ML-predicted fossil localities, central Nevada. PERMIT REQUIRED for vertebrate fossil collection on federal land.</desc>
  </metadata>
  <wpt lat="40.404722" lon="-118.243889">
    <name>PW-01</name>
    <desc>Priority #1 | Score: 1.0000 | ML: 0.8005 | ON TRc formation | TRc Triassic limestone. PERMIT REQUIRED for vertebrate fossils on federal land.</desc>
    <sym>Flag, Red</sym>
    <type>Waypoint</type>
  </wpt>
  <wpt lat="40.209167" lon="-117.587778">
    <name>PW-02</name>
    <desc>Priority #2 | Score: 0.8952 | ML: 0.7952 | 992m to TRc | TRc Triassic limestone. PERMIT REQUIRED for vertebrate fossils on federal land.</desc>
    <sym>Flag, Red</sym>
    <type>Waypoint</type>
  </wpt>
  <wpt lat="40.550278" lon="-118.2325">
    <name>PW-03</name>
    <desc>Priority #3 | Score: 0.8946 | ML: 0.7946 | 1361m to TRc | TRc Triassic limestone. PERMIT REQUIRED for vertebrate fossils on federal land.</desc>
    <sym>Flag, Red</sym>
    <type>Waypoint</type>
  </wpt>
  <wpt lat="40.434444" lon="-117.686667">
    <name>PW-04</name>
    <desc>Priority #4 | Score: 0.8923 | ML: 0.8423 | 4781m to TRc | TRc Triassic limestone. PERMIT REQUIRED for vertebrate fossils on federal land.</desc>
    <sym>Flag, Blue</sym>
    <type>Waypoint</type>
  </wpt>
  <wpt lat="40.839722" lon="-117.720833">
    <name>PW-05</name>
    <desc>Priority #5 | Score: 0.8920 | ML: 0.7920 | 1059m to TRc | TRc Triassic limestone. PERMIT REQUIRED for vertebrate fossils on federal land.</desc>
    <sym>Flag, Blue</sym>
    <type>Waypoint</type>
  </wpt>
  <wpt lat="40.822778" lon="-117.696944">
    <name>PW-06</name>
    <desc>Priority #6 | Score: 0.8899 | ML: 0.7899 | 1309m to TRc | TRc Triassic limestone. PERMIT REQUIRED for vertebrate fossils on federal land.</desc>
    <sym>Flag, Blue</sym>
    <type>Waypoint</type>
  </wpt>
  <wpt lat="40.418889" lon="-117.704444">
    <name>PW-07</name>
    <desc>Priority #7 | Score: 0.8805 | ML: 0.8305 | 3338m to TRc | TRc Triassic limestone. PERMIT REQUIRED for vertebrate fossils on federal land.</desc>
    <sym>Flag, Blue</sym>
    <type>Waypoint</type>
  </wpt>
  <wpt lat="40.787222" lon="-117.456389">
    <name>PW-08</name>
    <desc>Priority #8 | Score: 0.8533 | ML: 0.8533 | 13040m to TRc | TRc Triassic limestone. PERMIT REQUIRED for vertebrate fossils on federal land.</desc>
    <sym>Flag, Green</sym>
    <type>Waypoint</type>
  </wpt>
  <wpt lat="40.907222" lon="-118.464444">
    <name>PW-09</name>
    <desc>Priority #9 | Score: 0.8523 | ML: 0.8523 | 41459m to TRc | TRc Triassic limestone. PERMIT REQUIRED for vertebrate fossils on federal land.</desc>
    <sym>Flag, Green</sym>
    <type>Waypoint</type>
  </wpt>
  <wpt lat="40.113056" lon="-117.2025">
    <name>PW-10</name>
    <desc>Priority #10 | Score: 0.8491 | ML: 0.7991 | 4801m to TRc | TRc Triassic limestone. PERMIT REQUIRED for vertebrate fossils on federal land.</desc>
    <sym>Flag, Green</sym>
    <type>Waypoint</type>
  </wpt>
  <wpt lat="40.139167" lon="-117.472222">
    <name>PW-11</name>
    <desc>Priority #11 | Score: 0.8459 | ML: 0.7959 | 3371m to TRc | TRc Triassic limestone. PERMIT REQUIRED for vertebrate fossils on federal land.</desc>
    <sym>Flag, Green</sym>
    <type>Waypoint</type>
  </wpt>
  <wpt lat="40.113056" lon="-117.202778">
    <name>PW-12</name>
    <desc>Priority #12 | Score: 0.8428 | ML: 0.7928 | 4817m to TRc | TRc Triassic limestone. PERMIT REQUIRED for vertebrate fossils on federal land.</desc>
    <sym>Flag, Green</sym>
    <type>Waypoint</type>
  </wpt>
  <wpt lat="40.265278" lon="-117.479722">
    <name>PW-13</name>
    <desc>Priority #13 | Score: 0.8425 | ML: 0.7925 | 4157m to TRc | TRc Triassic limestone. PERMIT REQUIRED for vertebrate fossils on federal land.</desc>
    <sym>Flag, Green</sym>
    <type>Waypoint</type>
  </wpt>
  <wpt lat="40.401111" lon="-117.207778">
    <name>PW-14</name>
    <desc>Priority #14 | Score: 0.8412 | ML: 0.7912 | 2143m to TRc | TRc Triassic limestone. PERMIT REQUIRED for vertebrate fossils on federal land.</desc>
    <sym>Flag, Green</sym>
    <type>Waypoint</type>
  </wpt>
  <wpt lat="39.159167" lon="-118.860833">
    <name>PW-15</name>
    <desc>Priority #15 | Score: 0.8394 | ML: 0.8394 | 124118m to TRc | TRc Triassic limestone. PERMIT REQUIRED for vertebrate fossils on federal land.</desc>
    <sym>Flag, Green</sym>
    <type>Waypoint</type>
  </wpt>
  <wpt lat="40.406389" lon="-117.705556">
    <name>PW-16</name>
    <desc>Priority #16 | Score: 0.8386 | ML: 0.7886 | 2194m to TRc | TRc Triassic limestone. PERMIT REQUIRED for vertebrate fossils on federal land.</desc>
    <sym>Flag, Green</sym>
    <type>Waypoint</type>
  </wpt>
  <wpt lat="38.458889" lon="-118.399722">
    <name>PW-17</name>
    <desc>Priority #17 | Score: 0.8305 | ML: 0.8305 | 148217m to TRc | TRc Triassic limestone. PERMIT REQUIRED for vertebrate fossils on federal land.</desc>
    <sym>Flag, Green</sym>
    <type>Waypoint</type>
  </wpt>
  <wpt lat="40.795556" lon="-117.459444">
    <name>PW-18</name>
    <desc>Priority #18 | Score: 0.8295 | ML: 0.8295 | 14000m to TRc | TRc Triassic limestone. PERMIT REQUIRED for vertebrate fossils on federal land.</desc>
    <sym>Flag, Green</sym>
    <type>Waypoint</type>
  </wpt>
  <wpt lat="39.024167" lon="-118.770556">
    <name>PW-19</name>
    <desc>Priority #19 | Score: 0.8201 | ML: 0.8201 | 126554m to TRc | TRc Triassic limestone. PERMIT REQUIRED for vertebrate fossils on federal land.</desc>
    <sym>Flag, Green</sym>
    <type>Waypoint</type>
  </wpt>
  <wpt lat="40.795278" lon="-117.458611">
    <name>PW-20</name>
    <desc>Priority #20 | Score: 0.8189 | ML: 0.8189 | 13952m to TRc | TRc Triassic limestone. PERMIT REQUIRED for vertebrate fossils on federal land.</desc>
    <sym>Flag, Green</sym>
    <type>Waypoint</type>
  </wpt>
  <wpt lat="40.159722" lon="-117.476389">
    <name>PW-21</name>
    <desc>Priority #21 | Score: 0.8123 | ML: 0.8123 | 3200m to TRc | TRc Triassic limestone. PERMIT REQUIRED for vertebrate fossils on federal land.</desc>
    <sym>Flag, Green</sym>
    <type>Waypoint</type>
  </wpt>
  <wpt lat="40.320556" lon="-117.491111">
    <name>PW-22</name>
    <desc>Priority #22 | Score: 0.8082 | ML: 0.8082 | 4100m to TRc | TRc Triassic limestone. PERMIT REQUIRED for vertebrate fossils on federal land.</desc>
    <sym>Flag, Green</sym>
    <type>Waypoint</type>
  </wpt>
  <wpt lat="40.381944" lon="-118.198056">
    <name>PW-23</name>
    <desc>Priority #23 | Score: 0.8051 | ML: 0.8051 | 890m to TRc | TRc Triassic limestone. PERMIT REQUIRED for vertebrate fossils on federal land.</desc>
    <sym>Flag, Green</sym>
    <type>Waypoint</type>
  </wpt>
  <wpt lat="40.512778" lon="-118.154722">
    <name>PW-24</name>
    <desc>Priority #24 | Score: 0.8035 | ML: 0.8035 | 1200m to TRc | TRc Triassic limestone. PERMIT REQUIRED for vertebrate fossils on federal land.</desc>
    <sym>Flag, Green</sym>
    <type>Waypoint</type>
  </wpt>
  <wpt lat="40.467222" lon="-117.623333">
    <name>PW-25</name>
    <desc>Priority #25 | Score: 0.8012 | ML: 0.8012 | 2800m to TRc | TRc Triassic limestone. PERMIT REQUIRED for vertebrate fossils on federal land.</desc>
    <sym>Flag, Green</sym>
    <type>Waypoint</type>
  </wpt>
  <wpt lat="40.344167" lon="-118.211389">
    <name>PW-26</name>
    <desc>Priority #26 | Score: 0.7990 | ML: 0.7990 | 1450m to TRc | TRc Triassic limestone. PERMIT REQUIRED for vertebrate fossils on federal land.</desc>
    <sym>Flag, Green</sym>
    <type>Waypoint</type>
  </wpt>
  <wpt lat="40.289444" lon="-117.534722">
    <name>PW-27</name>
    <desc>Priority #27 | Score: 0.7968 | ML: 0.7968 | 3650m to TRc | TRc Triassic limestone. PERMIT REQUIRED for vertebrate fossils on federal land.</desc>
    <sym>Flag, Green</sym>
    <type>Waypoint</type>
  </wpt>
  <wpt lat="40.623056" lon="-117.745">
    <name>PW-28</name>
    <desc>Priority #28 | Score: 0.7946 | ML: 0.7946 | 2100m to TRc | TRc Triassic limestone. PERMIT REQUIRED for vertebrate fossils on federal land.</desc>
    <sym>Flag, Green</sym>
    <type>Waypoint</type>
  </wpt>
  <wpt lat="40.178333" lon="-117.512778">
    <name>PW-29</name>
    <desc>Priority #29 | Score: 0.7923 | ML: 0.7923 | 3300m to TRc | TRc Triassic limestone. PERMIT REQUIRED for vertebrate fossils on federal land.</desc>
    <sym>Flag, Green</sym>
    <type>Waypoint</type>
  </wpt>
  <wpt lat="40.456111" lon="-118.267222">
    <name>PW-30</name>
    <desc>Priority #30 | Score: 0.7901 | ML: 0.7901 | 780m to TRc | TRc Triassic limestone. PERMIT REQUIRED for vertebrate fossils on federal land.</desc>
    <sym>Flag, Green</sym>
    <type>Waypoint</type>
  </wpt>
  <wpt lat="40.534722" lon="-117.689444">
    <name>PW-31</name>
    <desc>Priority #31 | Score: 0.7879 | ML: 0.7879 | 2600m to TRc | TRc Triassic limestone. PERMIT REQUIRED for vertebrate fossils on federal land.</desc>
    <sym>Flag, Green</sym>
    <type>Waypoint</type>
  </wpt>
  <wpt lat="40.401944" lon="-118.312778">
    <name>PW-32</name>
    <desc>Priority #32 | Score: 0.7857 | ML: 0.7857 | 620m to TRc | TRc Triassic limestone. PERMIT REQUIRED for vertebrate fossils on federal land.</desc>
    <sym>Flag, Green</sym>
    <type>Waypoint</type>
  </wpt>
  <wpt lat="40.623333" lon="-118.156667">
    <name>PW-33</name>
    <desc>Priority #33 | Score: 0.7835 | ML: 0.7835 | 1100m to TRc | TRc Triassic limestone. PERMIT REQUIRED for vertebrate fossils on federal land.</desc>
    <sym>Flag, Green</sym>
    <type>Waypoint</type>
  </wpt>
  <wpt lat="40.712222" lon="-117.812222">
    <name>PW-34</name>
    <desc>Priority #34 | Score: 0.7812 | ML: 0.7812 | 1800m to TRc | TRc Triassic limestone. PERMIT REQUIRED for vertebrate fossils on federal land.</desc>
    <sym>Flag, Green</sym>
    <type>Waypoint</type>
  </wpt>
  <wpt lat="40.245" lon="-118.134444">
    <name>PW-35</name>
    <desc>Priority #35 | Score: 0.7790 | ML: 0.7790 | 2400m to TRc | TRc Triassic limestone. PERMIT REQUIRED for vertebrate fossils on federal land.</desc>
    <sym>Flag, Green</sym>
    <type>Waypoint</type>
  </wpt>
  <wpt lat="40.789167" lon="-117.823333">
    <name>PW-36</name>
    <desc>Priority #36 | Score: 0.7768 | ML: 0.7768 | 1950m to TRc | TRc Triassic limestone. PERMIT REQUIRED for vertebrate fossils on federal land.</desc>
    <sym>Flag, Green</sym>
    <type>Waypoint</type>
  </wpt>
  <wpt lat="40.156389" lon="-117.623056">
    <name>PW-37</name>
    <desc>Priority #37 | Score: 0.7746 | ML: 0.7746 | 2750m to TRc | TRc Triassic limestone. PERMIT REQUIRED for vertebrate fossils on federal land.</desc>
    <sym>Flag, Green</sym>
    <type>Waypoint</type>
  </wpt>
  <wpt lat="40.834444" lon="-118.123333">
    <name>PW-38</name>
    <desc>Priority #38 | Score: 0.7723 | ML: 0.7723 | 1400m to TRc | TRc Triassic limestone. PERMIT REQUIRED for vertebrate fossils on federal land.</desc>
    <sym>Flag, Green</sym>
    <type>Waypoint</type>
  </wpt>
  <wpt lat="40.312778" lon="-118.089722">
    <name>PW-39</name>
    <desc>Priority #39 | Score: 0.7701 | ML: 0.7701 | 1650m to TRc | TRc Triassic limestone. PERMIT REQUIRED for vertebrate fossils on federal land.</desc>
    <sym>Flag, Green</sym>
    <type>Waypoint</type>
  </wpt>
  <wpt lat="40.567222" lon="-118.312222">
    <name>PW-40</name>
    <desc>Priority #40 | Score: 0.7679 | ML: 0.7679 | 920m to TRc | TRc Triassic limestone. PERMIT REQUIRED for vertebrate fossils on federal land.</desc>
    <sym>Flag, Green</sym>
    <type>Waypoint</type>
  </wpt>
  <wpt lat="40.423333" lon="-117.534722">
    <name>PW-41</name>
    <desc>Priority #41 | Score: 0.7657 | ML: 0.7657 | 3100m to TRc | TRc Triassic limestone. PERMIT REQUIRED for vertebrate fossils on federal land.</desc>
    <sym>Flag, Green</sym>
    <type>Waypoint</type>
  </wpt>
  <wpt lat="40.689167" lon="-118.245">
    <name>PW-42</name>
    <desc>Priority #42 | Score: 0.7635 | ML: 0.7635 | 1050m to TRc | TRc Triassic limestone. PERMIT REQUIRED for vertebrate fossils on federal land.</desc>
    <sym>Flag, Green</sym>
    <type>Waypoint</type>
  </wpt>
  <wpt lat="40.234444" lon="-117.756389">
    <name>PW-43</name>
    <desc>Priority #43 | Score: 0.7612 | ML: 0.7612 | 2300m to TRc | TRc Triassic limestone. PERMIT REQUIRED for vertebrate fossils on federal land.</desc>
    <sym>Flag, Green</sym>
    <type>Waypoint</type>
  </wpt>
  <wpt lat="40.745" lon="-118.034722">
    <name>PW-44</name>
    <desc>Priority #44 | Score: 0.7590 | ML: 0.7590 | 1550m to TRc | TRc Triassic limestone. PERMIT REQUIRED for vertebrate fossils on federal land.</desc>
    <sym>Flag, Green</sym>
    <type>Waypoint</type>
  </wpt>
  <wpt lat="40.189167" lon="-118.212778">
    <name>PW-45</name>
    <desc>Priority #45 | Score: 0.7568 | ML: 0.7568 | 1700m to TRc | TRc Triassic limestone. PERMIT REQUIRED for vertebrate fossils on federal land.</desc>
    <sym>Flag, Green</sym>
    <type>Waypoint</type>
  </wpt>
  <wpt lat="40.578333" lon="-117.456389">
    <name>PW-46</name>
    <desc>Priority #46 | Score: 0.7546 | ML: 0.7546 | 3400m to TRc | TRc Triassic limestone. PERMIT REQUIRED for vertebrate fossils on federal land.</desc>
    <sym>Flag, Green</sym>
    <type>Waypoint</type>
  </wpt>
  <wpt lat="40.356111" lon="-117.934444">
    <name>PW-47</name>
    <desc>Priority #47 | Score: 0.7523 | ML: 0.7523 | 2050m to TRc | TRc Triassic limestone. PERMIT REQUIRED for vertebrate fossils on federal land.</desc>
    <sym>Flag, Green</sym>
    <type>Waypoint</type>
  </wpt>
  <wpt lat="40.823056" lon="-117.956111">
    <name>PW-48</name>
    <desc>Priority #48 | Score: 0.7501 | ML: 0.7501 | 1850m to TRc | TRc Triassic limestone. PERMIT REQUIRED for vertebrate fossils on federal land.</desc>
    <sym>Flag, Green</sym>
    <type>Waypoint</type>
  </wpt>
  <wpt lat="40.134444" lon="-118.056389">
    <name>PW-49</name>
    <desc>Priority #49 | Score: 0.7479 | ML: 0.7479 | 2200m to TRc | TRc Triassic limestone. PERMIT REQUIRED for vertebrate fossils on federal land.</desc>
    <sym>Flag, Green</sym>
    <type>Waypoint</type>
  </wpt>
  <wpt lat="40.4675" lon="-118.423056">
    <name>PW-50</name>
    <desc>Priority #50 | Score: 0.7457 | ML: 0.7457 | 680m to TRc | TRc Triassic limestone. PERMIT REQUIRED for vertebrate fossils on federal land.</desc>
    <sym>Flag, Green</sym>
    <type>Waypoint</type>
  </wpt>
</gpx>
