{
"type": "FeatureCollection",
"name": "pbdb_occurrences",
"crs": { "type": "name", "properties": { "name": "urn:ogc:def:crs:OGC:1.3:CRS84" } },
"features": [
{ "type": "Feature", "properties": { "occurrence_id": "occ:361674", "cid": "col:34267", "idn": "Omphalosaurus nevadanus n. gen. n. sp.", "taxon_name": "Omphalosaurus nevadanus", "taxon_rank": 3, "tid": "txn:54114", "oei": "Middle Triassic", "early_age_ma": 246.7, "late_age_ma": 237.0, "rid": "ref:9007", "longitude": -118.300003, "latitude": 40.133331, "phylum": "Chordata", "phn": "txn:33815", "class": "Reptilia", "cln": "txn:36322", "order": "Ichthyosauria", "odn": "txn:36543", "family": "Omphalosauridae", "fmn": "txn:38873", "gnl": "Omphalosaurus", "gnn": "txn:36565", "idg": "Omphalosaurus", "rsg": "n. gen.", "ids": "nevadanus", "rss": "n. sp.", "env": "marine indet.", "formation": "Prida", "cxi": "45", "ref": "J. C. Merriam. 1906. Preliminary note on a new marine reptile from the Middle Triassic of Nevada. University of California Publications in Geological Sciences 5(5):71-79", "query_taxon": "Ichthyosauria", "tec": null, "gcm": null, "member": null, "oli": null, "stratgroup": null, "tdf": null, "iid": null, "idr": null, "mid_age_ma": 241.85 }, "geometry": { "type": "Point", "coordinates": [ -118.300003, 40.133331 ] } },
{ "type": "Feature", "properties": { "occurrence_id": "occ:467069", "cid": "col:34267", "idn": "Cymbospondylus sp.", "taxon_name": "Cymbospondylus", "taxon_rank": 5, "tid": "txn:36550", "oei": "Middle Triassic", "early_age_ma": 246.7, "late_age_ma": 237.0, "rid": "ref:9007", "longitude": -118.300003, "latitude": 40.133331, "phylum": "Chordata", "phn": "txn:33815", "class": "Reptilia", "cln": "txn:36322", "order": "Ichthyosauria", "odn": "txn:36543", "family": "Cymbospondylidae", "fmn": "txn:163951", "gnl": "Cymbospondylus", "gnn": "txn:36550", "idg": "Cymbospondylus", "rsg": null, "ids": "sp.", "rss": null, "env": "marine indet.", "formation": "Prida", "cxi": "45", "ref": "J. C. Merriam. 1906. Preliminary note on a new marine reptile from the Middle Triassic of Nevada. University of California Publications in Geological Sciences 5(5):71-79", "query_taxon": "Ichthyosauria", "tec": null, "gcm": null, "member": null, "oli": null, "stratgroup": null, "tdf": null, "iid": null, "idr": null, "mid_age_ma": 241.85 }, "geometry": { "type": "Point", "coordinates": [ -118.300003, 40.133331 ] } },
{ "type": "Feature", "properties": { "occurrence_id": "occ:467070", "cid": "col:34267", "idn": null, "taxon_name": "Cymbospondylus petrinus", "taxon_rank": 3, "tid": "txn:170850", "oei": "Middle Triassic", "early_age_ma": 246.7, "late_age_ma": 237.0, "rid": "ref:9007", "longitude": -118.300003, "latitude": 40.133331, "phylum": "Chordata", "phn": "txn:33815", "class": "Reptilia", "cln": "txn:36322", "order": "Ichthyosauria", "odn": "txn:36543", "family": "Cymbospondylidae", "fmn": "txn:163951", "gnl": "Cymbospondylus", "gnn": "txn:36550", "idg": "Cymbospondylus", "rsg": null, "ids": "petrinus", "rss": null, "env": "marine indet.", "formation": "Prida", "cxi": "45", "ref": "J. C. Merriam. 1906. Preliminary note on a new marine reptile from the Middle Triassic of Nevada. University of California Publications in Geological Sciences 5(5):71-79", "query_taxon": "Ichthyosauria", "tec": null, "gcm": null, "member": null, "oli": null, "stratgroup": null, "tdf": null, "iid": null, "idr": null, "mid_age_ma": 241.85 }, "geometry": { "type": "Point", "coordinates": [ -118.300003, 40.133331 ] } },
{ "type": "Feature", "properties": { "occurrence_id": "occ:467071", "cid": "col:34267", "idn": null, "taxon_name": "Cymbospondylus natans", "taxon_rank": 3, "tid": "txn:285199", "oei": "Middle Triassic", "early_age_ma": 246.7, "late_age_ma": 237.0, "rid": "ref:9007", "longitude": -118.300003, "latitude": 40.133331, "phylum": "Chordata", "phn": "txn:33815", "class": "Reptilia", "cln": "txn:36322", "order": "Ichthyosauria", "odn": "txn:36543", "family": "Cymbospondylidae", "fmn": "txn:163951", "gnl": "Cymbospondylus", "gnn": "txn:36550", "idg": "Cymbospondylus", "rsg": null, "ids": "natans", "rss": null, "env": "marine indet.", "formation": "Prida", "cxi": "45", "ref": "J. C. Merriam. 1906. Preliminary note on a new marine reptile from the Middle Triassic of Nevada. University of California Publications in Geological Sciences 5(5):71-79", "query_taxon": "Ichthyosauria", "tec": null, "gcm": null, "member": null, "oli": null, "stratgroup": null, "tdf": null, "iid": null, "idr": null, "mid_age_ma": 241.85 }, "geometry": { "type": "Point", "coordinates": [ -118.300003, 40.133331 ] } },
{ "type": "Feature", "properties": { "occurrence_id": "occ:467073", "cid": "col:34267", "idn": null, "taxon_name": "Phalarodon fraasi", "taxon_rank": 3, "tid": "txn:258578", "oei": "Middle Triassic", "early_age_ma": 246.7, "late_age_ma": 237.0, "rid": "ref:9007", "longitude": -118.300003, "latitude": 40.133331, "phylum": "Chordata", "phn": "txn:33815", "class": "Reptilia", "cln": "txn:36322", "order": "Ichthyosauria", "odn": "txn:36543", "family": "Mixosauridae", "fmn": "txn:38875", "gnl": "Phalarodon", "gnn": "txn:36568", "idg": "Phalarodon", "rsg": null, "ids": "fraasi", "rss": null, "env": "marine indet.", "formation": "Prida", "cxi": "45", "ref": "J. C. Merriam. 1906. Preliminary note on a new marine reptile from the Middle Triassic of Nevada. University of California Publications in Geological Sciences 5(5):71-79", "query_taxon": "Ichthyosauria", "tec": null, "gcm": null, "member": null, "oli": null, "stratgroup": null, "tdf": null, "iid": null, "idr": null, "mid_age_ma": 241.85 }, "geometry": { "type": "Point", "coordinates": [ -118.300003, 40.133331 ] } },
{ "type": "Feature", "properties": { "occurrence_id": "occ:467074", "cid": "col:34267", "idn": "Ichthyosauria indet.", "taxon_name": "Ichthyosauria", "taxon_rank": 25, "tid": "txn:36543", "oei": "Middle Triassic", "early_age_ma": 246.7, "late_age_ma": 237.0, "rid": "ref:9007", "longitude": -118.300003, "latitude": 40.133331, "phylum": "Chordata", "phn": "txn:33815", "class": "Reptilia", "cln": "txn:36322", "order": "Ichthyosauria", "odn": "txn:36543", "family": null, "fmn": null, "gnl": null, "gnn": null, "idg": "Ichthyosauria", "rsg": null, "ids": "indet.", "rss": null, "env": "marine indet.", "formation": "Prida", "cxi": "45", "ref": "J. C. Merriam. 1906. Preliminary note on a new marine reptile from the Middle Triassic of Nevada. University of California Publications in Geological Sciences 5(5):71-79", "query_taxon": "Ichthyosauria", "tec": null, "gcm": null, "member": null, "oli": null, "stratgroup": null, "tdf": null, "iid": null, "idr": null, "mid_age_ma": 241.85 }, "geometry": { "type": "Point", "coordinates": [ -118.300003, 40.133331 ] } },
{ "type": "Feature", "properties": { "occurrence_id": "occ:714514", "cid": "col:76610", "idn": "Ichthyosauria indet.", "taxon_name": "Ichthyosauria", "taxon_rank": 25, "tid": "txn:36543", "oei": "Rhaetian", "early_age_ma": 205.7, "late_age_ma": 201.4, "rid": "ref:25881", "longitude": -118.083, "latitude": 38.487, "phylum": "Chordata", "phn": "txn:33815", "class": "Reptilia", "cln": "txn:36322", "order": "Ichthyosauria", "odn": "txn:36543", "family": null, "fmn": null, "gnl": null, "gnn": null, "idg": "Ichthyosauria", "rsg": null, "ids": "indet.", "rss": null, "env": "transition zone/lower shoreface", "formation": "Gabbs", "cxi": "135", "ref": "S. G. Lucas, D. G. Taylor, and J. Guex, L. H. Tanner, K. Krainer. 2007. The proposed global stratotype section and point for the base of the Jurassic system in the New York Canyon area, Nevada, USA. New Mexico Museum of Natural History and Science Bulletin (40):139-168", "query_taxon": "Ichthyosauria", "tec": "back-arc basin", "gcm": "depositional paleoenvironments at Ferguson Hill section were all normal marine environments below wave base, these strate were thus deposited as part of a shelfal terrane along a subsiding continental margin in which there was significant variation in subsidence rates. According to Laws (1982) and Taylor et al. (1983), the sediments of the Gabbs Fm. were deposited in a shallow marine environment, the lower part of the Mt Hyatt member was interpreted as shallow subtidal. Lucas et al. conclude that Muller Canyon member deposition took place on a fairly narrow shelf along the backarc seaway... this paleoenvironment is probably best described as a middle to outer shelf environment.", "member": "Muller Canyon", "oli": null, "stratgroup": null, "tdf": null, "iid": null, "idr": null, "mid_age_ma": 203.55 }, "geometry": { "type": "Point", "coordinates": [ -118.083, 38.487 ] } },
{ "type": "Feature", "properties": { "occurrence_id": "occ:900174", "cid": "col:100391", "idn": "Ichthyosaurus sp.", "taxon_name": "Ichthyosaurus", "taxon_rank": 5, "tid": "txn:36558", "oei": "Norian", "early_age_ma": 227.3, "late_age_ma": 205.7, "rid": "ref:34463", "longitude": -118.04583, "latitude": 38.431946, "phylum": "Chordata", "phn": "txn:33815", "class": "Reptilia", "cln": "txn:36322", "order": "Ichthyosauria", "odn": "txn:36543", "family": "Ichthyosauridae", "fmn": "txn:38877", "gnl": "Ichthyosaurus", "gnn": "txn:36558", "idg": "Ichthyosaurus", "rsg": null, "ids": "sp.", "rss": null, "env": "reef, buildup or bioherm", "formation": "Luning", "cxi": "136", "ref": "G. D. Stanley, Jr. 1979. Paleoecology, structure, and distribution of Triassic coral buildups in western North America. The University of Kansas Paleontological Contributions 65:1-68", "query_taxon": "Ichthyosauria", "tec": null, "gcm": null, "member": "lower", "oli": null, "stratgroup": null, "tdf": null, "iid": null, "idr": null, "mid_age_ma": 216.5 }, "geometry": { "type": "Point", "coordinates": [ -118.04583, 38.431946 ] } },
{ "type": "Feature", "properties": { "occurrence_id": "occ:900219", "cid": "col:100403", "idn": "Ichthyosaurus sp.", "taxon_name": "Ichthyosaurus", "taxon_rank": 5, "tid": "txn:36558", "oei": "Norian", "early_age_ma": 227.3, "late_age_ma": 205.7, "rid": "ref:34463", "longitude": -118.04583, "latitude": 38.431946, "phylum": "Chordata", "phn": "txn:33815", "class": "Reptilia", "cln": "txn:36322", "order": "Ichthyosauria", "odn": "txn:36543", "family": "Ichthyosauridae", "fmn": "txn:38877", "gnl": "Ichthyosaurus", "gnn": "txn:36558", "idg": "Ichthyosaurus", "rsg": null, "ids": "sp.", "rss": null, "env": "shallow subtidal indet.", "formation": "Luning", "cxi": "136", "ref": "G. D. Stanley, Jr. 1979. Paleoecology, structure, and distribution of Triassic coral buildups in western North America. The University of Kansas Paleontological Contributions 65:1-68", "query_taxon": "Ichthyosauria", "tec": null, "gcm": null, "member": "lower", "oli": null, "stratgroup": null, "tdf": null, "iid": null, "idr": null, "mid_age_ma": 216.5 }, "geometry": { "type": "Point", "coordinates": [ -118.04583, 38.431946 ] } },
{ "type": "Feature", "properties": { "occurrence_id": "occ:900302", "cid": "col:100412", "idn": "Ichthyosaurus sp.", "taxon_name": "Ichthyosaurus", "taxon_rank": 5, "tid": "txn:36558", "oei": "Lacian", "early_age_ma": 227.3, "late_age_ma": 215.38, "rid": "ref:34463", "longitude": -118.016998, "latitude": 38.402, "phylum": "Chordata", "phn": "txn:33815", "class": "Reptilia", "cln": "txn:36322", "order": "Ichthyosauria", "odn": "txn:36543", "family": "Ichthyosauridae", "fmn": "txn:38877", "gnl": "Ichthyosaurus", "gnn": "txn:36558", "idg": "Ichthyosaurus", "rsg": null, "ids": "sp.", "rss": null, "env": "reef, buildup or bioherm", "formation": "Luning", "cxi": "136", "ref": "G. D. Stanley, Jr. 1979. Paleoecology, structure, and distribution of Triassic coral buildups in western North America. The University of Kansas Paleontological Contributions 65:1-68", "query_taxon": "Ichthyosauria", "tec": null, "gcm": null, "member": null, "oli": null, "stratgroup": null, "tdf": null, "iid": null, "idr": null, "mid_age_ma": 221.34 }, "geometry": { "type": "Point", "coordinates": [ -118.016998, 38.402 ] } },
{ "type": "Feature", "properties": { "occurrence_id": "occ:906286", "cid": "col:101858", "idn": "Ichthyosauria indet.", "taxon_name": "Ichthyosauria", "taxon_rank": 25, "tid": "txn:36543", "oei": "Illyrian", "early_age_ma": 243.33, "late_age_ma": 241.464, "rid": "ref:34630", "longitude": -116.716667, "latitude": 40.0, "phylum": "Chordata", "phn": "txn:33815", "class": "Reptilia", "cln": "txn:36322", "order": "Ichthyosauria", "odn": "txn:36543", "family": null, "fmn": null, "gnl": null, "gnn": null, "idg": "Ichthyosauria", "rsg": null, "ids": "indet.", "rss": null, "env": "marine indet.", "formation": null, "cxi": "139", "ref": "J. Leidy. 1868. Notice of some reptilian remains from Nevada. Proceedings of the Academy of Natural Sciences of Philadelphia 109:177-178", "query_taxon": "Ichthyosauria", "tec": null, "gcm": null, "member": null, "oli": null, "stratgroup": null, "tdf": null, "iid": null, "idr": null, "mid_age_ma": 242.397 }, "geometry": { "type": "Point", "coordinates": [ -116.716667, 40.0 ] } },
{ "type": "Feature", "properties": { "occurrence_id": "occ:906287", "cid": "col:101858", "idn": null, "taxon_name": "Cymbospondylus piscosus", "taxon_rank": 3, "tid": "txn:172947", "oei": "Illyrian", "early_age_ma": 243.33, "late_age_ma": 241.464, "rid": "ref:34630", "longitude": -116.716667, "latitude": 40.0, "phylum": "Chordata", "phn": "txn:33815", "class": "Reptilia", "cln": "txn:36322", "order": "Ichthyosauria", "odn": "txn:36543", "family": "Cymbospondylidae", "fmn": "txn:163951", "gnl": "Cymbospondylus", "gnn": "txn:36550", "idg": "Cymbospondylus", "rsg": null, "ids": "piscosus", "rss": null, "env": "marine indet.", "formation": null, "cxi": "139", "ref": "J. Leidy. 1868. Notice of some reptilian remains from Nevada. Proceedings of the Academy of Natural Sciences of Philadelphia 109:177-178", "query_taxon": "Ichthyosauria", "tec": null, "gcm": null, "member": null, "oli": null, "stratgroup": null, "tdf": null, "iid": null, "idr": null, "mid_age_ma": 242.397 }, "geometry": { "type": "Point", "coordinates": [ -116.716667, 40.0 ] } },
{ "type": "Feature", "properties": { "occurrence_id": "occ:906313", "cid": "col:101860", "idn": null, "taxon_name": "Cymbospondylus petrinus", "taxon_rank": 3, "tid": "txn:170850", "oei": "Triassic", "early_age_ma": 251.902, "late_age_ma": 201.4, "rid": "ref:34630", "longitude": -118.099998, "latitude": 40.548058, "phylum": "Chordata", "phn": "txn:33815", "class": "Reptilia", "cln": "txn:36322", "order": "Ichthyosauria", "odn": "txn:36543", "family": "Cymbospondylidae", "fmn": "txn:163951", "gnl": "Cymbospondylus", "gnn": "txn:36550", "idg": "Cymbospondylus", "rsg": null, "ids": "petrinus", "rss": null, "env": "marine indet.", "formation": null, "cxi": "16", "ref": "J. Leidy. 1868. Notice of some reptilian remains from Nevada. Proceedings of the Academy of Natural Sciences of Philadelphia 109:177-178", "query_taxon": "Ichthyosauria", "tec": null, "gcm": null, "member": null, "oli": null, "stratgroup": null, "tdf": null, "iid": null, "idr": null, "mid_age_ma": 226.651 }, "geometry": { "type": "Point", "coordinates": [ -118.099998, 40.548058 ] } },
{ "type": "Feature", "properties": { "occurrence_id": "occ:906314", "cid": "col:101860", "idn": null, "taxon_name": "Chonespondylus grandis", "taxon_rank": 3, "tid": "txn:174450", "oei": "Triassic", "early_age_ma": 251.902, "late_age_ma": 201.4, "rid": "ref:34630", "longitude": -118.099998, "latitude": 40.548058, "phylum": "Chordata", "phn": "txn:33815", "class": "Reptilia", "cln": "txn:36322", "order": "Ichthyosauria", "odn": "txn:36543", "family": "Cymbospondylidae", "fmn": "txn:163951", "gnl": "Cymbospondylus", "gnn": "txn:36550", "idg": "Chonespondylus", "rsg": null, "ids": "grandis", "rss": null, "env": "marine indet.", "formation": null, "cxi": "16", "ref": "J. Leidy. 1868. Notice of some reptilian remains from Nevada. Proceedings of the Academy of Natural Sciences of Philadelphia 109:177-178", "query_taxon": "Ichthyosauria", "tec": null, "gcm": null, "member": null, "oli": null, "stratgroup": null, "tdf": null, "iid": null, "idr": null, "mid_age_ma": 226.651 }, "geometry": { "type": "Point", "coordinates": [ -118.099998, 40.548058 ] } },
{ "type": "Feature", "properties": { "occurrence_id": "occ:908629", "cid": "col:102368", "idn": null, "taxon_name": "Shonisaurus popularis", "taxon_rank": 3, "tid": "txn:170857", "oei": "Lacian", "early_age_ma": 227.3, "late_age_ma": 215.38, "rid": "ref:34761", "longitude": -117.591393, "latitude": 38.876667, "phylum": "Chordata", "phn": "txn:33815", "class": "Reptilia", "cln": "txn:36322", "order": "Ichthyosauria", "odn": "txn:36543", "family": "Shastasauridae", "fmn": "txn:38876", "gnl": "Shonisaurus", "gnn": "txn:36572", "idg": "Shonisaurus", "rsg": null, "ids": "popularis", "rss": null, "env": "open shallow subtidal", "formation": "Luning", "cxi": "136", "ref": "J. A. Hogler and R. A. Hanger. 1989. A new condrophorine (Hydrozoa, Velellidae) from the Upper Triassic of Nevada. Journal of Paleontology 63(2):249-251", "query_taxon": "Ichthyosauria", "tec": null, "gcm": "\"These sediments appear to represent an early transgressive episode in a now dismembered, shallow marine basin of at least Late Triassic (Karnian) through Early Jurassic (Toarcian) age (Oldow, 1981).\"", "member": null, "oli": null, "stratgroup": null, "tdf": null, "iid": null, "idr": null, "mid_age_ma": 221.34 }, "geometry": { "type": "Point", "coordinates": [ -117.591393, 38.876667 ] } },
{ "type": "Feature", "properties": { "occurrence_id": "occ:908660", "cid": "col:102378", "idn": "Mixosaurus sp.", "taxon_name": "Mixosaurus", "taxon_rank": 5, "tid": "txn:36562", "oei": "Anisian", "early_age_ma": 246.7, "late_age_ma": 237.0, "rid": "ref:34765", "longitude": -117.558891, "latitude": 40.059166, "phylum": "Chordata", "phn": "txn:33815", "class": "Reptilia", "cln": "txn:36322", "order": "Ichthyosauria", "odn": "txn:36543", "family": "Mixosauridae", "fmn": "txn:38875", "gnl": "Mixosaurus", "gnn": "txn:36562", "idg": "Mixosaurus", "rsg": null, "ids": "sp.", "rss": null, "env": "open shallow subtidal", "formation": "Favret", "cxi": "45", "ref": "P. M. Sander, O. C. Rieppel, and H. Bucher. 1994. A new marine vertebrate fauna from the Middle Triassic of Nevada. Journal of Paleontology 68(3):676-680", "query_taxon": "Ichthyosauria", "tec": null, "gcm": null, "member": "Fossil Hill", "oli": "Ladinian", "stratgroup": "Star Peak", "tdf": null, "iid": null, "idr": null, "mid_age_ma": 241.85 }, "geometry": { "type": "Point", "coordinates": [ -117.558891, 40.059166 ] } },
{ "type": "Feature", "properties": { "occurrence_id": "occ:908661", "cid": "col:102379", "idn": "Mixosaurus sp.", "taxon_name": "Mixosaurus", "taxon_rank": 5, "tid": "txn:36562", "oei": "Anisian", "early_age_ma": 246.7, "late_age_ma": 237.0, "rid": "ref:34765", "longitude": -117.633888, "latitude": 40.224998, "phylum": "Chordata", "phn": "txn:33815", "class": "Reptilia", "cln": "txn:36322", "order": "Ichthyosauria", "odn": "txn:36543", "family": "Mixosauridae", "fmn": "txn:38875", "gnl": "Mixosaurus", "gnn": "txn:36562", "idg": "Mixosaurus", "rsg": null, "ids": "sp.", "rss": null, "env": "open shallow subtidal", "formation": "Favret", "cxi": "45", "ref": "P. M. Sander, O. C. Rieppel, and H. Bucher. 1994. A new marine vertebrate fauna from the Middle Triassic of Nevada. Journal of Paleontology 68(3):676-680", "query_taxon": "Ichthyosauria", "tec": null, "gcm": null, "member": "Fossil Hill", "oli": "Ladinian", "stratgroup": "Star Peak", "tdf": null, "iid": null, "idr": null, "mid_age_ma": 241.85 }, "geometry": { "type": "Point", "coordinates": [ -117.633888, 40.224998 ] } },
{ "type": "Feature", "properties": { "occurrence_id": "occ:909076", "cid": "col:102473", "idn": "Mixosaurus cf. natans", "taxon_name": "Mixosaurus", "taxon_rank": 5, "tid": "txn:36562", "oei": "Illyrian", "early_age_ma": 243.33, "late_age_ma": 241.464, "rid": "ref:34775", "longitude": -117.53833, "latitude": 40.048611, "phylum": "Chordata", "phn": "txn:33815", "class": "Reptilia", "cln": "txn:36322", "order": "Ichthyosauria", "odn": "txn:36543", "family": "Mixosauridae", "fmn": "txn:38875", "gnl": "Mixosaurus", "gnn": "txn:36562", "idg": "Mixosaurus", "rsg": null, "ids": "natans", "rss": "cf.", "env": "marine indet.", "formation": "Favret", "cxi": "139", "ref": "P. M. Sander and H. Boucher. 1990. On the presence of Mixosaurus (Ichthyopterygia: Reptilia) in the Middle Triassic of Nevada. Journal of Paleontology 64(1):161-164", "query_taxon": "Ichthyosauria", "tec": null, "gcm": null, "member": "Fossil Hill", "oli": null, "stratgroup": null, "tdf": "species not entered", "iid": null, "idr": null, "mid_age_ma": 242.397 }, "geometry": { "type": "Point", "coordinates": [ -117.53833, 40.048611 ] } },
{ "type": "Feature", "properties": { "occurrence_id": "occ:934002", "cid": "col:107398", "idn": null, "taxon_name": "Cymbospondylus petrinus", "taxon_rank": 3, "tid": "txn:170850", "oei": "Middle Triassic", "early_age_ma": 246.7, "late_age_ma": 237.0, "rid": "ref:35747", "longitude": -118.136673, "latitude": 40.405666, "phylum": "Chordata", "phn": "txn:33815", "class": "Reptilia", "cln": "txn:36322", "order": "Ichthyosauria", "odn": "txn:36543", "family": "Cymbospondylidae", "fmn": "txn:163951", "gnl": "Cymbospondylus", "gnn": "txn:36550", "idg": "Cymbospondylus", "rsg": null, "ids": "petrinus", "rss": null, "env": "carbonate indet.", "formation": null, "cxi": "45", "ref": "J. C. Merriam. 1905. A primitive ichthyosaurian limb from the Middle Triassic of Nevada. University of California Publications, Bulletin of the Department of Geological Sciences 4(2):33-38", "query_taxon": "Ichthyosauria", "tec": null, "gcm": null, "member": null, "oli": null, "stratgroup": null, "tdf": null, "iid": null, "idr": null, "mid_age_ma": 241.85 }, "geometry": { "type": "Point", "coordinates": [ -118.136673, 40.405666 ] } },
{ "type": "Feature", "properties": { "occurrence_id": "occ:1095497", "cid": "col:138264", "idn": "Thalattoarchon saurophagis n. gen. n. sp.", "taxon_name": "Thalattoarchon saurophagis", "taxon_rank": 3, "tid": "txn:255032", "oei": "Pelsonian", "early_age_ma": 244.24, "late_age_ma": 243.33, "rid": "ref:44210", "longitude": -117.540001, "latitude": 40.049999, "phylum": "Chordata", "phn": "txn:33815", "class": "Reptilia", "cln": "txn:36322", "order": "Ichthyosauria", "odn": "txn:36543", "family": "NO_FAMILY_SPECIFIED", "fmn": "txn:NF", "gnl": "Thalattoarchon", "gnn": "txn:255031", "idg": "Thalattoarchon", "rsg": "n. gen.", "ids": "saurophagis", "rss": "n. sp.", "env": "marine indet.", "formation": "Favret", "cxi": "139", "ref": "N. B. Fröbisch, J. Fröbisch, and P. M. Sander, L. Schmitz, O. Rieppel. 2013. Macropredatory ichthyosaur from the Middle Triassic and the origin of modern trophic networks. Proceedings of the National Academy of Sciences 110(4):1393-1397", "query_taxon": "Ichthyosauria", "tec": null, "gcm": null, "member": "Fossil Hill", "oli": null, "stratgroup": "Star Peak", "tdf": null, "iid": null, "idr": null, "mid_age_ma": 243.785 }, "geometry": { "type": "Point", "coordinates": [ -117.540001, 40.049999 ] } },
{ "type": "Feature", "properties": { "occurrence_id": "occ:1186493", "cid": "col:75086", "idn": "Cymbospondylus nevadanus n. sp.", "taxon_name": "Cymbospondylus nevadanus", "taxon_rank": 3, "tid": "txn:285192", "oei": "Illyrian", "early_age_ma": 243.33, "late_age_ma": 241.464, "rid": "ref:49358", "longitude": -117.532784, "latitude": 39.578609, "phylum": "Chordata", "phn": "txn:33815", "class": "Reptilia", "cln": "txn:36322", "order": "Ichthyosauria", "odn": "txn:36543", "family": "Cymbospondylidae", "fmn": "txn:163951", "gnl": "Cymbospondylus", "gnn": "txn:36550", "idg": "Cymbospondylus", "rsg": null, "ids": "nevadanus", "rss": "n. sp.", "env": "carbonate indet.", "formation": null, "cxi": "139", "ref": "J. C. Merriam. 1908. Triassic Ichthyosauria. Memoirs of the University of California 1(1):1-155", "query_taxon": "Ichthyosauria", "tec": null, "gcm": null, "member": null, "oli": null, "stratgroup": null, "tdf": null, "iid": null, "idr": null, "mid_age_ma": 242.397 }, "geometry": { "type": "Point", "coordinates": [ -117.532784, 39.578609 ] } },
{ "type": "Feature", "properties": { "occurrence_id": "occ:1412645", "cid": "col:195195", "idn": "cf. Utatsusaurus sp.", "taxon_name": "Utatsusaurus", "taxon_rank": 5, "tid": "txn:36578", "oei": "Spathian", "early_age_ma": 248.1, "late_age_ma": 246.7, "rid": "ref:66434", "longitude": -118.075836, "latitude": 40.277779, "phylum": "Chordata", "phn": "txn:33815", "class": "Reptilia", "cln": "txn:36322", "order": "Ichthyosauria", "odn": "txn:36543", "family": "Utatsusauridae", "fmn": "txn:38872", "gnl": "Utatsusaurus", "gnn": "txn:36578", "idg": "Utatsusaurus", "rsg": "cf.", "ids": "sp.", "rss": null, "env": "marine indet.", "formation": "Prida", "cxi": "652", "ref": "N. P. Kelley, R. Motani, and P. Embree, M. J. Orchard. 2016. A new Lower Triassic ichthyopterygian assemblage from Fossil Hill, Nevada. PeerJ 4(e1626)", "query_taxon": "Ichthyosauria", "tec": null, "gcm": null, "member": "lower (unnamed)", "oli": null, "stratgroup": "Star Peak", "tdf": null, "iid": null, "idr": null, "mid_age_ma": 247.4 }, "geometry": { "type": "Point", "coordinates": [ -118.075836, 40.277779 ] } },
{ "type": "Feature", "properties": { "occurrence_id": "occ:1412647", "cid": "col:195195", "idn": "cf. Grippiidae indet.", "taxon_name": "Grippiidae", "taxon_rank": 9, "tid": "txn:172916", "oei": "Spathian", "early_age_ma": 248.1, "late_age_ma": 246.7, "rid": "ref:66434", "longitude": -118.075836, "latitude": 40.277779, "phylum": "Chordata", "phn": "txn:33815", "class": "Reptilia", "cln": "txn:36322", "order": "Ichthyosauria", "odn": "txn:36543", "family": "Grippiidae", "fmn": "txn:172916", "gnl": null, "gnn": null, "idg": "Grippiidae", "rsg": "cf.", "ids": "indet.", "rss": null, "env": "marine indet.", "formation": "Prida", "cxi": "652", "ref": "N. P. Kelley, R. Motani, and P. Embree, M. J. Orchard. 2016. A new Lower Triassic ichthyopterygian assemblage from Fossil Hill, Nevada. PeerJ 4(e1626)", "query_taxon": "Ichthyosauria", "tec": null, "gcm": null, "member": "lower (unnamed)", "oli": null, "stratgroup": "Star Peak", "tdf": null, "iid": null, "idr": null, "mid_age_ma": 247.4 }, "geometry": { "type": "Point", "coordinates": [ -118.075836, 40.277779 ] } },
{ "type": "Feature", "properties": { "occurrence_id": "occ:1417529", "cid": "col:196200", "idn": "Cymbospondylus nichollsi n. sp.", "taxon_name": "Cymbospondylus nichollsi", "taxon_rank": 3, "tid": "txn:263055", "oei": "Anisian", "early_age_ma": 246.7, "late_age_ma": 241.464, "rid": "ref:66739", "longitude": -117.539444, "latitude": 40.001389, "phylum": "Chordata", "phn": "txn:33815", "class": "Reptilia", "cln": "txn:36322", "order": "Ichthyosauria", "odn": "txn:36543", "family": "Cymbospondylidae", "fmn": "txn:163951", "gnl": "Cymbospondylus", "gnn": "txn:36550", "idg": "Cymbospondylus", "rsg": null, "ids": "nichollsi", "rss": "n. sp.", "env": "marine indet.", "formation": "Favret", "cxi": "139", "ref": "N. B. Fröbisch, P. M. Sander, and O. Rieppel. 2006. A new species of Cymbospondylus (Diapsida, Ichthyosauria) from the Middle Triassic of Nevada and a re-evaluation of the skull osteology of the genus. Zoological Journal of the Linnean Society 147(4):515-538", "query_taxon": "Ichthyosauria", "tec": null, "gcm": null, "member": "Fossil Hill", "oli": null, "stratgroup": null, "tdf": null, "iid": null, "idr": null, "mid_age_ma": 244.082 }, "geometry": { "type": "Point", "coordinates": [ -117.539444, 40.001389 ] } },
{ "type": "Feature", "properties": { "occurrence_id": "occ:1419019", "cid": "col:196634", "idn": "Omphalosaurus nettarhynchus n. sp.", "taxon_name": "Omphalosaurus nettarhynchus", "taxon_rank": 3, "tid": "txn:176045", "oei": "Spathian", "early_age_ma": 248.1, "late_age_ma": 246.7, "rid": "ref:66896", "longitude": -118.126663, "latitude": 40.50861, "phylum": "Chordata", "phn": "txn:33815", "class": "Reptilia", "cln": "txn:36322", "order": "Ichthyosauria", "odn": "txn:36543", "family": "Omphalosauridae", "fmn": "txn:38873", "gnl": "Omphalosaurus", "gnn": "txn:36565", "idg": "Omphalosaurus", "rsg": null, "ids": "nettarhynchus", "rss": "n. sp.", "env": "marine indet.", "formation": "Prida", "cxi": "652", "ref": "J.-M. Mazin and H. F. R. Bucher. 1987. [(Omphalosaurus nettarhynchus, a new Omphalosaurid species (Reptilia, Ichthyopterygia) from the Spathian of the Humboldt Range, Nevada, USA)]. Comptes rendus de l'Académie des sciences. Série 2, Mécanique, Physique, Chimie, Sciences de l'univers, Sciences de la Terre 305(9):823-828", "query_taxon": "Ichthyosauria", "tec": null, "gcm": null, "member": null, "oli": null, "stratgroup": null, "tdf": null, "iid": null, "idr": null, "mid_age_ma": 247.4 }, "geometry": { "type": "Point", "coordinates": [ -118.126663, 40.50861 ] } },
{ "type": "Feature", "properties": { "occurrence_id": "occ:1419160", "cid": "col:98011", "idn": "Mixosaurus callawayi n. sp.", "taxon_name": "Phalarodon callawayi", "taxon_rank": 3, "tid": "txn:258580", "oei": "Illyrian", "early_age_ma": 243.33, "late_age_ma": 241.464, "rid": "ref:66919", "longitude": -117.566666, "latitude": 40.033333, "phylum": "Chordata", "phn": "txn:33815", "class": "Reptilia", "cln": "txn:36322", "order": "Ichthyosauria", "odn": "txn:36543", "family": "Mixosauridae", "fmn": "txn:38875", "gnl": "Phalarodon", "gnn": "txn:36568", "idg": "Mixosaurus", "rsg": null, "ids": "callawayi", "rss": "n. sp.", "env": "marginal marine indet.", "formation": "Favret", "cxi": "139", "ref": "L. Schmitz, P. M. Sander, and G. W. Storrs, O. Rieppel. 2004. New Mixosauridae (Ichthyosauria) from the Middle Triassic of the Augusta Moutnains (Nevada, USA) and their implications for mixosaur taxonomy. Palaeontographica Abteilung A 270:133-162", "query_taxon": "Ichthyosauria", "tec": null, "gcm": null, "member": "Fossil Hill", "oli": null, "stratgroup": "Star Peak", "tdf": "recombined as", "iid": "var:258580", "idr": null, "mid_age_ma": 242.397 }, "geometry": { "type": "Point", "coordinates": [ -117.566666, 40.033333 ] } },
{ "type": "Feature", "properties": { "occurrence_id": "occ:1419479", "cid": "col:102368", "idn": "Shonisaurus mulleri n. sp.", "taxon_name": "Shonisaurus", "taxon_rank": 5, "tid": "txn:36572", "oei": "Lacian", "early_age_ma": 227.3, "late_age_ma": 215.38, "rid": "ref:67019", "longitude": -117.591393, "latitude": 38.876667, "phylum": "Chordata", "phn": "txn:33815", "class": "Reptilia", "cln": "txn:36322", "order": "Ichthyosauria", "odn": "txn:36543", "family": "Shastasauridae", "fmn": "txn:38876", "gnl": "Shonisaurus", "gnn": "txn:36572", "idg": "Shonisaurus", "rsg": null, "ids": "mulleri", "rss": "n. sp.", "env": "open shallow subtidal", "formation": "Luning", "cxi": "136", "ref": "J. M. Mazin and P. M. Sander. 1993. Palaeobiogeography of the Early and Late Triassic ichthyopterygia. Paleontologia Lombarda 2:93-107", "query_taxon": "Ichthyosauria", "tec": null, "gcm": "\"These sediments appear to represent an early transgressive episode in a now dismembered, shallow marine basin of at least Late Triassic (Karnian) through Early Jurassic (Toarcian) age (Oldow, 1981).\"", "member": null, "oli": null, "stratgroup": null, "tdf": "species not entered", "iid": "txn:377583", "idr": 3.0, "mid_age_ma": 221.34 }, "geometry": { "type": "Point", "coordinates": [ -117.591393, 38.876667 ] } },
{ "type": "Feature", "properties": { "occurrence_id": "occ:1419480", "cid": "col:102368", "idn": "Shonisaurus silberlingi n. sp.", "taxon_name": "Shonisaurus", "taxon_rank": 5, "tid": "txn:36572", "oei": "Lacian", "early_age_ma": 227.3, "late_age_ma": 215.38, "rid": "ref:67019", "longitude": -117.591393, "latitude": 38.876667, "phylum": "Chordata", "phn": "txn:33815", "class": "Reptilia", "cln": "txn:36322", "order": "Ichthyosauria", "odn": "txn:36543", "family": "Shastasauridae", "fmn": "txn:38876", "gnl": "Shonisaurus", "gnn": "txn:36572", "idg": "Shonisaurus", "rsg": null, "ids": "silberlingi", "rss": "n. sp.", "env": "open shallow subtidal", "formation": "Luning", "cxi": "136", "ref": "J. M. Mazin and P. M. Sander. 1993. Palaeobiogeography of the Early and Late Triassic ichthyopterygia. Paleontologia Lombarda 2:93-107", "query_taxon": "Ichthyosauria", "tec": null, "gcm": "\"These sediments appear to represent an early transgressive episode in a now dismembered, shallow marine basin of at least Late Triassic (Karnian) through Early Jurassic (Toarcian) age (Oldow, 1981).\"", "member": null, "oli": null, "stratgroup": null, "tdf": "species not entered", "iid": "txn:377584", "idr": 3.0, "mid_age_ma": 221.34 }, "geometry": { "type": "Point", "coordinates": [ -117.591393, 38.876667 ] } },
{ "type": "Feature", "properties": { "occurrence_id": "occ:1504406", "cid": "col:209724", "idn": "Cymbospondylus duelferi n. sp.", "taxon_name": "Cymbospondylus duelferi", "taxon_rank": 3, "tid": "txn:418928", "oei": "Illyrian", "early_age_ma": 243.33, "late_age_ma": 241.464, "rid": "ref:72341", "longitude": -117.558891, "latitude": 40.059166, "phylum": "Chordata", "phn": "txn:33815", "class": "Reptilia", "cln": "txn:36322", "order": "Ichthyosauria", "odn": "txn:36543", "family": "Cymbospondylidae", "fmn": "txn:163951", "gnl": "Cymbospondylus", "gnn": "txn:36550", "idg": "Cymbospondylus", "rsg": null, "ids": "duelferi", "rss": "n. sp.", "env": "marine indet.", "formation": "Favret", "cxi": "139", "ref": "N. Klein, L. Schmitz, and T. Wintrich, P. M. Sander. 2020. A new cymbospondylid ichthyosaur (Ichthyosauria) from the Middle Triassic (Anisian) of the Augusta Mountains, Nevada, USA. Journal of Systematic Palaeontology", "query_taxon": "Ichthyosauria", "tec": null, "gcm": null, "member": "Fossil Hill", "oli": null, "stratgroup": "Star Peak", "tdf": null, "iid": null, "idr": null, "mid_age_ma": 242.397 }, "geometry": { "type": "Point", "coordinates": [ -117.558891, 40.059166 ] } },
{ "type": "Feature", "properties": { "occurrence_id": "occ:1583679", "cid": "col:211747", "idn": "Ichthyosauridae indet.", "taxon_name": "Ichthyosauridae", "taxon_rank": 9, "tid": "txn:38877", "oei": "Spathian", "early_age_ma": 248.1, "late_age_ma": 246.7, "rid": "ref:78766", "longitude": -114.306946, "latitude": 41.272499, "phylum": "Chordata", "phn": "txn:33815", "class": "Reptilia", "cln": "txn:36322", "order": "Ichthyosauria", "odn": "txn:36543", "family": "Ichthyosauridae", "fmn": "txn:38877", "gnl": null, "gnn": null, "idg": "Ichthyosauridae", "rsg": null, "ids": "indet.", "rss": null, "env": "offshore indet.", "formation": null, "cxi": "652", "ref": "C. P. A. Smith, T. Laville, and E. Fara, G. Escarguel, N. Olivier, E. Vennin, N. Goudemand, K. G. Bylund, J. F. Jenks, D. A. Stephen, M. Hautmann, S. Charbonnier, L. J. Krumenacker, A. Brayard. 2021. Exceptional fossil assemblages confirm the existence of complex Early Triassic ecosystems during the early Spathian. Scientific Reports 11(19657)", "query_taxon": "Ichthyosauria", "tec": null, "gcm": "deeper offshore, mid to outer platform", "member": null, "oli": null, "stratgroup": null, "tdf": null, "iid": null, "idr": null, "mid_age_ma": 247.4 }, "geometry": { "type": "Point", "coordinates": [ -114.306946, 41.272499 ] } }
]
}
