{"type": "FeatureCollection", "features": [{"type": "Feature", "geometry": {"type": "Point", "coordinates": [-118.46506, 38.4877]}, "properties": {"id": "T01", "rank": 1, "unit": "Luning form.; limestone, dolomite, shale", "tierA": true, "land": "BLM", "km_known": 33.3, "slope": 17.1, "panel": "v4/T01.jpg"}}, {"type": "Feature", "geometry": {"type": "Point", "coordinates": [-118.34611, 38.62024]}, "properties": {"id": "T02", "rank": 2, "unit": "just outside a mapped Triassic edge", "tierA": true, "land": "BLM", "km_known": 27.3, "slope": 19.3, "panel": "v4/T02.jpg"}}, {"type": "Feature", "geometry": {"type": "Point", "coordinates": [-118.27362, 38.63268]}, "properties": {"id": "T03", "rank": 3, "unit": "just outside a mapped Triassic edge", "tierA": true, "land": "BLM", "km_known": 23.2, "slope": 17.1, "panel": "v4/T03.jpg"}}, {"type": "Feature", "geometry": {"type": "Point", "coordinates": [-118.06555, 38.40631]}, "properties": {"id": "T04", "rank": 4, "unit": "Luning form.; limestone, dolomite, shale", "tierA": true, "land": "BLM", "km_known": 3.3, "slope": 17.7, "panel": "v4/T04.jpg"}}, {"type": "Feature", "geometry": {"type": "Point", "coordinates": [-117.66939, 40.1604]}, "properties": {"id": "T05", "rank": 5, "unit": "Natchez Pass Form.; limest., dolomite mafic", "tierA": true, "land": "BLM", "km_known": 7.8, "slope": 15.8, "panel": "v4/T05.jpg"}}, {"type": "Feature", "geometry": {"type": "Point", "coordinates": [-117.56517, 39.99743]}, "properties": {"id": "T06", "rank": 6, "unit": "Cane Spring Formation", "tierA": true, "land": "BLM", "km_known": 2.2, "slope": 13.6, "panel": "v4/T06.jpg"}}, {"type": "Feature", "geometry": {"type": "Point", "coordinates": [-117.56838, 39.96038]}, "properties": {"id": "T07", "rank": 7, "unit": "Cane Spring Formation", "tierA": true, "land": "BLM", "km_known": 5.2, "slope": 13.3, "panel": null}}, {"type": "Feature", "geometry": {"type": "Point", "coordinates": [-117.5161, 40.01442]}, "properties": {"id": "T08", "rank": 8, "unit": "Augusta Mountain Formation", "tierA": true, "land": "BLM", "km_known": 2.5, "slope": 14.0, "panel": "v4/T08.jpg"}}, {"type": "Feature", "geometry": {"type": "Point", "coordinates": [-117.57128, 40.01281]}, "properties": {"id": "T09", "rank": 9, "unit": "Cane Sp., Augusta Mtn. Frm.; limest., dolom., shal", "tierA": true, "land": "BLM", "km_known": 2.3, "slope": 18.1, "panel": "v4/T09.jpg"}}, {"type": "Feature", "geometry": {"type": "Point", "coordinates": [-117.6152, 40.28422]}, "properties": {"id": "T10", "rank": 10, "unit": "Natchez Pass Form.; limest., dolomite mafic", "tierA": true, "land": "BLM", "km_known": 6.8, "slope": 19.7, "panel": "v4/T10.jpg"}}, {"type": "Feature", "geometry": {"type": "Point", "coordinates": [-117.61409, 40.24017]}, "properties": {"id": "T11", "rank": 11, "unit": "Natchez Pass Form.; limest., dolomite mafic", "tierA": true, "land": "BLM", "km_known": 2.4, "slope": 16.3, "panel": "v4/T11.jpg"}}, {"type": "Feature", "geometry": {"type": "Point", "coordinates": [-118.27132, 38.44373]}, "properties": {"id": "T12", "rank": 12, "unit": "just outside a mapped Triassic edge", "tierA": true, "land": "BLM", "km_known": 17.1, "slope": 13.2, "panel": "v4/T12.jpg"}}, {"type": "Feature", "geometry": {"type": "Point", "coordinates": [-118.17075, 38.41017]}, "properties": {"id": "T13", "rank": 13, "unit": "Luning form.; limestone, dolomite, shale", "tierA": true, "land": "BLM", "km_known": 11.2, "slope": 13.2, "panel": "v4/T13.jpg"}}, {"type": "Feature", "geometry": {"type": "Point", "coordinates": [-118.00464, 38.47417]}, "properties": {"id": "T14", "rank": 14, "unit": "just outside a mapped Triassic edge", "tierA": true, "land": "BLM", "km_known": 5.9, "slope": 19.1, "panel": "v4/T14.jpg"}}, {"type": "Feature", "geometry": {"type": "Point", "coordinates": [-117.98136, 38.40542]}, "properties": {"id": "T15", "rank": 15, "unit": "Luning form.; limestone, dolomite, shale", "tierA": true, "land": "BLM", "km_known": 3.1, "slope": 11.7, "panel": "v4/T15.jpg"}}, {"type": "Feature", "geometry": {"type": "Point", "coordinates": [-118.03888, 38.39168]}, "properties": {"id": "T16", "rank": 16, "unit": "Luning form.; limestone, dolomite, shale", "tierA": true, "land": "BLM", "km_known": 2.2, "slope": 15.6, "panel": "v4/T16.jpg"}}, {"type": "Feature", "geometry": {"type": "Point", "coordinates": [-118.08036, 40.30784]}, "properties": {"id": "T17", "rank": 17, "unit": "Natchez Pass Form.; limest., dolomite mafic", "tierA": true, "land": "BLM", "km_known": 3.4, "slope": 12.8, "panel": "v4/T17.jpg"}}, {"type": "Feature", "geometry": {"type": "Point", "coordinates": [-117.52429, 39.75138]}, "properties": {"id": "T18", "rank": 18, "unit": "Augusta Mountain Formation", "tierA": true, "land": "BLM", "km_known": 19.2, "slope": 15.7, "panel": "v4/T18.jpg"}}, {"type": "Feature", "geometry": {"type": "Point", "coordinates": [-117.55231, 39.97127]}, "properties": {"id": "T19", "rank": 19, "unit": "Cane Spring Formation", "tierA": true, "land": "BLM", "km_known": 3.5, "slope": 15.8, "panel": "v4/T19.jpg"}}, {"type": "Feature", "geometry": {"type": "Point", "coordinates": [-117.53676, 39.95864]}, "properties": {"id": "T20", "rank": 20, "unit": "Augusta Mountain Formation", "tierA": true, "land": "BLM", "km_known": 4.7, "slope": 14.9, "panel": "v4/T20.jpg"}}, {"type": "Feature", "geometry": {"type": "Point", "coordinates": [-117.51099, 39.98903]}, "properties": {"id": "T21", "rank": 21, "unit": "Augusta Mountain Formation", "tierA": true, "land": "BLM", "km_known": 2.8, "slope": 15.8, "panel": "v4/T21.jpg"}}, {"type": "Feature", "geometry": {"type": "Point", "coordinates": [-118.06563, 38.38874]}, "properties": {"id": "T22", "rank": 22, "unit": "Luning form.; limestone, dolomite, shale", "tierA": true, "land": "BLM", "km_known": 4.5, "slope": 19.0, "panel": "v4/T22.jpg"}}, {"type": "Feature", "geometry": {"type": "Point", "coordinates": [-117.77609, 38.48834]}, "properties": {"id": "T23", "rank": 23, "unit": "Luning form.; limestone, dolomite, shale", "tierA": true, "land": "BLM", "km_known": 23.1, "slope": 21.5, "panel": "v4/T23.jpg"}}, {"type": "Feature", "geometry": {"type": "Point", "coordinates": [-118.46292, 38.43311]}, "properties": {"id": "T24", "rank": 24, "unit": "Luning form.; limestone, dolomite, shale", "tierA": true, "land": "BLM", "km_known": 33.7, "slope": 20.0, "panel": "v4/T24.jpg"}}, {"type": "Feature", "geometry": {"type": "Point", "coordinates": [-118.41037, 38.417]}, "properties": {"id": "T25", "rank": 25, "unit": "Luning form.; limestone, dolomite, shale", "tierA": true, "land": "BLM", "km_known": 29.6, "slope": 13.5, "panel": "v4/T25.jpg"}}, {"type": "Feature", "geometry": {"type": "Point", "coordinates": [-117.98309, 38.48273]}, "properties": {"id": "T26", "rank": 26, "unit": "Luning form.; limestone, dolomite, shale", "tierA": true, "land": "BLM", "km_known": 7.9, "slope": 20.4, "panel": "v4/T26.jpg"}}, {"type": "Feature", "geometry": {"type": "Point", "coordinates": [-117.91624, 38.41866]}, "properties": {"id": "T27", "rank": 27, "unit": "Luning form.; limestone, dolomite, shale", "tierA": true, "land": "BLM", "km_known": 9.0, "slope": 12.5, "panel": "v4/T27.jpg"}}, {"type": "Feature", "geometry": {"type": "Point", "coordinates": [-118.20571, 38.46686]}, "properties": {"id": "T28", "rank": 28, "unit": "Luning form.; limestone, dolomite, shale", "tierA": true, "land": "BLM", "km_known": 10.9, "slope": 17.7, "panel": "v4/T28.jpg"}}, {"type": "Feature", "geometry": {"type": "Point", "coordinates": [-118.12558, 38.57688]}, "properties": {"id": "T29", "rank": 29, "unit": "Luning form.; limestone, dolomite, shale", "tierA": true, "land": "BLM", "km_known": 10.6, "slope": 18.2, "panel": "v4/T29.jpg"}}, {"type": "Feature", "geometry": {"type": "Point", "coordinates": [-118.11283, 40.37158]}, "properties": {"id": "T30", "rank": 30, "unit": "Natchez Pass Form.; limest., dolomite mafic", "tierA": true, "land": "BLM", "km_known": 4.3, "slope": 15.9, "panel": "v4/T30.jpg"}}, {"type": "Feature", "geometry": {"type": "Point", "coordinates": [-118.80299, 40.51909]}, "properties": {"id": "T31", "rank": 31, "unit": "just outside a mapped Triassic edge", "tierA": false, "land": "BLM", "km_known": 57.9, "slope": 22.1, "panel": "v4/T31.jpg"}}, {"type": "Feature", "geometry": {"type": "Point", "coordinates": [-119.29403, 40.45336]}, "properties": {"id": "T32", "rank": 32, "unit": "just outside a mapped Triassic edge", "tierA": false, "land": "BLM", "km_known": 91.7, "slope": 16.0, "panel": "v4/T32.jpg"}}, {"type": "Feature", "geometry": {"type": "Point", "coordinates": [-118.84571, 40.48869]}, "properties": {"id": "T33", "rank": 33, "unit": "Auld Lang Syne Group; slate, phyll., hornf., qtzit", "tierA": false, "land": "BLM", "km_known": 60.8, "slope": 17.2, "panel": "v4/T33.jpg"}}, {"type": "Feature", "geometry": {"type": "Point", "coordinates": [-118.7828, 40.50562]}, "properties": {"id": "T34", "rank": 34, "unit": "Auld Lang Syne Group; slate, phyll., hornf., qtzit", "tierA": false, "land": "BLM", "km_known": 55.9, "slope": 16.7, "panel": "v4/T34.jpg"}}, {"type": "Feature", "geometry": {"type": "Point", "coordinates": [-118.57253, 40.3857]}, "properties": {"id": "T35", "rank": 35, "unit": "Auld Lang Syne Group; slate, phyll., hornf., qtzit", "tierA": false, "land": "BLM", "km_known": 36.4, "slope": 11.4, "panel": "v4/T35.jpg"}}, {"type": "Feature", "geometry": {"type": "Point", "coordinates": [-118.53462, 40.38189]}, "properties": {"id": "T36", "rank": 36, "unit": "just outside a mapped Triassic edge", "tierA": false, "land": "BLM", "km_known": 33.9, "slope": 16.8, "panel": "v4/T36.jpg"}}, {"type": "Feature", "geometry": {"type": "Point", "coordinates": [-118.49165, 40.4365]}, "properties": {"id": "T37", "rank": 37, "unit": "just outside a mapped Triassic edge", "tierA": false, "land": "BLM", "km_known": 30.3, "slope": 24.4, "panel": "v4/T37.jpg"}}, {"type": "Feature", "geometry": {"type": "Point", "coordinates": [-118.00404, 38.13216]}, "properties": {"id": "T38", "rank": 38, "unit": "just outside a mapped Triassic edge", "tierA": false, "land": "BLM", "km_known": 30.0, "slope": 12.8, "panel": "v4/T38.jpg"}}, {"type": "Feature", "geometry": {"type": "Point", "coordinates": [-117.80338, 40.20117]}, "properties": {"id": "T39", "rank": 39, "unit": "Dun Glen Frm; limestone, dolomite, sandst, argill", "tierA": false, "land": "BLM", "km_known": 14.7, "slope": 16.3, "panel": "v4/T39.jpg"}}, {"type": "Feature", "geometry": {"type": "Point", "coordinates": [-117.51252, 40.09985]}, "properties": {"id": "T40", "rank": 40, "unit": "Tobin Frm.; sandst., mudst., limest., greenst.", "tierA": false, "land": "BLM", "km_known": 6.0, "slope": 12.9, "panel": "v4/T40.jpg"}}]}