{"type": "FeatureCollection", "features": [{"type": "Feature", "geometry": {"type": "Point", "coordinates": [-118.017, 38.402]}, "properties": {"records": 1, "taxa": ["Ichthyosaurus"], "formation": "Luning", "age": "227–215 Ma", "ref": "G. D. Stanley, Jr. 1979. Paleoecology, structure, and distribution of Triassic coral buildups in western North America. The University of Kansas Paleontological Contributions 65:1-", "in_model": true}}, {"type": "Feature", "geometry": {"type": "Point", "coordinates": [-118.0458, 38.4319]}, "properties": {"records": 2, "taxa": ["Ichthyosaurus"], "formation": "Luning", "age": "227–206 Ma", "ref": "G. D. Stanley, Jr. 1979. Paleoecology, structure, and distribution of Triassic coral buildups in western North America. The University of Kansas Paleontological Contributions 65:1-", "in_model": true}}, {"type": "Feature", "geometry": {"type": "Point", "coordinates": [-118.083, 38.487]}, "properties": {"records": 1, "taxa": ["Ichthyosauria"], "formation": "Gabbs", "age": "206–201 Ma", "ref": "S. G. Lucas, D. G. Taylor, and J. Guex, L. H. Tanner, K. Krainer. 2007. The proposed global stratotype section and point for the base of the Jurassic system in the New York Canyon ", "in_model": true}}, {"type": "Feature", "geometry": {"type": "Point", "coordinates": [-117.5914, 38.8767]}, "properties": {"records": 3, "taxa": ["Shonisaurus", "Shonisaurus popularis"], "formation": "Luning", "age": "227–215 Ma", "ref": "J. A. Hogler and R. A. Hanger. 1989. A new condrophorine (Hydrozoa, Velellidae) from the Upper Triassic of Nevada. Journal of Paleontology 63(2):249-251", "in_model": true}}, {"type": "Feature", "geometry": {"type": "Point", "coordinates": [-117.5328, 39.5786]}, "properties": {"records": 1, "taxa": ["Cymbospondylus nevadanus"], "formation": "Prida", "age": "243–241 Ma", "ref": "J. C. Merriam. 1908. Triassic Ichthyosauria. Memoirs of the University of California 1(1):1-155", "in_model": true}}, {"type": "Feature", "geometry": {"type": "Point", "coordinates": [-116.7167, 40.0]}, "properties": {"records": 2, "taxa": ["Cymbospondylus piscosus", "Ichthyosauria"], "formation": "Prida_inferred", "age": "243–241 Ma", "ref": "J. Leidy. 1868. Notice of some reptilian remains from Nevada. Proceedings of the Academy of Natural Sciences of Philadelphia 109:177-178", "in_model": true}}, {"type": "Feature", "geometry": {"type": "Point", "coordinates": [-117.5394, 40.0014]}, "properties": {"records": 1, "taxa": ["Cymbospondylus nichollsi"], "formation": "Favret", "age": "247–241 Ma", "ref": "N. B. Fröbisch, P. M. Sander, and O. Rieppel. 2006. A new species of Cymbospondylus (Diapsida, Ichthyosauria) from the Middle Triassic of Nevada and a re-evaluation of the skull os", "in_model": true}}, {"type": "Feature", "geometry": {"type": "Point", "coordinates": [-117.5667, 40.0333]}, "properties": {"records": 1, "taxa": ["Phalarodon callawayi"], "formation": "Favret", "age": "243–241 Ma", "ref": "L. Schmitz, P. M. Sander, and G. W. Storrs, O. Rieppel. 2004. New Mixosauridae (Ichthyosauria) from the Middle Triassic of the Augusta Moutnains (Nevada, USA) and their implication", "in_model": true}}, {"type": "Feature", "geometry": {"type": "Point", "coordinates": [-117.5383, 40.0486]}, "properties": {"records": 1, "taxa": ["Mixosaurus"], "formation": "Favret", "age": "243–241 Ma", "ref": "P. M. Sander and H. Boucher. 1990. On the presence of Mixosaurus (Ichthyopterygia: Reptilia) in the Middle Triassic of Nevada. Journal of Paleontology 64(1):161-164", "in_model": true}}, {"type": "Feature", "geometry": {"type": "Point", "coordinates": [-117.54, 40.05]}, "properties": {"records": 1, "taxa": ["Thalattoarchon saurophagis"], "formation": "Favret", "age": "244–243 Ma", "ref": "N. B. Fröbisch, J. Fröbisch, and P. M. Sander, L. Schmitz, O. Rieppel. 2013. Macropredatory ichthyosaur from the Middle Triassic and the origin of modern trophic networks. Proceedi", "in_model": true}}, {"type": "Feature", "geometry": {"type": "Point", "coordinates": [-117.5589, 40.0592]}, "properties": {"records": 2, "taxa": ["Cymbospondylus duelferi", "Mixosaurus"], "formation": "Favret", "age": "247–237 Ma", "ref": "P. M. Sander, O. C. Rieppel, and H. Bucher. 1994. A new marine vertebrate fauna from the Middle Triassic of Nevada. Journal of Paleontology 68(3):676-680", "in_model": true}}, {"type": "Feature", "geometry": {"type": "Point", "coordinates": [-118.3, 40.1333]}, "properties": {"records": 6, "taxa": ["Cymbospondylus", "Cymbospondylus natans", "Cymbospondylus petrinus", "Ichthyosauria", "Omphalosaurus nevadanus", "Phalarodon fraasi"], "formation": "Prida", "age": "247–237 Ma", "ref": "J. C. Merriam. 1906. Preliminary note on a new marine reptile from the Middle Triassic of Nevada. University of California Publications in Geological Sciences 5(5):71-79", "in_model": true}}, {"type": "Feature", "geometry": {"type": "Point", "coordinates": [-117.6339, 40.225]}, "properties": {"records": 1, "taxa": ["Mixosaurus"], "formation": "Favret", "age": "247–237 Ma", "ref": "P. M. Sander, O. C. Rieppel, and H. Bucher. 1994. A new marine vertebrate fauna from the Middle Triassic of Nevada. Journal of Paleontology 68(3):676-680", "in_model": true}}, {"type": "Feature", "geometry": {"type": "Point", "coordinates": [-118.0758, 40.2778]}, "properties": {"records": 2, "taxa": ["Grippiidae", "Utatsusaurus"], "formation": "Prida", "age": "248–247 Ma", "ref": "N. P. Kelley, R. Motani, and P. Embree, M. J. Orchard. 2016. A new Lower Triassic ichthyopterygian assemblage from Fossil Hill, Nevada. PeerJ 4(e1626)", "in_model": true}}, {"type": "Feature", "geometry": {"type": "Point", "coordinates": [-118.1367, 40.4057]}, "properties": {"records": 1, "taxa": ["Cymbospondylus petrinus"], "formation": "Prida_inferred", "age": "247–237 Ma", "ref": "J. C. Merriam. 1905. A primitive ichthyosaurian limb from the Middle Triassic of Nevada. University of California Publications, Bulletin of the Department of Geological Sciences 4(", "in_model": true}}, {"type": "Feature", "geometry": {"type": "Point", "coordinates": [-118.1267, 40.5086]}, "properties": {"records": 1, "taxa": ["Omphalosaurus nettarhynchus"], "formation": "Prida", "age": "248–247 Ma", "ref": "J.-M. Mazin and H. F. R. Bucher. 1987. [(Omphalosaurus nettarhynchus, a new Omphalosaurid species (Reptilia, Ichthyopterygia) from the Spathian of the Humboldt Range, Nevada, USA)]", "in_model": true}}, {"type": "Feature", "geometry": {"type": "Point", "coordinates": [-118.1, 40.5481]}, "properties": {"records": 2, "taxa": ["Chonespondylus grandis", "Cymbospondylus petrinus"], "formation": "Prida_inferred", "age": "252–201 Ma", "ref": "J. Leidy. 1868. Notice of some reptilian remains from Nevada. Proceedings of the Academy of Natural Sciences of Philadelphia 109:177-178", "in_model": true}}, {"type": "Feature", "geometry": {"type": "Point", "coordinates": [-114.3069, 41.2725]}, "properties": {"records": 1, "taxa": ["Ichthyosauridae"], "formation": "Prida_inferred", "age": "248–247 Ma", "ref": "C. P. A. Smith, T. Laville, and E. Fara, G. Escarguel, N. Olivier, E. Vennin, N. Goudemand, K. G. Bylund, J. F. Jenks, D. A. Stephen, M. Hautmann, S. Charbonnier, L. J. Krumenacker", "in_model": true}}]}