{"type": "FeatureCollection", "features": [{"type": "Feature", "geometry": {"type": "Point", "coordinates": [-117.4797, 40.2653]}, "properties": {"rank": 1, "score": 0.689, "tpi": -2.8, "setting": "basin", "rank_v2": 5, "elev_m": 1479, "slope": 10.1, "km_known": 13.8, "km_triassic": 4.2, "submodel": "north", "panel": "P13"}}, {"type": "Feature", "geometry": {"type": "Point", "coordinates": [-118.4644, 40.9072]}, "properties": {"rank": 2, "score": 0.66, "tpi": -2.1, "setting": "basin", "rank_v2": 16, "elev_m": 1439, "slope": 10.3, "km_known": 50.3, "km_triassic": 41.5, "submodel": "north", "panel": "P09"}}, {"type": "Feature", "geometry": {"type": "Point", "coordinates": [-118.2439, 40.4047]}, "properties": {"rank": 3, "score": 0.608, "tpi": 18.2, "setting": "ridge", "rank_v2": 4, "elev_m": 1754, "slope": 22.3, "km_known": 9.1, "km_triassic": 0.1, "submodel": "north", "panel": "P01"}}, {"type": "Feature", "geometry": {"type": "Point", "coordinates": [-117.2456, 40.0956]}, "properties": {"rank": 4, "score": 0.595, "tpi": 3.9, "setting": "ridge", "rank_v2": 8, "elev_m": 1538, "slope": 11.2, "km_known": 25.4, "km_triassic": 7.1, "submodel": "north", "panel": null}}, {"type": "Feature", "geometry": {"type": "Point", "coordinates": [-117.7056, 40.4064]}, "properties": {"rank": 5, "score": 0.553, "tpi": 0.9, "setting": "slope", "rank_v2": 21, "elev_m": 1552, "slope": 15.1, "km_known": 21.1, "km_triassic": 2.2, "submodel": "north", "panel": "P16"}}, {"type": "Feature", "geometry": {"type": "Point", "coordinates": [-118.9233, 39.8861]}, "properties": {"rank": 6, "score": 0.538, "tpi": 2.0, "setting": "slope", "rank_v2": 30, "elev_m": 1415, "slope": 12.8, "km_known": 59.9, "km_triassic": 73.1, "submodel": "north", "panel": null}}, {"type": "Feature", "geometry": {"type": "Point", "coordinates": [-117.4564, 40.7872]}, "properties": {"rank": 7, "score": 0.521, "tpi": -0.0, "setting": "slope", "rank_v2": 3, "elev_m": 1427, "slope": 9.3, "km_known": 60.4, "km_triassic": 13.0, "submodel": "north", "panel": "P08"}}, {"type": "Feature", "geometry": {"type": "Point", "coordinates": [-117.5878, 40.2092]}, "properties": {"rank": 8, "score": 0.517, "tpi": -1.0, "setting": "basin", "rank_v2": 10, "elev_m": 1754, "slope": 23.3, "km_known": 4.3, "km_triassic": 1.0, "submodel": "north", "panel": "P02"}}, {"type": "Feature", "geometry": {"type": "Point", "coordinates": [-117.2078, 40.4011]}, "properties": {"rank": 9, "score": 0.515, "tpi": 1.0, "setting": "slope", "rank_v2": 44, "elev_m": 1688, "slope": 21.8, "km_known": 41.1, "km_triassic": 2.1, "submodel": "north", "panel": "P14"}}, {"type": "Feature", "geometry": {"type": "Point", "coordinates": [-117.8589, 39.6547]}, "properties": {"rank": 10, "score": 0.504, "tpi": -3.1, "setting": "basin", "rank_v2": 38, "elev_m": 1683, "slope": 30.8, "km_known": 29.2, "km_triassic": 28.7, "submodel": "north", "panel": null}}, {"type": "Feature", "geometry": {"type": "Point", "coordinates": [-118.2325, 40.5503]}, "properties": {"rank": 11, "score": 0.501, "tpi": -7.0, "setting": "basin", "rank_v2": 17, "elev_m": 1644, "slope": 21.6, "km_known": 10.1, "km_triassic": 1.4, "submodel": "north", "panel": "P03"}}, {"type": "Feature", "geometry": {"type": "Point", "coordinates": [-118.5114, 40.7761]}, "properties": {"rank": 12, "score": 0.499, "tpi": 1.1, "setting": "slope", "rank_v2": 25, "elev_m": 1678, "slope": 9.5, "km_known": 42.9, "km_triassic": 33.0, "submodel": "north", "panel": null}}, {"type": "Feature", "geometry": {"type": "Point", "coordinates": [-117.7208, 40.8397]}, "properties": {"rank": 13, "score": 0.498, "tpi": -4.0, "setting": "basin", "rank_v2": 19, "elev_m": 1685, "slope": 31.8, "km_known": 45.5, "km_triassic": 1.1, "submodel": "north", "panel": "P05"}}, {"type": "Feature", "geometry": {"type": "Point", "coordinates": [-117.8522, 39.6969]}, "properties": {"rank": 14, "score": 0.48, "tpi": 3.2, "setting": "ridge", "rank_v2": 51, "elev_m": 1700, "slope": 31.3, "km_known": 30.3, "km_triassic": 28.2, "submodel": "north", "panel": null}}, {"type": "Feature", "geometry": {"type": "Point", "coordinates": [-117.4592, 40.7958]}, "properties": {"rank": 15, "score": 0.472, "tpi": 4.2, "setting": "ridge", "rank_v2": 60, "elev_m": 1743, "slope": 31.8, "km_known": 60.6, "km_triassic": 14.0, "submodel": "north", "panel": null}}, {"type": "Feature", "geometry": {"type": "Point", "coordinates": [-118.7911, 40.7344]}, "properties": {"rank": 16, "score": 0.46, "tpi": -7.6, "setting": "basin", "rank_v2": 39, "elev_m": 1637, "slope": 19.9, "km_known": 61.4, "km_triassic": 51.6, "submodel": "north", "panel": null}}, {"type": "Feature", "geometry": {"type": "Point", "coordinates": [-117.2025, 40.1131]}, "properties": {"rank": 17, "score": 0.457, "tpi": -3.1, "setting": "basin", "rank_v2": 6, "elev_m": 1507, "slope": 6.8, "km_known": 29.4, "km_triassic": 4.8, "submodel": "north", "panel": "P10"}}, {"type": "Feature", "geometry": {"type": "Point", "coordinates": [-117.2028, 40.1131]}, "properties": {"rank": 18, "score": 0.457, "tpi": -3.1, "setting": "basin", "rank_v2": 12, "elev_m": 1507, "slope": 6.8, "km_known": 29.4, "km_triassic": 4.8, "submodel": "north", "panel": "P12"}}, {"type": "Feature", "geometry": {"type": "Point", "coordinates": [-117.5092, 40.7511]}, "properties": {"rank": 19, "score": 0.441, "tpi": 10.9, "setting": "ridge", "rank_v2": 56, "elev_m": 1672, "slope": 25.5, "km_known": 54.7, "km_triassic": 11.5, "submodel": "north", "panel": null}}, {"type": "Feature", "geometry": {"type": "Point", "coordinates": [-117.4722, 40.1392]}, "properties": {"rank": 20, "score": 0.439, "tpi": -5.7, "setting": "basin", "rank_v2": 35, "elev_m": 1636, "slope": 27.7, "km_known": 11.5, "km_triassic": 3.4, "submodel": "north", "panel": "P11"}}, {"type": "Feature", "geometry": {"type": "Point", "coordinates": [-117.6314, 40.7406]}, "properties": {"rank": 21, "score": 0.426, "tpi": 9.4, "setting": "ridge", "rank_v2": 14, "elev_m": 1665, "slope": 29.0, "km_known": 44.9, "km_triassic": 9.9, "submodel": "north", "panel": null}}, {"type": "Feature", "geometry": {"type": "Point", "coordinates": [-117.7869, 39.7281]}, "properties": {"rank": 22, "score": 0.423, "tpi": 7.4, "setting": "ridge", "rank_v2": 43, "elev_m": 1674, "slope": 25.9, "km_known": 27.4, "km_triassic": 22.2, "submodel": "north", "panel": null}}, {"type": "Feature", "geometry": {"type": "Point", "coordinates": [-118.1575, 39.8164]}, "properties": {"rank": 23, "score": 0.413, "tpi": -6.3, "setting": "basin", "rank_v2": 29, "elev_m": 1692, "slope": 25.5, "km_known": 37.3, "km_triassic": 30.0, "submodel": "north", "panel": null}}, {"type": "Feature", "geometry": {"type": "Point", "coordinates": [-117.4586, 40.7953]}, "properties": {"rank": 24, "score": 0.388, "tpi": 2.3, "setting": "slope", "rank_v2": 54, "elev_m": 1690, "slope": 32.8, "km_known": 60.6, "km_triassic": 14.0, "submodel": "north", "panel": "P20"}}, {"type": "Feature", "geometry": {"type": "Point", "coordinates": [-117.4594, 40.7956]}, "properties": {"rank": 25, "score": 0.38, "tpi": -1.1, "setting": "basin", "rank_v2": 53, "elev_m": 1684, "slope": 32.0, "km_known": 60.5, "km_triassic": 14.0, "submodel": "north", "panel": "P18"}}, {"type": "Feature", "geometry": {"type": "Point", "coordinates": [-117.4592, 40.7956]}, "properties": {"rank": 26, "score": 0.38, "tpi": -1.1, "setting": "basin", "rank_v2": 58, "elev_m": 1684, "slope": 32.0, "km_known": 60.6, "km_triassic": 14.0, "submodel": "north", "panel": null}}, {"type": "Feature", "geometry": {"type": "Point", "coordinates": [-118.1403, 40.7997]}, "properties": {"rank": 27, "score": 0.371, "tpi": 0.4, "setting": "slope", "rank_v2": 55, "elev_m": 1670, "slope": 31.2, "km_known": 28.2, "km_triassic": 14.5, "submodel": "north", "panel": null}}, {"type": "Feature", "geometry": {"type": "Point", "coordinates": [-118.3664, 38.2528]}, "properties": {"rank": 28, "score": 0.343, "tpi": -3.2, "setting": "basin", "rank_v2": 46, "elev_m": 1656, "slope": 20.5, "km_known": 34.4, "km_triassic": 166.4, "submodel": "south", "panel": null}}, {"type": "Feature", "geometry": {"type": "Point", "coordinates": [-117.6969, 40.8228]}, "properties": {"rank": 29, "score": 0.342, "tpi": -6.6, "setting": "basin", "rank_v2": 1, "elev_m": 1718, "slope": 31.6, "km_known": 45.6, "km_triassic": 1.3, "submodel": "north", "panel": "P06"}}, {"type": "Feature", "geometry": {"type": "Point", "coordinates": [-117.5769, 40.3719]}, "properties": {"rank": 30, "score": 0.331, "tpi": -11.3, "setting": "basin", "rank_v2": 11, "elev_m": 1703, "slope": 30.2, "km_known": 17.0, "km_triassic": 6.5, "submodel": "north", "panel": null}}, {"type": "Feature", "geometry": {"type": "Point", "coordinates": [-117.5769, 40.3717]}, "properties": {"rank": 31, "score": 0.331, "tpi": -11.3, "setting": "basin", "rank_v2": 13, "elev_m": 1703, "slope": 30.2, "km_known": 17.0, "km_triassic": 6.5, "submodel": "north", "panel": null}}, {"type": "Feature", "geometry": {"type": "Point", "coordinates": [-117.5219, 40.7247]}, "properties": {"rank": 32, "score": 0.309, "tpi": -10.4, "setting": "basin", "rank_v2": 59, "elev_m": 1680, "slope": 24.2, "km_known": 52.5, "km_triassic": 10.4, "submodel": "north", "panel": null}}, {"type": "Feature", "geometry": {"type": "Point", "coordinates": [-117.7044, 40.4189]}, "properties": {"rank": 33, "score": 0.243, "tpi": 7.3, "setting": "ridge", "rank_v2": 2, "elev_m": 1566, "slope": 6.7, "km_known": 22.4, "km_triassic": 3.3, "submodel": "north", "panel": "P07"}}, {"type": "Feature", "geometry": {"type": "Point", "coordinates": [-118.7881, 38.7011]}, "properties": {"rank": 34, "score": 0.202, "tpi": -1.7, "setting": "basin", "rank_v2": 26, "elev_m": 1647, "slope": 33.8, "km_known": 65.7, "km_triassic": 149.6, "submodel": "south", "panel": null}}, {"type": "Feature", "geometry": {"type": "Point", "coordinates": [-118.8608, 39.1592]}, "properties": {"rank": 35, "score": 0.185, "tpi": -1.9, "setting": "basin", "rank_v2": 20, "elev_m": 1528, "slope": 12.4, "km_known": 100.4, "km_triassic": 124.1, "submodel": "south", "panel": "P15"}}, {"type": "Feature", "geometry": {"type": "Point", "coordinates": [-118.8606, 39.1592]}, "properties": {"rank": 36, "score": 0.185, "tpi": -1.9, "setting": "basin", "rank_v2": 28, "elev_m": 1528, "slope": 12.4, "km_known": 100.4, "km_triassic": 124.1, "submodel": "south", "panel": null}}, {"type": "Feature", "geometry": {"type": "Point", "coordinates": [-117.6867, 40.4344]}, "properties": {"rank": 37, "score": 0.178, "tpi": 3.3, "setting": "ridge", "rank_v2": 18, "elev_m": 1540, "slope": 6.2, "km_known": 23.7, "km_triassic": 4.8, "submodel": "north", "panel": "P04"}}, {"type": "Feature", "geometry": {"type": "Point", "coordinates": [-118.5667, 38.4322]}, "properties": {"rank": 38, "score": 0.151, "tpi": 3.0, "setting": "ridge", "rank_v2": 33, "elev_m": 1682, "slope": 20.4, "km_known": 42.6, "km_triassic": 159.1, "submodel": "south", "panel": null}}, {"type": "Feature", "geometry": {"type": "Point", "coordinates": [-118.5325, 39.1828]}, "properties": {"rank": 39, "score": 0.142, "tpi": -0.3, "setting": "slope", "rank_v2": 41, "elev_m": 1699, "slope": 30.7, "km_known": 86.5, "km_triassic": 99.9, "submodel": "south", "panel": null}}, {"type": "Feature", "geometry": {"type": "Point", "coordinates": [-118.3997, 38.4589]}, "properties": {"rank": 40, "score": 0.139, "tpi": 0.7, "setting": "slope", "rank_v2": 22, "elev_m": 1745, "slope": 10.7, "km_known": 27.8, "km_triassic": 148.2, "submodel": "south", "panel": "P17"}}, {"type": "Feature", "geometry": {"type": "Point", "coordinates": [-118.3994, 38.4589]}, "properties": {"rank": 41, "score": 0.139, "tpi": 0.7, "setting": "slope", "rank_v2": 46, "elev_m": 1745, "slope": 10.7, "km_known": 27.7, "km_triassic": 148.2, "submodel": "south", "panel": null}}, {"type": "Feature", "geometry": {"type": "Point", "coordinates": [-118.4, 38.4589]}, "properties": {"rank": 42, "score": 0.139, "tpi": 0.7, "setting": "slope", "rank_v2": 36, "elev_m": 1745, "slope": 10.7, "km_known": 27.8, "km_triassic": 148.2, "submodel": "south", "panel": null}}, {"type": "Feature", "geometry": {"type": "Point", "coordinates": [-118.8083, 39.1836]}, "properties": {"rank": 43, "score": 0.135, "tpi": -4.2, "setting": "basin", "rank_v2": 31, "elev_m": 1587, "slope": 10.6, "km_known": 99.5, "km_triassic": 119.1, "submodel": "south", "panel": null}}, {"type": "Feature", "geometry": {"type": "Point", "coordinates": [-118.8611, 39.1592]}, "properties": {"rank": 44, "score": 0.109, "tpi": -2.7, "setting": "basin", "rank_v2": 24, "elev_m": 1526, "slope": 11.2, "km_known": 100.4, "km_triassic": 124.1, "submodel": "south", "panel": null}}, {"type": "Feature", "geometry": {"type": "Point", "coordinates": [-118.7914, 38.7014]}, "properties": {"rank": 45, "score": 0.095, "tpi": -0.4, "setting": "slope", "rank_v2": 34, "elev_m": 1702, "slope": 36.6, "km_known": 65.9, "km_triassic": 149.8, "submodel": "south", "panel": null}}, {"type": "Feature", "geometry": {"type": "Point", "coordinates": [-118.3586, 39.2214]}, "properties": {"rank": 46, "score": 0.077, "tpi": 25.6, "setting": "ridge", "rank_v2": 50, "elev_m": 1708, "slope": 16.1, "km_known": 76.4, "km_triassic": 84.7, "submodel": "south", "panel": null}}, {"type": "Feature", "geometry": {"type": "Point", "coordinates": [-118.4053, 38.5758]}, "properties": {"rank": 47, "score": 0.074, "tpi": 9.8, "setting": "ridge", "rank_v2": 49, "elev_m": 1707, "slope": 30.3, "km_known": 29.7, "km_triassic": 137.9, "submodel": "south", "panel": null}}, {"type": "Feature", "geometry": {"type": "Point", "coordinates": [-118.9436, 38.7247]}, "properties": {"rank": 48, "score": 0.065, "tpi": -3.4, "setting": "basin", "rank_v2": 27, "elev_m": 1549, "slope": 5.7, "km_known": 79.2, "km_triassic": 158.1, "submodel": "south", "panel": null}}, {"type": "Feature", "geometry": {"type": "Point", "coordinates": [-118.7706, 39.0242]}, "properties": {"rank": 49, "score": 0.058, "tpi": -3.1, "setting": "basin", "rank_v2": 23, "elev_m": 1463, "slope": 7.7, "km_known": 84.2, "km_triassic": 126.6, "submodel": "south", "panel": "P19"}}, {"type": "Feature", "geometry": {"type": "Point", "coordinates": [-118.7717, 39.0239]}, "properties": {"rank": 50, "score": 0.054, "tpi": -0.7, "setting": "slope", "rank_v2": 42, "elev_m": 1461, "slope": 9.2, "km_known": 84.3, "km_triassic": 126.7, "submodel": "south", "panel": null}}]}