{"type": "FeatureCollection", "features": [{"id": "0", "type": "Feature", "properties": {"unit": "TRc"}, "geometry": {"type": "MultiPolygon", "coordinates": [[[[-118.1494, 40.2051], [-118.1314, 40.2058], [-118.1227, 40.201], [-118.1007, 40.2072], [-118.0998, 40.2028], [-118.0939, 40.2052], [-118.0929, 40.2036], [-118.0952, 40.2003], [-118.0917, 40.1978], [-118.0968, 40.1946], [-118.0908, 40.1954], [-118.0842, 40.1929], [-118.0884, 40.1895], [-118.0908, 40.1934], [-118.0986, 40.1928], [-118.1049, 40.1951], [-118.1221, 40.1833], [-118.1218, 40.1791], [-118.129, 40.179], [-118.1346, 40.1849], [-118.1293, 40.1878], [-118.1276, 40.1955], [-118.135, 40.1932], [-118.1405, 40.1962], [-118.1443, 40.1932], [-118.1595, 40.1946], [-118.1633, 40.1974], [-118.1659, 40.2057], [-118.1732, 40.2045], [-118.1751, 40.2081], [-118.1715, 40.2125], [-118.1494, 40.2051]]], [[[-118.0682, 40.2375], [-118.0633, 40.2382], [-118.0619, 40.2334], [-118.0624, 40.2309], [-118.0672, 40.2327], [-118.0698, 40.2309], [-118.0709, 40.2243], [-118.0643, 40.2256], [-118.0661, 40.2191], [-118.0759, 40.2215], [-118.0767, 40.2197], [-118.0715, 40.2187], [-118.0715, 40.2153], [-118.0666, 40.2136], [-118.0692, 40.2088], [-118.0739, 40.2081], [-118.0804, 40.2128], [-118.0802, 40.2071], [-118.0744, 40.2056], [-118.0719, 40.2013], [-118.0817, 40.1969], [-118.0892, 40.2024], [-118.0836, 40.2077], [-118.0854, 40.213], [-118.0913, 40.2047], [-118.0941, 40.2076], [-118.0942, 40.2147], [-118.0977, 40.2112], [-118.0988, 40.2131], [-118.0977, 40.2171], [-118.0904, 40.2222], [-118.0914, 40.227], [-118.1023, 40.2126], [-118.1067, 40.2156], [-118.1163, 40.2124], [-118.1209, 40.204], [-118.1272, 40.2083], [-118.1538, 40.2111], [-118.1542, 40.2149], [-118.1678, 40.2171], [-118.1664, 40.2188], [-118.1467, 40.2154], [-118.1381, 40.216], [-118.1354, 40.2202], [-118.1373, 40.2276], [-118.1272, 40.2254], [-118.1134, 40.227], [-118.0807, 40.2457], [-118.0783, 40.2455], [-118.0792, 40.2417], [-118.0747, 40.2434], [-118.0741, 40.2402], [-118.0679, 40.2393], [-118.0682, 40.2375]], [[-118.0775, 40.2386], [-118.0831, 40.2283], [-118.0824, 40.2255], [-118.0741, 40.2402], [-118.0775, 40.2386]], [[-118.0853, 40.2238], [-118.0862, 40.2217], [-118.0828, 40.2232], [-118.0824, 40.2255], [-118.0853, 40.2238]]], [[[-118.1997, 40.2664], [-118.1973, 40.2689], [-118.1948, 40.2662], [-118.1997, 40.2664]]], [[[-118.0698, 40.2791], [-118.0692, 40.2769], [-118.0807, 40.2744], [-118.0788, 40.2717], [-118.0705, 40.2731], [-118.0753, 40.2637], [-118.0821, 40.2734], [-118.0858, 40.2728], [-118.0803, 40.2659], [-118.081, 40.2615], [-118.0848, 40.2687], [-118.0891, 40.271], [-118.0918, 40.2696], [-118.091, 40.2654], [-118.0938, 40.2665], [-118.0947, 40.2731], [-118.0895, 40.2834], [-118.0698, 40.2791]]], [[[-118.2029, 40.2726], [-118.2141, 40.2703], [-118.229, 40.2828], [-118.2231, 40.2849], [-118.2118, 40.2832], [-118.2029, 40.2726]]], [[[-118.0821, 40.2946], [-118.0824, 40.2907], [-118.0944, 40.2889], [-118.0967, 40.2961], [-118.0821, 40.2946]]], [[[-118.0883, 40.317], [-118.0946, 40.3178], [-118.0972, 40.3213], [-118.0987, 40.3199], [-118.0946, 40.3098], [-118.0898, 40.31], [-118.0868, 40.313], [-118.0805, 40.3117], [-118.0796, 40.3049], [-118.0742, 40.3044], [-118.0757, 40.3006], [-118.0784, 40.3028], [-118.0828, 40.3018], [-118.0787, 40.2991], [-118.0805, 40.2968], [-118.0924, 40.2985], [-118.1032, 40.3033], [-118.1048, 40.3091], [-118.1055, 40.3152], [-118.1014, 40.3162], [-118.1013, 40.3239], [-118.0899, 40.3282], [-118.0862, 40.326], [-118.0853, 40.3203], [-118.0883, 40.317]]], [[[-118.2259, 40.3046], [-118.2144, 40.2862], [-118.2218, 40.2875], [-118.2301, 40.2923], [-118.2367, 40.3051], [-118.2357, 40.313], [-118.2411, 40.3258], [-118.2443, 40.3523], [-118.2352, 40.3549], [-118.2344, 40.357], [-118.2377, 40.3572], [-118.2375, 40.3591], [-118.2365, 40.3657], [-118.2336, 40.3673], [-118.2317, 40.3599], [-118.2345, 40.3529], [-118.2259, 40.3046]], [[-118.2329, 40.3226], [-118.2351, 40.3253], [-118.2362, 40.3215], [-118.2325, 40.3134], [-118.2329, 40.3226]], [[-118.2294, 40.3015], [-118.2317, 40.3079], [-118.2335, 40.3026], [-118.2311, 40.2971], [-118.2294, 40.3015]]], [[[-118.0902, 40.332], [-118.1023, 40.3287], [-118.0981, 40.3366], [-118.0894, 40.3351], [-118.0902, 40.332]], [[-118.0981, 40.3345], [-118.0974, 40.3328], [-118.096, 40.3331], [-118.0962, 40.3352], [-118.0981, 40.3345]]], [[[-118.1071, 40.3733], [-118.1016, 40.3753], [-118.1005, 40.3718], [-118.0929, 40.369], [-118.0969, 40.3661], [-118.1077, 40.3679], [-118.108, 40.3592], [-118.095, 40.3555], [-118.1088, 40.3553], [-118.1086, 40.3533], [-118.0993, 40.3533], [-118.1049, 40.3488], [-118.0957, 40.3447], [-118.0971, 40.3423], [-118.1074, 40.3401], [-118.1197, 40.3687], [-118.119, 40.3746], [-118.1146, 40.3732], [-118.1112, 40.3748], [-118.1071, 40.3733]]], [[[-118.2411, 40.3659], [-118.241, 40.3571], [-118.2456, 40.3562], [-118.2474, 40.3604], [-118.2411, 40.3659]]], [[[-118.246, 40.3684], [-118.2501, 40.3651], [-118.2545, 40.3728], [-118.2473, 40.3836], [-118.2357, 40.3681], [-118.246, 40.3684]]], [[[-118.2473, 40.3836], [-118.2439, 40.3869], [-118.241, 40.3815], [-118.2425, 40.3796], [-118.2473, 40.3836]]], [[[-118.2584, 40.4076], [-118.2534, 40.4079], [-118.2481, 40.4002], [-118.2519, 40.4079], [-118.2442, 40.4073], [-118.2467, 40.4024], [-118.2406, 40.3943], [-118.2436, 40.3874], [-118.2516, 40.3879], [-118.2615, 40.4016], [-118.2612, 40.4082], [-118.2552, 40.3998], [-118.2584, 40.4076]], [[-118.2536, 40.405], [-118.2552, 40.4055], [-118.2508, 40.3983], [-118.2536, 40.405]]], [[[-118.1412, 40.4168], [-118.1423, 40.414], [-118.1464, 40.4174], [-118.1506, 40.4166], [-118.1529, 40.4215], [-118.1497, 40.4248], [-118.1544, 40.4262], [-118.1551, 40.42], [-118.1636, 40.4176], [-118.1672, 40.4137], [-118.1678, 40.4208], [-118.1616, 40.4311], [-118.1546, 40.4304], [-118.1556, 40.4365], [-118.1535, 40.4382], [-118.1478, 40.4389], [-118.1412, 40.4168]]], [[[-118.1179, 40.4311], [-118.1204, 40.4312], [-118.1222, 40.4352], [-118.1265, 40.4332], [-118.1263, 40.4286], [-118.1338, 40.4287], [-118.1347, 40.426], [-118.1381, 40.4255], [-118.1405, 40.4298], [-118.1249, 40.4404], [-118.1158, 40.4372], [-118.1179, 40.4311]]], [[[-118.1364, 40.4443], [-118.1335, 40.4423], [-118.1345, 40.4376], [-118.1384, 40.4421], [-118.1364, 40.4443]]], [[[-118.1465, 40.4455], [-118.1475, 40.4403], [-118.1495, 40.4432], [-118.1465, 40.4455]]], [[[-118.1266, 40.5011], [-118.1317, 40.5012], [-118.1333, 40.5077], [-118.131, 40.5094], [-118.1337, 40.5134], [-118.1274, 40.5177], [-118.1251, 40.5125], [-118.1266, 40.5011]]], [[[-118.1052, 40.6279], [-118.1077, 40.6228], [-118.1028, 40.6259], [-118.1082, 40.607], [-118.1172, 40.5977], [-118.1184, 40.6], [-118.1199, 40.5986], [-118.1295, 40.5333], [-118.142, 40.5238], [-118.1421, 40.5222], [-118.1385, 40.5226], [-118.1365, 40.5152], [-118.1413, 40.5048], [-118.1401, 40.4998], [-118.1461, 40.4997], [-118.1454, 40.497], [-118.1479, 40.4971], [-118.1509, 40.505], [-118.154, 40.5064], [-118.1535, 40.5007], [-118.1601, 40.4943], [-118.1531, 40.4889], [-118.1478, 40.4921], [-118.1462, 40.4894], [-118.1341, 40.4885], [-118.1298, 40.4928], [-118.1261, 40.4899], [-118.1286, 40.4825], [-118.1253, 40.482], [-118.1237, 40.4753], [-118.119, 40.4699], [-118.1243, 40.464], [-118.1203, 40.4583], [-118.1227, 40.4492], [-118.1301, 40.4515], [-118.1297, 40.4549], [-118.1358, 40.4539], [-118.1369, 40.4565], [-118.1409, 40.4544], [-118.1428, 40.4611], [-118.1471, 40.4618], [-118.1483, 40.4645], [-118.1528, 40.4636], [-118.154, 40.4582], [-118.1605, 40.4568], [-118.1602, 40.4539], [-118.1655, 40.4547], [-118.1716, 40.4522], [-118.174, 40.4488], [-118.1727, 40.444], [-118.1784, 40.4407], [-118.1844, 40.4249], [-118.1803, 40.4226], [-118.1785, 40.4142], [-118.1808, 40.4113], [-118.1839, 40.4168], [-118.1935, 40.4183], [-118.1902, 40.4358], [-118.1954, 40.4412], [-118.191, 40.4449], [-118.1911, 40.4482], [-118.1994, 40.4542], [-118.2117, 40.4561], [-118.2264, 40.4494], [-118.2283, 40.4233], [-118.2334, 40.4205], [-118.2527, 40.4187], [-118.2532, 40.4215], [-118.2597, 40.4218], [-118.26, 40.4302], [-118.2495, 40.4319], [-118.2374, 40.43], [-118.2363, 40.4331], [-118.2492, 40.437], [-118.2447, 40.4425], [-118.2372, 40.4415], [-118.2359, 40.4458], [-118.2448, 40.4465], [-118.2484, 40.4524], [-118.2346, 40.4831], [-118.2345, 40.4926], [-118.2276, 40.4954], [-118.232, 40.4961], [-118.2262, 40.5037], [-118.2323, 40.5136], [-118.2275, 40.517], [-118.2285, 40.5228], [-118.2216, 40.5262], [-118.2209, 40.532], [-118.215, 40.5402], [-118.2099, 40.5394], [-118.21, 40.5362], [-118.2049, 40.5356], [-118.184, 40.5197], [-118.18, 40.5338], [-118.1715, 40.5411], [-118.1705, 40.544], [-118.1756, 40.5493], [-118.1732, 40.5541], [-118.1774, 40.553], [-118.1815, 40.545], [-118.196, 40.5448], [-118.1897, 40.5528], [-118.1924, 40.5533], [-118.1923, 40.5585], [-118.1958, 40.5592], [-118.1939, 40.5626], [-118.1911, 40.559], [-118.1866, 40.558], [-118.1855, 40.561], [-118.1905, 40.5679], [-118.1822, 40.573], [-118.1714, 40.585], [-118.1844, 40.587], [-118.1824, 40.5891], [-118.185, 40.5898], [-118.1938, 40.5864], [-118.1939, 40.5908], [-118.188, 40.5952], [-118.179, 40.5965], [-118.1797, 40.6015], [-118.1778, 40.6022], [-118.1604, 40.6019], [-118.1531, 40.6106], [-118.1439, 40.6049], [-118.1299, 40.6135], [-118.1268, 40.6132], [-118.1221, 40.6222], [-118.1088, 40.6287], [-118.1046, 40.6338], [-118.1004, 40.6337], [-118.1018, 40.6277], [-118.1052, 40.6279]], [[-118.1238, 40.6011], [-118.1404, 40.5625], [-118.1334, 40.5642], [-118.1209, 40.5987], [-118.1116, 40.6075], [-118.1089, 40.6166], [-118.1238, 40.6011]], [[-118.1846, 40.5612], [-118.1789, 40.5556], [-118.1736, 40.5573], [-118.1776, 40.5653], [-118.1846, 40.5612]], [[-118.1504, 40.549], [-118.1484, 40.548], [-118.1516, 40.5443], [-118.151, 40.5311], [-118.1423, 40.5508], [-118.1504, 40.549]], [[-118.1883, 40.5118], [-118.1865, 40.5039], [-118.1839, 40.5119], [-118.1804, 40.5132], [-118.1795, 40.5117], [-118.1781, 40.5224], [-118.1883, 40.5118]], [[-118.2013, 40.5143], [-118.1999, 40.5099], [-118.1923, 40.5163], [-118.2013, 40.5143]], [[-118.2128, 40.5178], [-118.2182, 40.5161], [-118.2083, 40.5123], [-118.2044, 40.5143], [-118.2073, 40.5171], [-118.2128, 40.5178]], [[-118.2081, 40.4856], [-118.2038, 40.4823], [-118.2025, 40.4851], [-118.1961, 40.4877], [-118.1993, 40.4905], [-118.2023, 40.4875], [-118.2081, 40.4856]], [[-118.2023, 40.4675], [-118.1957, 40.4655], [-118.1969, 40.4713], [-118.2094, 40.4714], [-118.21, 40.4677], [-118.2053, 40.4633], [-118.2023, 40.4675]], [[-118.1588, 40.4689], [-118.1581, 40.4677], [-118.1503, 40.4723], [-118.1548, 40.4799], [-118.1551, 40.4739], [-118.1588, 40.4689]], [[-118.1432, 40.473], [-118.1449, 40.4775], [-118.1492, 40.4735], [-118.1432, 40.473]], [[-118.214, 40.46], [-118.2105, 40.4573], [-118.2049, 40.4584], [-118.2084, 40.4628], [-118.214, 40.46]], [[-118.2375, 40.4406], [-118.2377, 40.4384], [-118.2336, 40.4388], [-118.2322, 40.441], [-118.2375, 40.4406]], [[-118.1376, 40.4667], [-118.1376, 40.468], [-118.1445, 40.468], [-118.1446, 40.4653], [-118.1376, 40.4667]], [[-118.1847, 40.4538], [-118.1877, 40.4536], [-118.1872, 40.4493], [-118.1825, 40.4453], [-118.1784, 40.4473], [-118.1847, 40.4538]]], [[[-118.1928, 40.578], [-118.1962, 40.5801], [-118.2079, 40.5788], [-118.209, 40.5683], [-118.2201, 40.5581], [-118.2137, 40.5837], [-118.2048, 40.5876], [-118.2006, 40.5923], [-118.1981, 40.5894], [-118.2006, 40.5876], [-118.1983, 40.5857], [-118.1993, 40.5819], [-118.1945, 40.5826], [-118.1928, 40.578]]], [[[-118.0996, 40.6355], [-118.0944, 40.6384], [-118.0942, 40.6374], [-118.0966, 40.6331], [-118.0996, 40.6355]]], [[[-118.0723, 40.645], [-118.0765, 40.6422], [-118.0764, 40.6457], [-118.0809, 40.643], [-118.0782, 40.64], [-118.0974, 40.6261], [-118.0936, 40.6348], [-118.0861, 40.637], [-118.087, 40.643], [-118.0762, 40.6578], [-118.0712, 40.6545], [-118.0723, 40.645]]], [[[-118.0674, 40.6523], [-118.0647, 40.6553], [-118.0612, 40.6519], [-118.0674, 40.6523]]], [[[-118.0482, 40.6776], [-118.053, 40.6778], [-118.0554, 40.6738], [-118.0526, 40.6705], [-118.0449, 40.6711], [-118.0479, 40.6686], [-118.0459, 40.6644], [-118.0497, 40.6586], [-118.0533, 40.656], [-118.0553, 40.6573], [-118.0613, 40.6551], [-118.0632, 40.6589], [-118.068, 40.6589], [-118.0673, 40.6557], [-118.0697, 40.6548], [-118.0739, 40.6605], [-118.0607, 40.67], [-118.0578, 40.6797], [-118.052, 40.6826], [-118.0482, 40.6804], [-118.0482, 40.6776]]], [[[-118.0503, 40.6725], [-118.0509, 40.6729], [-118.0414, 40.6753], [-118.0441, 40.6724], [-118.0503, 40.6725]]], [[[-117.604, 39.9677], [-117.5999, 39.9682], [-117.5988, 39.9661], [-117.6045, 39.9614], [-117.6047, 39.952], [-117.6068, 39.951], [-117.6171, 39.9635], [-117.6139, 39.97], [-117.625, 39.968], [-117.619, 39.9742], [-117.6136, 39.9754], [-117.6072, 39.9724], [-117.604, 39.9677]]], [[[-117.8429, 40.0376], [-117.8304, 40.0298], [-117.8272, 40.0229], [-117.8322, 40.0195], [-117.8349, 40.0114], [-117.8371, 40.0156], [-117.8423, 40.0134], [-117.8456, 40.0031], [-117.867, 39.9937], [-117.8757, 39.9771], [-117.8765, 39.9836], [-117.8727, 39.9863], [-117.869, 39.9964], [-117.8644, 39.9998], [-117.8654, 40.0033], [-117.8615, 40.0069], [-117.8648, 40.0104], [-117.856, 40.0125], [-117.8507, 40.0041], [-117.848, 40.0036], [-117.8436, 40.0254], [-117.8458, 40.0288], [-117.8527, 40.0309], [-117.856, 40.0298], [-117.8627, 40.02], [-117.8635, 40.0284], [-117.8764, 40.019], [-117.8784, 40.0265], [-117.87, 40.0294], [-117.8637, 40.0393], [-117.8563, 40.0394], [-117.8491, 40.0433], [-117.849, 40.0582], [-117.8451, 40.0669], [-117.8423, 40.0691], [-117.8445, 40.0616], [-117.8398, 40.0545], [-117.8379, 40.0702], [-117.8359, 40.0709], [-117.8289, 40.0627], [-117.8412, 40.0493], [-117.8396, 40.0468], [-117.8429, 40.0376]], [[-117.8388, 40.0318], [-117.8395, 40.0292], [-117.8357, 40.0301], [-117.8388, 40.0343], [-117.8414, 40.0315], [-117.8388, 40.0318]]], [[[-117.8445, 40.1346], [-117.8421, 40.13], [-117.8433, 40.1221], [-117.8466, 40.1178], [-117.8479, 40.1235], [-117.8625, 40.117], [-117.8524, 40.1366], [-117.8488, 40.1507], [-117.8378, 40.1494], [-117.8389, 40.1371], [-117.8399, 40.135], [-117.8421, 40.1363], [-117.8445, 40.1346]]], [[[-117.847, 40.1539], [-117.8462, 40.1693], [-117.8409, 40.1701], [-117.847, 40.1539]]], [[[-117.6099, 40.1588], [-117.6132, 40.151], [-117.6199, 40.1612], [-117.6212, 40.1692], [-117.61, 40.1734], [-117.6077, 40.1777], [-117.6045, 40.1741], [-117.6099, 40.1588]]], [[[-117.6479, 40.1935], [-117.6495, 40.1863], [-117.6411, 40.1775], [-117.6448, 40.1687], [-117.6516, 40.1722], [-117.6548, 40.1567], [-117.6588, 40.1519], [-117.6642, 40.1555], [-117.6738, 40.1515], [-117.672, 40.1564], [-117.6747, 40.158], [-117.6716, 40.1621], [-117.6661, 40.1608], [-117.6702, 40.1649], [-117.6679, 40.1723], [-117.6594, 40.1803], [-117.6654, 40.1815], [-117.6693, 40.1865], [-117.6626, 40.1904], [-117.6615, 40.1955], [-117.6479, 40.1935]], [[-117.6597, 40.193], [-117.6602, 40.1914], [-117.6593, 40.1914], [-117.6597, 40.193]], [[-117.6552, 40.1916], [-117.6555, 40.1924], [-117.6571, 40.1918], [-117.6552, 40.1916]]], [[[-117.8533, 40.1825], [-117.8519, 40.1838], [-117.8509, 40.1794], [-117.8544, 40.1726], [-117.8564, 40.1752], [-117.8533, 40.1825]]], [[[-117.847, 40.1537], [-117.8321, 40.1754], [-117.8299, 40.1919], [-117.8168, 40.2136], [-117.8126, 40.2131], [-117.8111, 40.2068], [-117.8138, 40.1953], [-117.8247, 40.1835], [-117.8235, 40.1773], [-117.8308, 40.1689], [-117.8361, 40.1532], [-117.847, 40.1537]]], [[[-117.6121, 40.1801], [-117.6179, 40.1779], [-117.6219, 40.173], [-117.6251, 40.1859], [-117.6242, 40.1991], [-117.6168, 40.1818], [-117.6117, 40.1835], [-117.6121, 40.1801]]], [[[-117.6342, 40.2037], [-117.6387, 40.2017], [-117.6371, 40.2092], [-117.6353, 40.2093], [-117.6328, 40.2088], [-117.6318, 40.2084], [-117.6353, 40.2069], [-117.6342, 40.2037]]], [[[-117.642, 40.2285], [-117.6417, 40.2252], [-117.6463, 40.2254], [-117.6446, 40.2287], [-117.642, 40.2285]]], [[[-117.6379, 40.2538], [-117.6359, 40.2556], [-117.6344, 40.2531], [-117.6379, 40.2538]]], [[[-117.605, 40.2809], [-117.5993, 40.285], [-117.5989, 40.2762], [-117.6059, 40.2697], [-117.6113, 40.2728], [-117.611, 40.2643], [-117.6064, 40.2638], [-117.604, 40.2675], [-117.6007, 40.2678], [-117.6041, 40.257], [-117.6085, 40.2623], [-117.61, 40.2612], [-117.61, 40.2528], [-117.6043, 40.2547], [-117.6112, 40.2351], [-117.6128, 40.24], [-117.6146, 40.2379], [-117.616, 40.2394], [-117.6158, 40.2454], [-117.6204, 40.2478], [-117.6277, 40.2472], [-117.6286, 40.2556], [-117.6221, 40.2651], [-117.6268, 40.2741], [-117.6252, 40.279], [-117.6339, 40.2753], [-117.6325, 40.2909], [-117.6356, 40.2985], [-117.628, 40.31], [-117.6308, 40.2999], [-117.6282, 40.2914], [-117.6197, 40.2842], [-117.6162, 40.2833], [-117.615, 40.2864], [-117.605, 40.2809]], [[-117.6159, 40.2496], [-117.6139, 40.2482], [-117.6142, 40.2512], [-117.6222, 40.2523], [-117.6159, 40.2496]]], [[[-117.6139, 40.3208], [-117.6183, 40.315], [-117.6178, 40.3109], [-117.6212, 40.3095], [-117.6243, 40.3106], [-117.6236, 40.3154], [-117.6199, 40.3203], [-117.6139, 40.3208]]], [[[-117.6985, 40.3766], [-117.695, 40.3879], [-117.6885, 40.3914], [-117.6938, 40.3731], [-117.7066, 40.3662], [-117.7029, 40.3746], [-117.6985, 40.3766]]], [[[-117.8361, 40.4066], [-117.8306, 40.4044], [-117.834, 40.3967], [-117.8391, 40.3942], [-117.8356, 40.3903], [-117.8403, 40.3786], [-117.8492, 40.3836], [-117.8427, 40.3912], [-117.8518, 40.3894], [-117.8552, 40.3937], [-117.8542, 40.3991], [-117.8626, 40.4042], [-117.8581, 40.4121], [-117.8508, 40.4161], [-117.8464, 40.416], [-117.8424, 40.4126], [-117.8427, 40.4075], [-117.8381, 40.41], [-117.8361, 40.4066]]], [[[-117.6997, 40.5077], [-117.6983, 40.5046], [-117.7031, 40.5006], [-117.7022, 40.5066], [-117.6997, 40.5077]]], [[[-117.6156, 40.5845], [-117.6108, 40.58], [-117.6159, 40.5787], [-117.6156, 40.5845]]], [[[-118.0361, 40.6839], [-118.0403, 40.6841], [-118.0422, 40.6867], [-118.0509, 40.686], [-118.0448, 40.6915], [-118.0367, 40.6907], [-118.0361, 40.6839]]], [[[-117.8271, 40.7211], [-117.8225, 40.7265], [-117.8204, 40.7259], [-117.8228, 40.7094], [-117.8284, 40.7069], [-117.8261, 40.7044], [-117.8284, 40.6978], [-117.8356, 40.6974], [-117.8279, 40.6943], [-117.8285, 40.6886], [-117.8323, 40.6845], [-117.8285, 40.6755], [-117.8308, 40.6712], [-117.824, 40.671], [-117.8104, 40.6809], [-117.8056, 40.6807], [-117.824, 40.6606], [-117.8445, 40.6523], [-117.8533, 40.6613], [-117.8541, 40.6752], [-117.8609, 40.6688], [-117.8802, 40.6658], [-117.8698, 40.6771], [-117.8636, 40.6757], [-117.8603, 40.6776], [-117.8643, 40.6812], [-117.858, 40.6848], [-117.8629, 40.6856], [-117.8636, 40.6917], [-117.8426, 40.7131], [-117.8339, 40.7291], [-117.8312, 40.7269], [-117.8346, 40.7225], [-117.8328, 40.721], [-117.8271, 40.7211]], [[-117.8369, 40.6944], [-117.8373, 40.6914], [-117.8335, 40.6915], [-117.8369, 40.6944]]], [[[-117.836, 40.7644], [-117.8294, 40.7487], [-117.8311, 40.7456], [-117.8371, 40.7451], [-117.8341, 40.7413], [-117.8473, 40.7425], [-117.8519, 40.7289], [-117.8604, 40.7281], [-117.8592, 40.7355], [-117.8704, 40.7306], [-117.8727, 40.7353], [-117.8777, 40.7313], [-117.8709, 40.7454], [-117.8662, 40.7465], [-117.8626, 40.7515], [-117.8621, 40.7453], [-117.8588, 40.7463], [-117.8595, 40.7542], [-117.8567, 40.7552], [-117.8554, 40.761], [-117.8456, 40.7731], [-117.8411, 40.77], [-117.8444, 40.7668], [-117.8422, 40.7656], [-117.8429, 40.7606], [-117.836, 40.7644]]], [[[-117.886, 40.7668], [-117.8913, 40.7601], [-117.8905, 40.7512], [-117.9001, 40.7399], [-117.9027, 40.7401], [-117.9018, 40.7456], [-117.8974, 40.748], [-117.8964, 40.7561], [-117.9102, 40.7386], [-117.9176, 40.7382], [-117.9115, 40.7444], [-117.9069, 40.7586], [-117.8993, 40.7649], [-117.8767, 40.7743], [-117.8644, 40.7741], [-117.8659, 40.7656], [-117.8727, 40.7644], [-117.886, 40.7668]]], [[[-117.7074, 40.8416], [-117.7016, 40.843], [-117.7058, 40.8325], [-117.709, 40.8353], [-117.7074, 40.8416]]], [[[-117.6676, 40.8254], [-117.6695, 40.8276], [-117.667, 40.8358], [-117.6709, 40.8429], [-117.6661, 40.8625], [-117.6629, 40.8646], [-117.6594, 40.8609], [-117.6625, 40.85], [-117.6545, 40.8423], [-117.6627, 40.8367], [-117.6606, 40.8284], [-117.665, 40.8282], [-117.6676, 40.8254]]], [[[-117.6974, 40.8653], [-117.6966, 40.8579], [-117.6997, 40.861], [-117.6974, 40.8653]]], [[[-117.6935, 40.8753], [-117.7008, 40.8769], [-117.7113, 40.8851], [-117.7074, 40.886], [-117.6955, 40.8815], [-117.6926, 40.8832], [-117.6935, 40.8753]]], [[[-117.489, 39.6182], [-117.4889, 39.6124], [-117.4803, 39.6061], [-117.4857, 39.607], [-117.4891, 39.6043], [-117.4995, 39.6095], [-117.5114, 39.6121], [-117.5155, 39.6155], [-117.5125, 39.6172], [-117.5154, 39.6203], [-117.5125, 39.6224], [-117.4922, 39.6223], [-117.489, 39.6182]]], [[[-117.4856, 39.6625], [-117.4829, 39.6588], [-117.4937, 39.6529], [-117.4914, 39.6482], [-117.4974, 39.6459], [-117.4969, 39.6423], [-117.5007, 39.6396], [-117.4953, 39.6357], [-117.4989, 39.6267], [-117.5135, 39.6224], [-117.5179, 39.6383], [-117.5243, 39.6477], [-117.5142, 39.6557], [-117.5135, 39.6632], [-117.5188, 39.6705], [-117.5147, 39.6796], [-117.5085, 39.6824], [-117.4975, 39.676], [-117.4929, 39.6839], [-117.4802, 39.6921], [-117.4781, 39.6876], [-117.4818, 39.6824], [-117.4793, 39.6792], [-117.4844, 39.6706], [-117.4856, 39.6625]]], [[[-117.478, 39.7368], [-117.4756, 39.7422], [-117.4775, 39.7437], [-117.4814, 39.7421], [-117.4807, 39.738], [-117.4826, 39.7371], [-117.4833, 39.7387], [-117.4887, 39.7345], [-117.4888, 39.7269], [-117.485, 39.7214], [-117.4878, 39.7133], [-117.4861, 39.7075], [-117.4984, 39.7161], [-117.5023, 39.7291], [-117.4992, 39.7303], [-117.5014, 39.7333], [-117.4983, 39.7353], [-117.5036, 39.7395], [-117.492, 39.7444], [-117.4887, 39.7552], [-117.4793, 39.7469], [-117.4741, 39.7499], [-117.4718, 39.7452], [-117.478, 39.7368]]], [[[-117.5285, 39.7416], [-117.5268, 39.7443], [-117.5292, 39.7482], [-117.5201, 39.761], [-117.519, 39.745], [-117.5207, 39.7392], [-117.5285, 39.7416]]], [[[-117.476, 39.7845], [-117.4783, 39.7823], [-117.4759, 39.7807], [-117.4749, 39.7697], [-117.4798, 39.7763], [-117.484, 39.7779], [-117.4897, 39.7682], [-117.4973, 39.7695], [-117.4899, 39.7738], [-117.4944, 39.7873], [-117.4864, 39.7842], [-117.476, 39.7845]]], [[[-117.5232, 39.7917], [-117.5217, 39.7936], [-117.5155, 39.7839], [-117.5183, 39.7803], [-117.523, 39.7827], [-117.5232, 39.7917]]], [[[-117.5742, 39.9421], [-117.5812, 39.9413], [-117.5801, 39.9465], [-117.576, 39.9459], [-117.5742, 39.9421]]], [[[-117.5044, 40.1215], [-117.5065, 40.1183], [-117.5028, 40.1101], [-117.506, 40.1064], [-117.5065, 40.0988], [-117.5191, 40.0939], [-117.5224, 40.0891], [-117.5216, 40.085], [-117.5298, 40.0835], [-117.5276, 40.081], [-117.5294, 40.0787], [-117.5262, 40.0764], [-117.5286, 40.0735], [-117.524, 40.0684], [-117.5249, 40.0662], [-117.5293, 40.0652], [-117.5302, 40.06], [-117.5378, 40.0599], [-117.5374, 40.0568], [-117.5437, 40.0595], [-117.5432, 40.0567], [-117.5463, 40.0562], [-117.5449, 40.0542], [-117.5343, 40.0543], [-117.5261, 40.0463], [-117.5171, 40.047], [-117.5204, 40.0381], [-117.5094, 40.031], [-117.5081, 40.0197], [-117.5034, 40.0178], [-117.5168, 40.0112], [-117.4959, 40.0098], [-117.5064, 40.0014], [-117.5104, 39.9872], [-117.5185, 39.9775], [-117.5241, 39.9729], [-117.5264, 39.9751], [-117.5311, 39.9739], [-117.5355, 39.9582], [-117.5359, 39.9446], [-117.5156, 39.9381], [-117.5136, 39.9396], [-117.5144, 39.9445], [-117.5075, 39.9476], [-117.5103, 39.9499], [-117.5228, 39.949], [-117.5238, 39.9505], [-117.5106, 39.9591], [-117.5049, 39.9431], [-117.505, 39.9308], [-117.5159, 39.907], [-117.5121, 39.8824], [-117.5164, 39.8799], [-117.5089, 39.8765], [-117.5031, 39.8697], [-117.4954, 39.867], [-117.4939, 39.8701], [-117.4925, 39.8681], [-117.4954, 39.8607], [-117.4917, 39.8526], [-117.4969, 39.8596], [-117.5036, 39.861], [-117.5154, 39.8498], [-117.5147, 39.8392], [-117.5193, 39.8327], [-117.523, 39.8356], [-117.523, 39.8472], [-117.5322, 39.8648], [-117.5313, 39.8763], [-117.5333, 39.8774], [-117.5359, 39.8747], [-117.5437, 39.8911], [-117.5426, 39.8942], [-117.5482, 39.9115], [-117.5454, 39.9313], [-117.5487, 39.9395], [-117.5506, 39.9332], [-117.5654, 39.9389], [-117.5741, 39.9292], [-117.5728, 39.9188], [-117.5863, 39.9205], [-117.5848, 39.9247], [-117.5756, 39.9289], [-117.573, 39.9369], [-117.5775, 39.9393], [-117.5665, 39.9414], [-117.5694, 39.9673], [-117.5799, 39.9692], [-117.5742, 39.9971], [-117.5823, 39.9883], [-117.5783, 40.0033], [-117.5896, 40.0014], [-117.5869, 40.0055], [-117.5783, 40.0067], [-117.5946, 40.0106], [-117.5984, 40.022], [-117.5969, 40.0267], [-117.5892, 40.0281], [-117.5847, 40.0338], [-117.5731, 40.0322], [-117.5672, 40.0453], [-117.5724, 40.0499], [-117.5671, 40.0597], [-117.5642, 40.0604], [-117.5619, 40.0572], [-117.5586, 40.0569], [-117.5522, 40.0694], [-117.5466, 40.0692], [-117.5568, 40.0756], [-117.5495, 40.0773], [-117.5481, 40.0759], [-117.5431, 40.0825], [-117.5394, 40.082], [-117.5377, 40.0929], [-117.5314, 40.0935], [-117.5299, 40.1009], [-117.5225, 40.1027], [-117.5143, 40.1112], [-117.5162, 40.12], [-117.5044, 40.1215]], [[-117.5629, 40.0506], [-117.5542, 40.0468], [-117.5504, 40.0503], [-117.5532, 40.0542], [-117.5629, 40.0506]], [[-117.5659, 40.0312], [-117.5698, 40.0293], [-117.5693, 40.0269], [-117.5593, 40.024], [-117.5557, 40.0289], [-117.5589, 40.0357], [-117.5667, 40.0368], [-117.56, 40.0301], [-117.5659, 40.0312]]], [[[-117.5481, 40.0867], [-117.5412, 40.0909], [-117.5436, 40.0834], [-117.5493, 40.079], [-117.5481, 40.0867]]], [[[-117.4991, 40.1158], [-117.502, 40.1145], [-117.5023, 40.1154], [-117.5015, 40.1169], [-117.4991, 40.1158]]], [[[-117.5847, 40.1913], [-117.5854, 40.1875], [-117.5923, 40.171], [-117.5828, 40.1595], [-117.5886, 40.1494], [-117.5848, 40.144], [-117.5893, 40.1275], [-117.5925, 40.1226], [-117.5959, 40.1229], [-117.5973, 40.1175], [-117.5996, 40.1197], [-117.6003, 40.1176], [-117.6082, 40.1255], [-117.6, 40.1256], [-117.602, 40.128], [-117.604, 40.1265], [-117.6084, 40.133], [-117.6087, 40.1395], [-117.6086, 40.1416], [-117.5996, 40.141], [-117.5994, 40.1463], [-117.6027, 40.1513], [-117.6006, 40.1659], [-117.5973, 40.1715], [-117.6022, 40.1742], [-117.6008, 40.1949], [-117.5956, 40.1972], [-117.5948, 40.1869], [-117.5847, 40.1913]]], [[[-117.6007, 40.1994], [-117.6082, 40.1893], [-117.6118, 40.2001], [-117.6092, 40.206], [-117.6077, 40.201], [-117.6007, 40.1994]]], [[[-117.5731, 40.1946], [-117.5757, 40.1988], [-117.5719, 40.2046], [-117.5661, 40.1969], [-117.567, 40.1932], [-117.5731, 40.1946]]], [[[-117.5655, 40.2086], [-117.5713, 40.208], [-117.5725, 40.2099], [-117.5761, 40.2081], [-117.5739, 40.2113], [-117.5646, 40.2107], [-117.5655, 40.2086]]], [[[-117.5725, 40.225], [-117.5673, 40.2249], [-117.5677, 40.222], [-117.571, 40.2221], [-117.5725, 40.225]]], [[[-117.6047, 40.2393], [-117.6086, 40.2337], [-117.6098, 40.2355], [-117.6047, 40.2393]]], [[[-117.5772, 40.2727], [-117.581, 40.2751], [-117.5829, 40.2727], [-117.5754, 40.2649], [-117.5738, 40.2667], [-117.5766, 40.2706], [-117.5704, 40.2676], [-117.5673, 40.2579], [-117.5781, 40.2514], [-117.5738, 40.2489], [-117.572, 40.244], [-117.5714, 40.2491], [-117.5654, 40.2449], [-117.5615, 40.2375], [-117.5695, 40.2276], [-117.5818, 40.2329], [-117.5851, 40.2238], [-117.5885, 40.2319], [-117.5852, 40.2402], [-117.5894, 40.2468], [-117.579, 40.2533], [-117.5804, 40.2589], [-117.5827, 40.2593], [-117.5844, 40.2543], [-117.5885, 40.2514], [-117.5894, 40.26], [-117.5867, 40.2592], [-117.5869, 40.2656], [-117.5899, 40.2726], [-117.5945, 40.2748], [-117.5967, 40.2845], [-117.5906, 40.279], [-117.5766, 40.2795], [-117.5772, 40.2727]]], [[[-117.5945, 40.2748], [-117.5983, 40.2698], [-117.5998, 40.2721], [-117.5945, 40.2748]]], [[[-117.5229, 40.2828], [-117.5275, 40.2793], [-117.528, 40.2886], [-117.5219, 40.2911], [-117.5221, 40.2981], [-117.5191, 40.2994], [-117.5229, 40.2828]]], [[[-117.4861, 40.536], [-117.4867, 40.5388], [-117.4808, 40.5377], [-117.4799, 40.5345], [-117.4861, 40.536]]], [[[-117.488, 40.5403], [-117.49, 40.5381], [-117.4935, 40.5402], [-117.4939, 40.5424], [-117.488, 40.5403]]], [[[-117.4881, 40.5475], [-117.4944, 40.5506], [-117.4925, 40.5542], [-117.4846, 40.5528], [-117.4938, 40.5579], [-117.4912, 40.5595], [-117.4936, 40.5616], [-117.4935, 40.5703], [-117.483, 40.5572], [-117.483, 40.5496], [-117.4881, 40.5475]]], [[[-117.5876, 40.5712], [-117.5857, 40.5694], [-117.5983, 40.5668], [-117.5985, 40.5705], [-117.5876, 40.5712]]], [[[-117.606, 40.568], [-117.6054, 40.5793], [-117.6011, 40.5767], [-117.606, 40.568]]], [[[-117.5142, 40.5933], [-117.5126, 40.5892], [-117.5141, 40.5841], [-117.5209, 40.5787], [-117.5183, 40.5742], [-117.5268, 40.5721], [-117.5263, 40.5757], [-117.5364, 40.5765], [-117.5361, 40.5788], [-117.5423, 40.577], [-117.542, 40.5828], [-117.5364, 40.5819], [-117.5298, 40.5855], [-117.5283, 40.5955], [-117.5266, 40.5934], [-117.5202, 40.5958], [-117.5142, 40.5933]]], [[[-117.4871, 40.5953], [-117.4877, 40.5917], [-117.4904, 40.592], [-117.4907, 40.5944], [-117.4871, 40.5953]]], [[[-117.4429, 39.5724], [-117.446, 39.5691], [-117.4499, 39.5701], [-117.45, 39.5759], [-117.453, 39.578], [-117.4479, 39.5784], [-117.4429, 39.5724]]], [[[-117.4634, 39.5904], [-117.4728, 39.5937], [-117.4757, 39.5898], [-117.4744, 39.6009], [-117.4699, 39.6005], [-117.4634, 39.5904]]], [[[-116.8155, 39.9049], [-116.8118, 39.9023], [-116.8134, 39.899], [-116.8105, 39.897], [-116.8142, 39.8924], [-116.8162, 39.8751], [-116.8205, 39.8827], [-116.8196, 39.8939], [-116.8242, 39.9018], [-116.8388, 39.9118], [-116.8152, 39.9124], [-116.8155, 39.9049]]], [[[-116.8333, 39.9229], [-116.831, 39.9244], [-116.8261, 39.923], [-116.8251, 39.9205], [-116.8302, 39.9182], [-116.8333, 39.9229]]], [[[-116.8334, 39.9643], [-116.8342, 39.9619], [-116.8287, 39.9621], [-116.8354, 39.9605], [-116.8424, 39.9643], [-116.853, 39.9637], [-116.8584, 39.9579], [-116.8586, 39.948], [-116.8613, 39.946], [-116.8595, 39.9386], [-116.8417, 39.9271], [-116.8442, 39.9183], [-116.8489, 39.925], [-116.8547, 39.9251], [-116.8562, 39.9211], [-116.8579, 39.9221], [-116.8679, 39.9297], [-116.8772, 39.9414], [-116.8717, 39.945], [-116.868, 39.9525], [-116.8674, 39.9589], [-116.87, 39.9612], [-116.866, 39.9634], [-116.864, 39.9763], [-116.8605, 39.9769], [-116.8546, 39.9738], [-116.8526, 39.9752], [-116.8458, 39.9692], [-116.8334, 39.9643]]], [[[-116.8338, 39.9566], [-116.829, 39.9538], [-116.8296, 39.9529], [-116.8339, 39.9528], [-116.8338, 39.9566]]], [[[-116.869, 39.9755], [-116.8745, 39.9761], [-116.8716, 39.9841], [-116.8603, 39.9805], [-116.8684, 39.9779], [-116.869, 39.9755]]], [[[-117.1629, 40.0816], [-117.1611, 40.0792], [-117.1643, 40.0789], [-117.1629, 40.0816]]], [[[-117.1919, 40.3085], [-117.1894, 40.3083], [-117.1928, 40.3059], [-117.1919, 40.3085]]], [[[-117.2136, 40.3145], [-117.2022, 40.3171], [-117.206, 40.3142], [-117.2083, 40.3088], [-117.2067, 40.3073], [-117.1959, 40.3177], [-117.1931, 40.3147], [-117.198, 40.3082], [-117.2039, 40.3068], [-117.2028, 40.3044], [-117.2112, 40.3019], [-117.2141, 40.3089], [-117.224, 40.3127], [-117.2178, 40.3175], [-117.2177, 40.3153], [-117.2136, 40.3145]]], [[[-117.2303, 40.3513], [-117.2204, 40.3427], [-117.2028, 40.338], [-117.2008, 40.3322], [-117.1966, 40.3322], [-117.1955, 40.3241], [-117.2086, 40.3212], [-117.22, 40.3229], [-117.2287, 40.3196], [-117.2314, 40.3253], [-117.2345, 40.3278], [-117.2357, 40.3249], [-117.2375, 40.3255], [-117.2394, 40.3301], [-117.2429, 40.3301], [-117.2493, 40.3252], [-117.2596, 40.332], [-117.2608, 40.3247], [-117.2639, 40.3234], [-117.2719, 40.3296], [-117.2733, 40.3375], [-117.2685, 40.3404], [-117.2613, 40.3399], [-117.2555, 40.3441], [-117.2544, 40.3488], [-117.2303, 40.3513]], [[-117.2478, 40.336], [-117.2529, 40.3366], [-117.2521, 40.3347], [-117.2487, 40.3312], [-117.2478, 40.336]], [[-117.2271, 40.3221], [-117.2226, 40.3236], [-117.2202, 40.3286], [-117.2273, 40.3243], [-117.2271, 40.3221]]], [[[-117.26, 40.3499], [-117.2576, 40.3503], [-117.2577, 40.3449], [-117.26, 40.3499]]], [[[-117.2655, 40.3537], [-117.2641, 40.3552], [-117.2614, 40.3509], [-117.2655, 40.3503], [-117.2655, 40.3537]]], [[[-117.193, 40.3734], [-117.1894, 40.3672], [-117.1969, 40.3685], [-117.2065, 40.3607], [-117.2092, 40.3551], [-117.2001, 40.3584], [-117.1964, 40.354], [-117.1981, 40.3493], [-117.2041, 40.3449], [-117.2078, 40.3484], [-117.2168, 40.3488], [-117.2139, 40.3514], [-117.2174, 40.3546], [-117.2169, 40.3587], [-117.2129, 40.3617], [-117.2206, 40.3675], [-117.2058, 40.3819], [-117.2043, 40.3806], [-117.2084, 40.3752], [-117.2042, 40.3732], [-117.193, 40.3734]]], [[[-116.8839, 40.4083], [-116.888, 40.409], [-116.8898, 40.4137], [-116.8869, 40.412], [-116.8856, 40.4148], [-116.8826, 40.4144], [-116.8839, 40.4083]]], [[[-116.8919, 40.4465], [-116.8909, 40.4481], [-116.8833, 40.4358], [-116.8869, 40.4334], [-116.8919, 40.4465]]], [[[-117.3951, 40.5662], [-117.3908, 40.5665], [-117.3903, 40.559], [-117.396, 40.5535], [-117.4048, 40.5504], [-117.4094, 40.5519], [-117.3951, 40.5662]]], [[[-117.3946, 40.5776], [-117.387, 40.5755], [-117.39, 40.5706], [-117.4003, 40.5704], [-117.3946, 40.5776]]], [[[-117.4778, 40.5958], [-117.482, 40.598], [-117.4817, 40.6009], [-117.4731, 40.5971], [-117.4828, 40.5907], [-117.4822, 40.5964], [-117.481, 40.5948], [-117.4778, 40.5958]]], [[[-117.4115, 40.6355], [-117.4054, 40.633], [-117.3966, 40.6227], [-117.3971, 40.6162], [-117.394, 40.62], [-117.3886, 40.6193], [-117.3852, 40.6122], [-117.3886, 40.612], [-117.3897, 40.6087], [-117.3991, 40.6117], [-117.4014, 40.6151], [-117.4037, 40.6118], [-117.4097, 40.618], [-117.4124, 40.6166], [-117.4165, 40.6192], [-117.4224, 40.6292], [-117.4246, 40.6241], [-117.4208, 40.6199], [-117.4225, 40.616], [-117.4144, 40.6149], [-117.4276, 40.6069], [-117.4248, 40.6043], [-117.4173, 40.6108], [-117.4114, 40.6121], [-117.4062, 40.6067], [-117.4031, 40.6079], [-117.3937, 40.6062], [-117.3951, 40.6044], [-117.4028, 40.6041], [-117.3994, 40.6024], [-117.3998, 40.5989], [-117.3916, 40.6034], [-117.3848, 40.601], [-117.3851, 40.5959], [-117.3897, 40.5921], [-117.3844, 40.5892], [-117.3833, 40.5824], [-117.3813, 40.582], [-117.3799, 40.5854], [-117.3819, 40.5774], [-117.3958, 40.5793], [-117.4008, 40.5898], [-117.4052, 40.5872], [-117.4097, 40.5934], [-117.41, 40.5893], [-117.4161, 40.589], [-117.418, 40.5822], [-117.4149, 40.5841], [-117.4152, 40.577], [-117.4272, 40.5689], [-117.4335, 40.5688], [-117.4368, 40.5748], [-117.4474, 40.5761], [-117.4415, 40.5647], [-117.4473, 40.5623], [-117.4509, 40.5555], [-117.4569, 40.5583], [-117.4665, 40.557], [-117.4692, 40.5762], [-117.4737, 40.5772], [-117.4747, 40.5853], [-117.4707, 40.5932], [-117.4679, 40.5937], [-117.4654, 40.5908], [-117.4648, 40.5947], [-117.4609, 40.5955], [-117.4691, 40.5977], [-117.4643, 40.6031], [-117.4636, 40.6083], [-117.4546, 40.6152], [-117.4529, 40.6208], [-117.4456, 40.6153], [-117.4345, 40.6314], [-117.4208, 40.6383], [-117.4155, 40.6442], [-117.4147, 40.6402], [-117.4116, 40.6403], [-117.4115, 40.6355]]], [[[-117.4693, 40.6118], [-117.4555, 40.6176], [-117.4709, 40.6034], [-117.4828, 40.6173], [-117.4803, 40.6241], [-117.4746, 40.6236], [-117.466, 40.6272], [-117.4693, 40.6118]]], [[[-117.3169, 40.6336], [-117.3196, 40.6287], [-117.3207, 40.6294], [-117.3208, 40.6327], [-117.3169, 40.6336]]], [[[-117.3958, 40.6737], [-117.3926, 40.6676], [-117.3902, 40.6701], [-117.3856, 40.6699], [-117.3786, 40.6652], [-117.3746, 40.6688], [-117.3617, 40.6724], [-117.3633, 40.6793], [-117.3603, 40.6814], [-117.3572, 40.6763], [-117.3593, 40.6693], [-117.3558, 40.6708], [-117.3537, 40.665], [-117.3589, 40.6612], [-117.3635, 40.6609], [-117.3635, 40.6562], [-117.3693, 40.653], [-117.3788, 40.664], [-117.3837, 40.6571], [-117.3832, 40.6511], [-117.3875, 40.6496], [-117.3923, 40.6641], [-117.3958, 40.6631], [-117.4003, 40.6562], [-117.402, 40.6586], [-117.3975, 40.664], [-117.4033, 40.6649], [-117.4061, 40.6609], [-117.4157, 40.6559], [-117.4185, 40.6733], [-117.4138, 40.6709], [-117.4098, 40.6733], [-117.3958, 40.6737]]], [[[-117.3515, 40.6829], [-117.3448, 40.6822], [-117.348, 40.6774], [-117.3525, 40.679], [-117.3515, 40.6829]]], [[[-117.4102, 41.4053], [-117.4004, 41.4075], [-117.4076, 41.3999], [-117.4153, 41.3981], [-117.4102, 41.4053]]]]}}, {"id": "1", "type": "Feature", "properties": {"unit": "TRmt"}, "geometry": {"type": "MultiPolygon", "coordinates": [[[[-115.4137, 35.8006], [-115.4127, 35.79], [-115.4243, 35.8102], [-115.4292, 35.8143], [-115.4333, 35.8144], [-115.4308, 35.8159], [-115.4247, 35.8146], [-115.4137, 35.8006]]], [[[-115.4895, 35.8286], [-115.4705, 35.832], [-115.4596, 35.8297], [-115.4558, 35.8266], [-115.4955, 35.8272], [-115.4897, 35.8326], [-115.4779, 35.838], [-115.477, 35.8463], [-115.4733, 35.8421], [-115.4749, 35.8363], [-115.4909, 35.8306], [-115.4895, 35.8286]]], [[[-115.4485, 35.8297], [-115.4466, 35.8337], [-115.4488, 35.8384], [-115.4637, 35.8414], [-115.4566, 35.842], [-115.4409, 35.8368], [-115.4393, 35.8395], [-115.4462, 35.8448], [-115.4427, 35.8464], [-115.4356, 35.8399], [-115.4383, 35.8318], [-115.4485, 35.8297]]], [[[-115.3528, 35.8782], [-115.3547, 35.8725], [-115.3618, 35.8839], [-115.3694, 35.8828], [-115.372, 35.8844], [-115.3776, 35.897], [-115.366, 35.8992], [-115.3619, 35.892], [-115.3576, 35.89], [-115.3528, 35.8782]]], [[[-115.3568, 35.8998], [-115.3546, 35.9013], [-115.3541, 35.8938], [-115.3568, 35.8998]]], [[[-115.3541, 35.927], [-115.3518, 35.9284], [-115.3526, 35.9145], [-115.3559, 35.9176], [-115.3541, 35.927]]], [[[-115.3796, 35.9253], [-115.3847, 35.9183], [-115.3867, 35.9238], [-115.3824, 35.927], [-115.3796, 35.9253]]], [[[-115.4372, 35.9432], [-115.4372, 35.9492], [-115.4314, 35.9395], [-115.4241, 35.9334], [-115.4244, 35.9246], [-115.4301, 35.9192], [-115.4299, 35.9273], [-115.4372, 35.9432]]], [[[-115.4464, 35.9656], [-115.4446, 35.975], [-115.4361, 35.9546], [-115.4381, 35.9508], [-115.4464, 35.9656]]], [[[-115.4496, 36.006], [-115.4523, 36.0065], [-115.4547, 36.0118], [-115.4489, 36.0154], [-115.4358, 36.0165], [-115.433, 36.0131], [-115.4496, 36.006]]], [[[-115.4314, 36.0291], [-115.4249, 36.0304], [-115.4155, 36.0247], [-115.432, 36.0182], [-115.4344, 36.0246], [-115.4314, 36.0291]]], [[[-115.4543, 36.0362], [-115.4517, 36.0357], [-115.4588, 36.0319], [-115.4543, 36.0362]]], [[[-115.5872, 36.0088], [-115.5932, 36.008], [-115.5944, 36.0137], [-115.5902, 36.0187], [-115.5911, 36.0267], [-115.595, 36.0292], [-115.5907, 36.0313], [-115.5907, 36.0348], [-115.5967, 36.0404], [-115.6034, 36.0528], [-115.5913, 36.0637], [-115.5854, 36.0576], [-115.5823, 36.0422], [-115.5872, 36.0088]]], [[[-115.3906, 36.0404], [-115.3844, 36.0364], [-115.3871, 36.0337], [-115.3942, 36.0333], [-115.3906, 36.0404]]], [[[-115.4491, 36.0405], [-115.4477, 36.0402], [-115.4532, 36.0374], [-115.4491, 36.0405]]], [[[-115.4406, 36.0345], [-115.446, 36.045], [-115.444, 36.049], [-115.4375, 36.0502], [-115.42, 36.0481], [-115.4164, 36.0393], [-115.4185, 36.0329], [-115.4203, 36.0312], [-115.4289, 36.0342], [-115.4406, 36.0345]]], [[[-115.3806, 36.0433], [-115.3857, 36.0478], [-115.38, 36.051], [-115.366, 36.0517], [-115.3644, 36.0463], [-115.3688, 36.0437], [-115.3806, 36.0433]]], [[[-115.4341, 36.057], [-115.4325, 36.0564], [-115.4338, 36.0521], [-115.436, 36.0517], [-115.4372, 36.054], [-115.4341, 36.057]]], [[[-115.3591, 36.0955], [-115.35, 36.0782], [-115.3484, 36.0656], [-115.3381, 36.0443], [-115.3399, 36.0382], [-115.3473, 36.0348], [-115.3585, 36.0363], [-115.3609, 36.0407], [-115.3585, 36.0647], [-115.3618, 36.0743], [-115.3587, 36.0817], [-115.3611, 36.0829], [-115.3648, 36.081], [-115.3792, 36.0608], [-115.383, 36.0887], [-115.3924, 36.1064], [-115.3873, 36.1052], [-115.3777, 36.0974], [-115.3673, 36.0997], [-115.3591, 36.0955]]], [[[-115.4229, 36.0873], [-115.4237, 36.0719], [-115.4281, 36.0618], [-115.4351, 36.0589], [-115.4427, 36.0631], [-115.4499, 36.0753], [-115.4492, 36.0803], [-115.453, 36.0844], [-115.458, 36.1032], [-115.4524, 36.1122], [-115.4437, 36.1158], [-115.4399, 36.1142], [-115.4278, 36.099], [-115.4229, 36.0873]]], [[[-115.5572, 36.173], [-115.5576, 36.1697], [-115.568, 36.164], [-115.5772, 36.1631], [-115.5932, 36.1471], [-115.5975, 36.1489], [-115.5995, 36.1469], [-115.5949, 36.1443], [-115.5974, 36.1351], [-115.6004, 36.1297], [-115.6097, 36.1312], [-115.6144, 36.116], [-115.6147, 36.1017], [-115.608, 36.094], [-115.6112, 36.0875], [-115.6101, 36.0726], [-115.6036, 36.0577], [-115.6103, 36.0523], [-115.6174, 36.0592], [-115.6212, 36.0558], [-115.6353, 36.0536], [-115.6384, 36.0592], [-115.635, 36.0701], [-115.6419, 36.0705], [-115.647, 36.0733], [-115.6485, 36.0601], [-115.6549, 36.0509], [-115.6597, 36.0499], [-115.6731, 36.0672], [-115.6826, 36.07], [-115.6806, 36.0771], [-115.6896, 36.0759], [-115.6906, 36.0811], [-115.696, 36.0826], [-115.6962, 36.0884], [-115.7048, 36.0861], [-115.7093, 36.0874], [-115.7141, 36.1029], [-115.7173, 36.106], [-115.7258, 36.1077], [-115.7258, 36.1109], [-115.7195, 36.1138], [-115.7058, 36.0981], [-115.6873, 36.089], [-115.6723, 36.0751], [-115.6672, 36.0746], [-115.6655, 36.0809], [-115.6681, 36.0997], [-115.6565, 36.1242], [-115.6476, 36.1324], [-115.6385, 36.1348], [-115.6338, 36.141], [-115.6257, 36.1436], [-115.618, 36.1522], [-115.615, 36.1505], [-115.6177, 36.143], [-115.6063, 36.1503], [-115.6215, 36.1575], [-115.6201, 36.1637], [-115.6125, 36.1697], [-115.6126, 36.1627], [-115.6077, 36.1586], [-115.6052, 36.1616], [-115.6067, 36.1677], [-115.59, 36.1707], [-115.5941, 36.1812], [-115.5985, 36.1825], [-115.6053, 36.1708], [-115.6082, 36.1703], [-115.6107, 36.1847], [-115.6049, 36.1927], [-115.5994, 36.1944], [-115.5867, 36.1918], [-115.5572, 36.173]], [[-115.5741, 36.1694], [-115.5778, 36.1731], [-115.5839, 36.1691], [-115.5741, 36.1694]]], [[[-115.4482, 36.1321], [-115.4516, 36.133], [-115.4467, 36.1368], [-115.4376, 36.1384], [-115.4375, 36.1352], [-115.4482, 36.1321]]], [[[-115.6054, 36.2052], [-115.6005, 36.2019], [-115.6096, 36.1934], [-115.6092, 36.1994], [-115.6054, 36.2052]]], [[[-115.5156, 36.2521], [-115.5127, 36.2517], [-115.5141, 36.2484], [-115.5156, 36.2521]]], [[[-115.5289, 36.2648], [-115.5256, 36.2627], [-115.5252, 36.2586], [-115.5299, 36.2578], [-115.5325, 36.2622], [-115.5289, 36.2648]]], [[[-115.5058, 36.2818], [-115.501, 36.2796], [-115.5093, 36.2764], [-115.5114, 36.2783], [-115.5058, 36.2818]]], [[[-115.5071, 36.2895], [-115.5119, 36.2825], [-115.5259, 36.2812], [-115.532, 36.2846], [-115.5379, 36.293], [-115.5434, 36.2909], [-115.5382, 36.2998], [-115.5103, 36.324], [-115.5006, 36.3245], [-115.5071, 36.2895]]], [[[-115.4639, 36.3029], [-115.4746, 36.2984], [-115.4915, 36.2948], [-115.4997, 36.2956], [-115.4964, 36.3014], [-115.4735, 36.3208], [-115.4574, 36.3283], [-115.4472, 36.3249], [-115.4394, 36.3363], [-115.4365, 36.3323], [-115.4377, 36.3281], [-115.4639, 36.3029]]], [[[-115.7917, 40.9145], [-115.7981, 40.9146], [-115.7927, 40.9167], [-115.7873, 40.9178], [-115.7917, 40.9145]]], [[[-115.5006, 41.0563], [-115.4987, 41.0566], [-115.5021, 41.0518], [-115.5006, 41.0563]]], [[[-115.5662, 41.2042], [-115.5778, 41.2009], [-115.5567, 41.1886], [-115.5687, 41.18], [-115.5796, 41.1823], [-115.586, 41.1871], [-115.5965, 41.19], [-115.6127, 41.1893], [-115.6579, 41.1678], [-115.6668, 41.1661], [-115.6779, 41.1565], [-115.6948, 41.1482], [-115.7066, 41.1278], [-115.7134, 41.1269], [-115.7335, 41.114], [-115.7331, 41.1223], [-115.7142, 41.1494], [-115.7068, 41.1533], [-115.6886, 41.1713], [-115.6708, 41.1763], [-115.6642, 41.1823], [-115.6631, 41.1783], [-115.642, 41.1885], [-115.641, 41.1905], [-115.6451, 41.193], [-115.6387, 41.1986], [-115.6311, 41.2013], [-115.627, 41.1999], [-115.6195, 41.2024], [-115.6045, 41.2027], [-115.6026, 41.2007], [-115.5942, 41.2011], [-115.5828, 41.2106], [-115.5659, 41.206], [-115.5662, 41.2042]], [[-115.5789, 41.2066], [-115.587, 41.2031], [-115.5837, 41.2021], [-115.577, 41.2049], [-115.5789, 41.2066]]], [[[-115.9486, 41.515], [-115.9527, 41.5126], [-115.9542, 41.5142], [-115.9486, 41.515]]], [[[-115.964, 41.5214], [-115.9675, 41.5214], [-115.9627, 41.5259], [-115.964, 41.5214]]], [[[-115.9744, 41.5267], [-115.9735, 41.5236], [-115.9765, 41.5233], [-115.9744, 41.5267]]], [[[-115.9646, 41.5393], [-115.9676, 41.5359], [-115.9688, 41.5374], [-115.9646, 41.5393]]], [[[-115.9389, 41.5391], [-115.9416, 41.5363], [-115.9424, 41.537], [-115.9389, 41.5391]]], [[[-115.5832, 41.5625], [-115.5831, 41.5658], [-115.5782, 41.5644], [-115.5774, 41.5622], [-115.5832, 41.5625]]], [[[-115.3604, 41.5734], [-115.3637, 41.5791], [-115.3537, 41.5754], [-115.3604, 41.5734]]], [[[-115.353, 41.5797], [-115.3594, 41.5817], [-115.3593, 41.5909], [-115.355, 41.5873], [-115.3564, 41.584], [-115.3463, 41.5775], [-115.3474, 41.5746], [-115.353, 41.5797]]], [[[-115.5559, 41.5938], [-115.5514, 41.5869], [-115.5578, 41.5813], [-115.5466, 41.5831], [-115.5452, 41.5814], [-115.5544, 41.5806], [-115.5614, 41.5759], [-115.5683, 41.5744], [-115.5761, 41.5677], [-115.5789, 41.5679], [-115.5792, 41.5712], [-115.5675, 41.5776], [-115.5775, 41.5762], [-115.5835, 41.5793], [-115.5836, 41.5816], [-115.5985, 41.5802], [-115.5995, 41.5816], [-115.5968, 41.5905], [-115.5882, 41.5984], [-115.59, 41.6009], [-115.5781, 41.6072], [-115.5791, 41.5913], [-115.5744, 41.5898], [-115.5666, 41.5939], [-115.5559, 41.5938]]], [[[-115.3971, 41.6816], [-115.3915, 41.6884], [-115.391, 41.6838], [-115.3874, 41.6833], [-115.3905, 41.676], [-115.3971, 41.6816]]], [[[-115.3478, 41.7383], [-115.3549, 41.7381], [-115.3536, 41.7328], [-115.3595, 41.7332], [-115.36, 41.7307], [-115.3531, 41.7239], [-115.3414, 41.7222], [-115.3495, 41.7065], [-115.3554, 41.7213], [-115.3597, 41.7199], [-115.357, 41.7168], [-115.36, 41.7091], [-115.3621, 41.709], [-115.3614, 41.721], [-115.3572, 41.7227], [-115.3628, 41.7301], [-115.3667, 41.7255], [-115.3677, 41.7335], [-115.3635, 41.7361], [-115.3663, 41.7375], [-115.3575, 41.7415], [-115.3566, 41.7395], [-115.3522, 41.7403], [-115.3485, 41.7444], [-115.3464, 41.742], [-115.3526, 41.7389], [-115.3478, 41.7383]]], [[[-115.3457, 35.9417], [-115.3437, 35.9419], [-115.3446, 35.9362], [-115.3478, 35.938], [-115.3457, 35.9417]]], [[[-115.3493, 35.9694], [-115.3433, 35.9699], [-115.3434, 35.9666], [-115.349, 35.9662], [-115.3493, 35.9694]]], [[[-115.187, 39.4235], [-115.1922, 39.4217], [-115.1881, 39.4256], [-115.1855, 39.4252], [-115.187, 39.4235]]], [[[-115.1887, 39.4275], [-115.1913, 39.4259], [-115.1911, 39.4303], [-115.1887, 39.4275]]], [[[-115.2231, 39.4988], [-115.2188, 39.5005], [-115.2178, 39.4988], [-115.2228, 39.4966], [-115.2231, 39.4988]]], [[[-115.2402, 39.5046], [-115.2387, 39.5014], [-115.2402, 39.4977], [-115.2402, 39.5046]]], [[[-115.2518, 39.5307], [-115.2492, 39.5285], [-115.2524, 39.5242], [-115.2518, 39.5307]]], [[[-115.2234, 39.5737], [-115.2205, 39.5715], [-115.2185, 39.5623], [-115.2215, 39.5627], [-115.2203, 39.5574], [-115.2297, 39.5518], [-115.2306, 39.5474], [-115.2338, 39.5509], [-115.2346, 39.5703], [-115.2453, 39.579], [-115.2596, 39.6018], [-115.2378, 39.5936], [-115.2258, 39.5944], [-115.2234, 39.5737]]], [[[-115.302, 39.986], [-115.3073, 39.988], [-115.31, 39.986], [-115.3108, 39.9788], [-115.3042, 39.9737], [-115.3084, 39.9665], [-115.3126, 39.9802], [-115.311, 40.004], [-115.3096, 39.9967], [-115.3051, 39.9986], [-115.302, 39.986]]], [[[-115.2812, 40.0484], [-115.2804, 40.0519], [-115.2877, 40.0471], [-115.2975, 40.0281], [-115.3028, 40.0294], [-115.3026, 40.0236], [-115.2986, 40.0234], [-115.2995, 40.021], [-115.3052, 40.0205], [-115.3123, 40.0142], [-115.3129, 40.0165], [-115.3163, 40.0144], [-115.3194, 40.0153], [-115.3224, 40.0223], [-115.3175, 40.0434], [-115.3032, 40.0601], [-115.3008, 40.0608], [-115.2945, 40.0562], [-115.2874, 40.0544], [-115.277, 40.053], [-115.2691, 40.0546], [-115.2812, 40.0484]], [[-115.2975, 40.039], [-115.2925, 40.0413], [-115.2908, 40.0466], [-115.2967, 40.0468], [-115.3003, 40.044], [-115.2975, 40.039]]], [[[-115.2663, 40.0369], [-115.2675, 40.0428], [-115.2656, 40.0428], [-115.2624, 40.0379], [-115.2663, 40.0369]]], [[[-115.283, 40.0455], [-115.2896, 40.0368], [-115.2894, 40.0399], [-115.283, 40.0455]]], [[[-115.3505, 40.0726], [-115.3525, 40.0687], [-115.3541, 40.07], [-115.3505, 40.0726]]], [[[-115.2358, 40.0829], [-115.2379, 40.0786], [-115.2408, 40.0787], [-115.2474, 40.0899], [-115.2577, 40.0976], [-115.2434, 40.1019], [-115.2358, 40.0829]]], [[[-115.2635, 40.1011], [-115.2611, 40.0958], [-115.2702, 40.1047], [-115.2609, 40.1066], [-115.2604, 40.1194], [-115.2572, 40.1073], [-115.2635, 40.1011]]], [[[-115.2388, 40.1033], [-115.2432, 40.1067], [-115.238, 40.1074], [-115.233, 40.1165], [-115.2325, 40.106], [-115.2388, 40.1033]]], [[[-115.2312, 40.1248], [-115.2288, 40.125], [-115.2333, 40.1206], [-115.2358, 40.1203], [-115.2312, 40.1248]]], [[[-115.2733, 40.2543], [-115.2772, 40.2541], [-115.2716, 40.2586], [-115.2733, 40.2543]]], [[[-115.155, 40.255], [-115.1585, 40.2599], [-115.1541, 40.262], [-115.155, 40.255]]], [[[-115.0926, 40.2576], [-115.0896, 40.2542], [-115.1002, 40.2591], [-115.1022, 40.263], [-115.0969, 40.2681], [-115.0926, 40.2576]]], [[[-115.1333, 40.279], [-115.132, 40.2766], [-115.1363, 40.277], [-115.1344, 40.2803], [-115.1333, 40.279]]], [[[-115.1632, 40.2844], [-115.1638, 40.2813], [-115.1577, 40.2855], [-115.1476, 40.2883], [-115.1414, 40.2873], [-115.145, 40.2803], [-115.1386, 40.2753], [-115.1363, 40.277], [-115.1322, 40.2722], [-115.1363, 40.2719], [-115.1363, 40.2734], [-115.1385, 40.2713], [-115.1433, 40.2747], [-115.148, 40.2693], [-115.149, 40.2732], [-115.1506, 40.2705], [-115.1551, 40.27], [-115.1571, 40.2745], [-115.1578, 40.2715], [-115.1618, 40.2762], [-115.1644, 40.2744], [-115.1625, 40.2693], [-115.1682, 40.2722], [-115.1689, 40.2773], [-115.1715, 40.2695], [-115.1765, 40.2809], [-115.1746, 40.2864], [-115.1702, 40.2879], [-115.1726, 40.2805], [-115.1709, 40.2798], [-115.1632, 40.2844]]], [[[-115.1301, 40.2847], [-115.1267, 40.2839], [-115.1265, 40.2793], [-115.1313, 40.2787], [-115.1301, 40.2847]]], [[[-115.0933, 40.2858], [-115.0967, 40.2797], [-115.094, 40.2758], [-115.1048, 40.286], [-115.1042, 40.2877], [-115.0933, 40.2858]]], [[[-115.1943, 40.2831], [-115.1942, 40.2812], [-115.1975, 40.2837], [-115.1943, 40.2831]]], [[[-115.1897, 40.2863], [-115.1852, 40.2913], [-115.1848, 40.2898], [-115.1897, 40.2863]]], [[[-115.1637, 40.2999], [-115.1672, 40.3026], [-115.1647, 40.3076], [-115.1595, 40.3016], [-115.1612, 40.2997], [-115.191, 40.2786], [-115.1917, 40.2827], [-115.1895, 40.2812], [-115.1637, 40.2999]]], [[[-115.1698, 40.3079], [-115.1684, 40.307], [-115.1688, 40.3092], [-115.1677, 40.3087], [-115.1669, 40.3079], [-115.1713, 40.3028], [-115.1771, 40.3012], [-115.1698, 40.3079]]], [[[-115.1671, 40.3113], [-115.1664, 40.3123], [-115.1608, 40.311], [-115.1588, 40.306], [-115.1671, 40.3113]]], [[[-115.2069, 40.2988], [-115.2084, 40.3054], [-115.2038, 40.318], [-115.2013, 40.3212], [-115.1964, 40.3211], [-115.1918, 40.3242], [-115.2003, 40.3123], [-115.2001, 40.3078], [-115.2069, 40.2988]], [[-115.1994, 40.3175], [-115.2033, 40.311], [-115.2019, 40.3113], [-115.1994, 40.3175]]], [[[-115.0814, 40.6929], [-115.0814, 40.6957], [-115.0859, 40.6957], [-115.0918, 40.6913], [-115.0953, 40.6839], [-115.1017, 40.6821], [-115.101, 40.6858], [-115.0912, 40.6943], [-115.0842, 40.698], [-115.0786, 40.6965], [-115.0814, 40.6929]]], [[[-115.0737, 40.7011], [-115.0731, 40.6968], [-115.0756, 40.6979], [-115.0758, 40.7014], [-115.0737, 40.7011]]], [[[-115.0904, 40.7255], [-115.0945, 40.7231], [-115.0957, 40.7143], [-115.0849, 40.7137], [-115.0786, 40.7111], [-115.0755, 40.7076], [-115.0769, 40.7025], [-115.0831, 40.7067], [-115.0821, 40.7097], [-115.0861, 40.7086], [-115.1013, 40.7158], [-115.0964, 40.7072], [-115.1016, 40.7104], [-115.1047, 40.7058], [-115.098, 40.7046], [-115.0928, 40.701], [-115.098, 40.6999], [-115.1033, 40.6923], [-115.1134, 40.6862], [-115.1094, 40.6987], [-115.1143, 40.6998], [-115.1146, 40.7072], [-115.1, 40.7245], [-115.1006, 40.7175], [-115.0975, 40.7157], [-115.096, 40.724], [-115.0881, 40.7298], [-115.0818, 40.7244], [-115.0901, 40.7203], [-115.0904, 40.7255]]], [[[-115.1101, 41.5867], [-115.1192, 41.5852], [-115.1314, 41.5941], [-115.1255, 41.5937], [-115.1176, 41.5967], [-115.1059, 41.5906], [-115.1101, 41.5867]]], [[[-115.0925, 41.5954], [-115.0928, 41.592], [-115.0994, 41.5922], [-115.0977, 41.5944], [-115.0996, 41.5954], [-115.0951, 41.5966], [-115.0886, 41.6087], [-115.085, 41.6047], [-115.0835, 41.5935], [-115.0925, 41.5954]]], [[[-115.1487, 41.6054], [-115.1423, 41.6001], [-115.1613, 41.6031], [-115.1683, 41.6014], [-115.1753, 41.6045], [-115.173, 41.6068], [-115.1594, 41.6041], [-115.1487, 41.6054]]], [[[-115.3448, 41.633], [-115.3483, 41.6323], [-115.3466, 41.6407], [-115.3448, 41.633]]], [[[-115.3378, 41.6487], [-115.3359, 41.6488], [-115.3361, 41.6436], [-115.3389, 41.6461], [-115.3378, 41.6487]]], [[[-115.315, 41.6834], [-115.3194, 41.6779], [-115.3212, 41.6818], [-115.3189, 41.6842], [-115.315, 41.6834]]], [[[-115.3195, 41.6869], [-115.3226, 41.6905], [-115.3188, 41.6906], [-115.3123, 41.6968], [-115.3088, 41.6968], [-115.3144, 41.6846], [-115.3186, 41.6886], [-115.3195, 41.6869]]], [[[-115.3296, 41.7274], [-115.3267, 41.7261], [-115.3352, 41.7223], [-115.3411, 41.7154], [-115.3405, 41.7203], [-115.3296, 41.7274]]], [[[-115.3284, 41.7386], [-115.3239, 41.739], [-115.3221, 41.7319], [-115.327, 41.7314], [-115.3284, 41.7386]]], [[[-114.8239, 36.0124], [-114.8237, 36.0066], [-114.8272, 36.0002], [-114.8362, 35.9964], [-114.8456, 36.0067], [-114.8479, 36.0166], [-114.838, 36.009], [-114.8239, 36.0124]]], [[[-114.9817, 36.1423], [-114.9802, 36.1381], [-114.9666, 36.1573], [-114.9636, 36.1601], [-114.9624, 36.1574], [-114.9603, 36.1585], [-114.9567, 36.1628], [-114.9453, 36.189], [-114.9304, 36.1926], [-114.9399, 36.1732], [-114.9401, 36.1594], [-114.9514, 36.1401], [-114.9509, 36.1348], [-114.9593, 36.119], [-114.9633, 36.1194], [-114.9685, 36.1157], [-114.9707, 36.1179], [-114.9569, 36.1415], [-114.9507, 36.1572], [-114.9762, 36.1345], [-114.9783, 36.1359], [-114.9845, 36.1243], [-114.9955, 36.1325], [-114.9834, 36.1473], [-114.9791, 36.1739], [-114.9741, 36.1849], [-114.9723, 36.1835], [-114.9702, 36.1851], [-114.9645, 36.1924], [-114.969, 36.1765], [-114.9674, 36.1736], [-114.9609, 36.1925], [-114.9534, 36.2003], [-114.9471, 36.2002], [-114.9545, 36.1888], [-114.9548, 36.1826], [-114.9817, 36.1423]]], [[[-114.7025, 36.2029], [-114.6949, 36.202], [-114.6944, 36.1962], [-114.7248, 36.1977], [-114.7239, 36.1997], [-114.7025, 36.2029]]], [[[-114.9695, 36.1997], [-114.9941, 36.1992], [-114.9838, 36.2058], [-114.9813, 36.203], [-114.978, 36.2035], [-114.9631, 36.2127], [-114.9564, 36.2136], [-114.9424, 36.2103], [-114.959, 36.2071], [-114.9695, 36.1997]]], [[[-114.7736, 36.2], [-114.7844, 36.2008], [-114.7994, 36.2068], [-114.8146, 36.2075], [-114.8249, 36.2128], [-114.8056, 36.2093], [-114.7981, 36.2103], [-114.7736, 36.2]]], [[[-114.9112, 36.2203], [-114.9029, 36.2193], [-114.9028, 36.2166], [-114.9202, 36.21], [-114.9239, 36.2127], [-114.921, 36.2166], [-114.9112, 36.2203]]], [[[-114.6533, 36.2345], [-114.6448, 36.2327], [-114.6534, 36.2258], [-114.6574, 36.2297], [-114.6572, 36.233], [-114.6533, 36.2345]]], [[[-114.6299, 37.0699], [-114.6351, 37.0651], [-114.636, 37.0695], [-114.6403, 37.0673], [-114.6443, 37.0706], [-114.6546, 37.0708], [-114.659, 37.0678], [-114.6599, 37.0584], [-114.6575, 37.0553], [-114.6609, 37.0538], [-114.6601, 37.047], [-114.6658, 37.0478], [-114.678, 37.0553], [-114.6826, 37.0453], [-114.6865, 37.0538], [-114.6901, 37.0443], [-114.6923, 37.0513], [-114.6918, 37.0722], [-114.6875, 37.0698], [-114.6851, 37.0631], [-114.6789, 37.0614], [-114.6687, 37.069], [-114.6671, 37.0772], [-114.6628, 37.0783], [-114.6637, 37.0806], [-114.6533, 37.0744], [-114.6299, 37.0699]]], [[[-114.6442, 40.2237], [-114.6311, 40.2086], [-114.6424, 40.2136], [-114.6501, 40.2224], [-114.6618, 40.218], [-114.6635, 40.2221], [-114.6613, 40.2243], [-114.67, 40.226], [-114.6663, 40.2268], [-114.6666, 40.2343], [-114.6611, 40.2359], [-114.6558, 40.2341], [-114.6492, 40.2288], [-114.6484, 40.2245], [-114.6442, 40.2237]]], [[[-114.6439, 40.2381], [-114.6399, 40.2339], [-114.6399, 40.2301], [-114.6422, 40.2294], [-114.6475, 40.2338], [-114.6471, 40.2377], [-114.6439, 40.2381]]], [[[-114.6822, 40.2389], [-114.6778, 40.2384], [-114.6755, 40.2354], [-114.6779, 40.2346], [-114.6822, 40.2389]]], [[[-114.6554, 40.2389], [-114.6585, 40.2372], [-114.6588, 40.2406], [-114.6554, 40.2389]]], [[[-114.684, 40.2425], [-114.6855, 40.2399], [-114.6882, 40.244], [-114.684, 40.2425]]], [[[-114.6971, 40.249], [-114.6972, 40.2539], [-114.6948, 40.251], [-114.6961, 40.2428], [-114.6971, 40.249]]], [[[-114.6471, 40.2551], [-114.6467, 40.2529], [-114.6504, 40.2522], [-114.6508, 40.2548], [-114.6471, 40.2551]]], [[[-114.6924, 40.2603], [-114.6952, 40.264], [-114.6897, 40.2676], [-114.6836, 40.2656], [-114.6879, 40.2597], [-114.6924, 40.2603]]], [[[-114.7184, 40.2763], [-114.7212, 40.2887], [-114.7199, 40.2863], [-114.7184, 40.2763]]], [[[-114.7188, 40.3006], [-114.7226, 40.2996], [-114.7274, 40.3023], [-114.7256, 40.3074], [-114.7229, 40.3065], [-114.72, 40.3088], [-114.7173, 40.3055], [-114.7144, 40.306], [-114.7188, 40.3006]]], [[[-114.736, 40.3232], [-114.7336, 40.3258], [-114.7307, 40.3225], [-114.7306, 40.3138], [-114.7339, 40.3135], [-114.736, 40.3232]]], [[[-114.843, 40.322], [-114.8427, 40.3208], [-114.8472, 40.3192], [-114.8479, 40.3224], [-114.843, 40.322]]], [[[-114.8291, 40.3559], [-114.8328, 40.3614], [-114.831, 40.37], [-114.8357, 40.3799], [-114.8347, 40.3834], [-114.8293, 40.3751], [-114.8296, 40.3708], [-114.8263, 40.3686], [-114.8274, 40.3621], [-114.8293, 40.3629], [-114.8291, 40.3559]]], [[[-114.7677, 40.4195], [-114.7624, 40.4212], [-114.7572, 40.4192], [-114.7598, 40.4104], [-114.7732, 40.3897], [-114.7764, 40.3918], [-114.777, 40.4038], [-114.7792, 40.3936], [-114.7846, 40.3919], [-114.7785, 40.3878], [-114.7847, 40.3846], [-114.783, 40.3792], [-114.7888, 40.3748], [-114.7841, 40.3759], [-114.7733, 40.3877], [-114.7809, 40.3662], [-114.7832, 40.3668], [-114.7867, 40.362], [-114.791, 40.3642], [-114.7941, 40.3627], [-114.7986, 40.3692], [-114.7938, 40.3734], [-114.7886, 40.3914], [-114.7848, 40.4209], [-114.7784, 40.431], [-114.7751, 40.4304], [-114.774, 40.4258], [-114.7703, 40.426], [-114.7677, 40.4195]]], [[[-114.7173, 40.4009], [-114.7171, 40.3979], [-114.7247, 40.3936], [-114.7257, 40.3979], [-114.7207, 40.4012], [-114.7173, 40.4009]]], [[[-114.7197, 40.41], [-114.7262, 40.3999], [-114.7302, 40.398], [-114.7314, 40.4122], [-114.7276, 40.4144], [-114.7265, 40.4116], [-114.72, 40.4151], [-114.7197, 40.41]]], [[[-114.6933, 40.4251], [-114.6912, 40.4234], [-114.6957, 40.4216], [-114.6959, 40.4245], [-114.6933, 40.4251]]], [[[-114.7229, 40.4331], [-114.7237, 40.4298], [-114.7256, 40.4305], [-114.7257, 40.4338], [-114.7229, 40.4331]]], [[[-114.7068, 40.4393], [-114.7014, 40.4416], [-114.6979, 40.4344], [-114.6995, 40.4293], [-114.7068, 40.4349], [-114.7068, 40.4393]]], [[[-114.6869, 40.438], [-114.6903, 40.4369], [-114.6898, 40.4389], [-114.6866, 40.441], [-114.6869, 40.438]]], [[[-114.764, 40.4457], [-114.7692, 40.4481], [-114.7671, 40.4494], [-114.764, 40.4457]]], [[[-114.6521, 40.5527], [-114.6526, 40.5499], [-114.6598, 40.5452], [-114.6526, 40.5453], [-114.6493, 40.5436], [-114.65, 40.5416], [-114.6609, 40.537], [-114.6662, 40.5321], [-114.6739, 40.5171], [-114.6755, 40.5049], [-114.6821, 40.5037], [-114.6863, 40.4986], [-114.6862, 40.4972], [-114.6794, 40.5015], [-114.6834, 40.4812], [-114.6889, 40.4707], [-114.6908, 40.4723], [-114.6919, 40.4705], [-114.6861, 40.4659], [-114.6871, 40.4638], [-114.6912, 40.4635], [-114.6956, 40.4731], [-114.6989, 40.4747], [-114.7045, 40.4701], [-114.7025, 40.4653], [-114.7088, 40.4656], [-114.7064, 40.462], [-114.7026, 40.4617], [-114.7039, 40.4489], [-114.7075, 40.4412], [-114.7117, 40.4407], [-114.7132, 40.4302], [-114.7165, 40.4411], [-114.715, 40.4619], [-114.7219, 40.466], [-114.725, 40.4636], [-114.7268, 40.4666], [-114.7152, 40.484], [-114.7106, 40.4884], [-114.7075, 40.4861], [-114.7049, 40.4911], [-114.6976, 40.5082], [-114.703, 40.5147], [-114.6698, 40.5679], [-114.6576, 40.5684], [-114.6389, 40.5768], [-114.6366, 40.5748], [-114.6418, 40.5571], [-114.6481, 40.5494], [-114.6521, 40.5527]]], [[[-115.0505, 40.7282], [-115.0481, 40.7281], [-115.0506, 40.7253], [-115.0535, 40.7273], [-115.0505, 40.7282]]], [[[-115.0534, 40.7383], [-115.0505, 40.7372], [-115.0501, 40.7392], [-115.0443, 40.7366], [-115.0462, 40.7314], [-115.0528, 40.7306], [-115.0568, 40.7347], [-115.0622, 40.7339], [-115.0606, 40.7298], [-115.0664, 40.7271], [-115.0557, 40.7277], [-115.0546, 40.725], [-115.0609, 40.7246], [-115.0619, 40.7218], [-115.0684, 40.7228], [-115.07, 40.7303], [-115.0619, 40.7305], [-115.0727, 40.733], [-115.0693, 40.7348], [-115.073, 40.7368], [-115.0605, 40.7384], [-115.0638, 40.7408], [-115.053, 40.7408], [-115.0534, 40.7383]]], [[[-115.0717, 40.7438], [-115.0682, 40.7419], [-115.0719, 40.7408], [-115.0717, 40.7438]]], [[[-115.0522, 40.7412], [-115.0529, 40.7443], [-115.0454, 40.746], [-115.0452, 40.7408], [-115.0522, 40.7412]]], [[[-114.7018, 41.3642], [-114.6967, 41.3525], [-114.7016, 41.3545], [-114.7042, 41.3632], [-114.7018, 41.3642]]], [[[-114.6447, 41.3724], [-114.6404, 41.3681], [-114.642, 41.3617], [-114.6311, 41.3486], [-114.637, 41.3434], [-114.6425, 41.3434], [-114.6538, 41.3374], [-114.6535, 41.3338], [-114.6613, 41.3352], [-114.6716, 41.3562], [-114.6646, 41.3663], [-114.6623, 41.3759], [-114.6596, 41.3746], [-114.6597, 41.3778], [-114.6636, 41.3805], [-114.6622, 41.3843], [-114.6562, 41.3754], [-114.6594, 41.3649], [-114.6575, 41.3638], [-114.6538, 41.3673], [-114.6506, 41.3658], [-114.6447, 41.3724]]], [[[-114.666, 41.3795], [-114.6712, 41.3771], [-114.6752, 41.3586], [-114.6852, 41.3483], [-114.6943, 41.3542], [-114.6963, 41.3639], [-114.7042, 41.3705], [-114.7017, 41.3718], [-114.7006, 41.3794], [-114.695, 41.3824], [-114.685, 41.383], [-114.6894, 41.4005], [-114.6742, 41.3941], [-114.6705, 41.3897], [-114.6663, 41.3901], [-114.666, 41.3795]]], [[[-114.7017, 41.377], [-114.7047, 41.3721], [-114.7064, 41.3768], [-114.7017, 41.377]]], [[[-114.9389, 41.619], [-114.9414, 41.6157], [-114.9471, 41.6187], [-114.9398, 41.6332], [-114.9369, 41.6343], [-114.9319, 41.6205], [-114.9327, 41.6175], [-114.9389, 41.619]]], [[[-114.984, 41.6681], [-114.9777, 41.6706], [-114.9559, 41.659], [-114.9569, 41.6544], [-114.9535, 41.646], [-114.958, 41.6457], [-114.9588, 41.6426], [-114.9532, 41.6417], [-114.954, 41.6374], [-114.9431, 41.6366], [-114.944, 41.6314], [-114.95, 41.629], [-114.9533, 41.6311], [-114.9545, 41.6364], [-114.9604, 41.6408], [-114.9597, 41.6473], [-114.9641, 41.6536], [-114.9651, 41.6416], [-114.9717, 41.6409], [-114.976, 41.6463], [-114.9733, 41.65], [-114.9774, 41.6483], [-114.9813, 41.6548], [-114.9813, 41.6474], [-114.9852, 41.6437], [-114.9815, 41.6436], [-114.9819, 41.6405], [-114.9784, 41.6416], [-114.9708, 41.6371], [-114.9618, 41.6356], [-114.9563, 41.6299], [-114.9585, 41.6279], [-114.9535, 41.6248], [-114.9534, 41.6216], [-114.9573, 41.6228], [-114.957, 41.6212], [-114.9486, 41.6168], [-114.9655, 41.6137], [-114.98, 41.6357], [-114.9903, 41.6349], [-115.0022, 41.64], [-115.0001, 41.661], [-115.0124, 41.66], [-115.0156, 41.6762], [-115.0107, 41.6804], [-114.9961, 41.6711], [-114.9886, 41.6717], [-114.984, 41.6681]], [[-114.9599, 41.6576], [-114.9604, 41.6585], [-114.9636, 41.6576], [-114.9624, 41.6554], [-114.9599, 41.6576]]], [[[-115.0272, 41.6834], [-115.0216, 41.6868], [-115.0193, 41.6704], [-115.0234, 41.6664], [-115.0274, 41.6751], [-115.0272, 41.6834]]], [[[-114.936, 41.7039], [-114.9332, 41.7038], [-114.9332, 41.7008], [-114.9301, 41.6996], [-114.9331, 41.6977], [-114.9398, 41.699], [-114.936, 41.7039]]], [[[-114.5139, 36.2473], [-114.5233, 36.2425], [-114.5397, 36.2405], [-114.5443, 36.2379], [-114.5416, 36.2262], [-114.5567, 36.2133], [-114.5878, 36.1967], [-114.6066, 36.1894], [-114.6301, 36.1884], [-114.657, 36.2019], [-114.6624, 36.2025], [-114.6602, 36.2101], [-114.6569, 36.2115], [-114.6478, 36.2095], [-114.6369, 36.2208], [-114.6005, 36.2315], [-114.5475, 36.2522], [-114.5462, 36.2489], [-114.5306, 36.2556], [-114.5139, 36.2473]], [[-114.5828, 36.2271], [-114.5856, 36.2215], [-114.595, 36.2186], [-114.5919, 36.2315], [-114.5992, 36.2298], [-114.6165, 36.2132], [-114.6389, 36.1984], [-114.6396, 36.1939], [-114.6025, 36.1992], [-114.5776, 36.2125], [-114.5543, 36.2292], [-114.5472, 36.2457], [-114.5579, 36.2412], [-114.5621, 36.2357], [-114.5778, 36.2276], [-114.5828, 36.2271]], [[-114.6374, 36.2093], [-114.6422, 36.2085], [-114.6435, 36.2035], [-114.6429, 36.2007], [-114.6393, 36.1996], [-114.6379, 36.2043], [-114.6249, 36.2175], [-114.6237, 36.2221], [-114.6375, 36.2178], [-114.6374, 36.2093]]], [[[-114.5018, 36.2529], [-114.5066, 36.2521], [-114.5245, 36.2587], [-114.5173, 36.2623], [-114.5015, 36.2587], [-114.4924, 36.2513], [-114.4973, 36.2496], [-114.5018, 36.2529]]], [[[-114.3048, 36.3213], [-114.304, 36.3229], [-114.3109, 36.3223], [-114.2908, 36.3282], [-114.2915, 36.3259], [-114.3048, 36.3213]]], [[[-114.2984, 36.36], [-114.3039, 36.3628], [-114.2991, 36.3648], [-114.289, 36.3557], [-114.2892, 36.3529], [-114.2984, 36.36]]], [[[-114.4899, 36.4121], [-114.4895, 36.4191], [-114.4861, 36.4205], [-114.4836, 36.4262], [-114.4772, 36.4189], [-114.4711, 36.4174], [-114.4807, 36.4127], [-114.4809, 36.4075], [-114.4885, 36.3993], [-114.508, 36.4032], [-114.5206, 36.4109], [-114.5321, 36.4133], [-114.5404, 36.4227], [-114.5365, 36.4237], [-114.5289, 36.4189], [-114.5017, 36.4162], [-114.4994, 36.4137], [-114.4899, 36.4121]]], [[[-114.5827, 36.4388], [-114.5773, 36.4409], [-114.5768, 36.4431], [-114.5766, 36.4395], [-114.5842, 36.4357], [-114.5827, 36.4388]]], [[[-114.6387, 36.4457], [-114.6425, 36.4483], [-114.6401, 36.4536], [-114.6351, 36.453], [-114.6387, 36.4457]]], [[[-114.5618, 36.4714], [-114.5578, 36.4658], [-114.5611, 36.4666], [-114.5618, 36.4714]]], [[[-114.5502, 36.4803], [-114.5453, 36.4769], [-114.5483, 36.4751], [-114.5502, 36.4803]]], [[[-114.5928, 36.5358], [-114.5799, 36.5351], [-114.5793, 36.5312], [-114.5858, 36.5117], [-114.5852, 36.5073], [-114.5837, 36.5078], [-114.5731, 36.5344], [-114.5761, 36.5442], [-114.5753, 36.5525], [-114.5607, 36.5857], [-114.5425, 36.6127], [-114.5381, 36.6299], [-114.5393, 36.6368], [-114.536, 36.6366], [-114.5328, 36.6339], [-114.5305, 36.6226], [-114.5551, 36.5768], [-114.562, 36.553], [-114.5635, 36.5309], [-114.5766, 36.4974], [-114.5784, 36.4832], [-114.5892, 36.4848], [-114.5945, 36.4821], [-114.596, 36.4781], [-114.6007, 36.4768], [-114.6229, 36.4771], [-114.6271, 36.4751], [-114.6316, 36.4685], [-114.6317, 36.4738], [-114.6341, 36.475], [-114.6386, 36.4673], [-114.6474, 36.4623], [-114.6455, 36.4564], [-114.6489, 36.4552], [-114.6561, 36.4696], [-114.6548, 36.4747], [-114.6455, 36.4734], [-114.6329, 36.4789], [-114.6442, 36.4806], [-114.6534, 36.4783], [-114.6453, 36.4871], [-114.6278, 36.4844], [-114.6235, 36.4819], [-114.6108, 36.4839], [-114.5981, 36.4959], [-114.601, 36.5023], [-114.6005, 36.5143], [-114.6094, 36.5133], [-114.6152, 36.5087], [-114.622, 36.5072], [-114.6239, 36.5151], [-114.6298, 36.5131], [-114.6384, 36.5071], [-114.6293, 36.5094], [-114.6296, 36.5022], [-114.6439, 36.489], [-114.649, 36.4979], [-114.6389, 36.4993], [-114.6373, 36.5012], [-114.648, 36.5055], [-114.6222, 36.5323], [-114.6054, 36.5707], [-114.6023, 36.5928], [-114.5919, 36.5999], [-114.5825, 36.5997], [-114.5787, 36.6059], [-114.5735, 36.6058], [-114.573, 36.6099], [-114.5638, 36.6149], [-114.5598, 36.6123], [-114.5806, 36.5823], [-114.5818, 36.5717], [-114.5897, 36.5558], [-114.5837, 36.5532], [-114.5838, 36.5473], [-114.5932, 36.5393], [-114.593, 36.5482], [-114.5974, 36.5467], [-114.5973, 36.5447], [-114.6049, 36.531], [-114.6046, 36.5261], [-114.5928, 36.5358]], [[-114.5882, 36.5625], [-114.5881, 36.5656], [-114.5927, 36.5628], [-114.5953, 36.5554], [-114.5987, 36.5545], [-114.5996, 36.545], [-114.5882, 36.5625]], [[-114.5845, 36.5334], [-114.5867, 36.5293], [-114.5832, 36.5275], [-114.5807, 36.5313], [-114.5845, 36.5334]]], [[[-114.4856, 36.7809], [-114.487, 36.7745], [-114.4918, 36.7781], [-114.4856, 36.7809]]], [[[-114.4799, 36.8021], [-114.4728, 36.8054], [-114.4788, 36.7988], [-114.4859, 36.7975], [-114.4799, 36.8021]]], [[[-114.4604, 36.8155], [-114.4593, 36.8168], [-114.4606, 36.8123], [-114.4691, 36.8082], [-114.4604, 36.8155]]], [[[-114.4541, 36.8214], [-114.4526, 36.8215], [-114.4544, 36.8175], [-114.4569, 36.8197], [-114.4541, 36.8214]]], [[[-114.4615, 36.824], [-114.4573, 36.8273], [-114.4596, 36.8195], [-114.4673, 36.8168], [-114.4615, 36.824]]], [[[-114.4487, 36.8291], [-114.4494, 36.8241], [-114.4511, 36.825], [-114.4487, 36.8291]]], [[[-114.4457, 36.8345], [-114.4425, 36.8333], [-114.4464, 36.8299], [-114.4486, 36.8324], [-114.4457, 36.8345]]], [[[-114.6194, 37.0394], [-114.6256, 37.0217], [-114.6411, 37.0115], [-114.6289, 37.0419], [-114.6277, 37.0543], [-114.6194, 37.0652], [-114.6094, 37.0634], [-114.6068, 37.0698], [-114.6052, 37.0649], [-114.6194, 37.0394]]], [[[-114.6102, 37.0945], [-114.6141, 37.0964], [-114.6153, 37.099], [-114.6117, 37.108], [-114.6087, 37.106], [-114.6097, 37.1013], [-114.607, 37.1005], [-114.6102, 37.0945]]], [[[-114.3801, 37.2568], [-114.3769, 37.2601], [-114.3703, 37.2438], [-114.3745, 37.2464], [-114.3801, 37.2568]]], [[[-114.3895, 37.2695], [-114.3895, 37.2728], [-114.3836, 37.2704], [-114.3784, 37.2626], [-114.3895, 37.2695]]], [[[-114.3644, 37.263], [-114.3641, 37.2585], [-114.3785, 37.2783], [-114.3899, 37.2839], [-114.3876, 37.2878], [-114.3835, 37.2888], [-114.3644, 37.263]]], [[[-114.5366, 40.0088], [-114.5436, 40.0044], [-114.5477, 40.0043], [-114.5512, 40.0049], [-114.5525, 40.0094], [-114.5472, 40.0072], [-114.5366, 40.0088]]], [[[-114.64, 40.2382], [-114.6414, 40.2403], [-114.6365, 40.2417], [-114.6355, 40.239], [-114.64, 40.2382]]], [[[-114.6027, 40.283], [-114.6046, 40.2828], [-114.6031, 40.273], [-114.6085, 40.2754], [-114.6115, 40.2699], [-114.6192, 40.28], [-114.6448, 40.2844], [-114.6411, 40.2761], [-114.6175, 40.2585], [-114.6282, 40.2597], [-114.6365, 40.2667], [-114.6377, 40.2725], [-114.644, 40.2751], [-114.6465, 40.2834], [-114.6444, 40.2873], [-114.6387, 40.285], [-114.6367, 40.2898], [-114.6289, 40.2848], [-114.6231, 40.2863], [-114.6278, 40.291], [-114.6334, 40.2923], [-114.6344, 40.2952], [-114.6163, 40.2883], [-114.6229, 40.2968], [-114.6179, 40.299], [-114.6147, 40.2981], [-114.6149, 40.2942], [-114.6027, 40.283]]], [[[-114.5273, 40.3078], [-114.5268, 40.3017], [-114.5347, 40.3034], [-114.5344, 40.3117], [-114.5273, 40.3078]]], [[[-114.4427, 40.3272], [-114.4378, 40.3235], [-114.4383, 40.3223], [-114.4448, 40.3228], [-114.4427, 40.3272]]], [[[-114.431, 40.3322], [-114.4279, 40.332], [-114.428, 40.33], [-114.4318, 40.3304], [-114.431, 40.3322]]], [[[-114.5198, 40.3405], [-114.5188, 40.3342], [-114.5252, 40.3374], [-114.5267, 40.3411], [-114.5268, 40.3444], [-114.5198, 40.3437], [-114.5198, 40.3405]]], [[[-114.6198, 40.5745], [-114.6205, 40.5723], [-114.6248, 40.5759], [-114.6223, 40.5773], [-114.6198, 40.5745]]], [[[-114.6155, 40.5827], [-114.6128, 40.583], [-114.6133, 40.5778], [-114.6172, 40.579], [-114.6155, 40.5827]]], [[[-114.6138, 40.5856], [-114.6187, 40.5836], [-114.6209, 40.5842], [-114.6163, 40.5917], [-114.6138, 40.5856]]], [[[-114.6069, 40.6022], [-114.604, 40.6069], [-114.6024, 40.6033], [-114.6016, 40.5996], [-114.6069, 40.6022]]], [[[-114.5848, 40.6052], [-114.5881, 40.6049], [-114.5891, 40.6073], [-114.5863, 40.6082], [-114.5848, 40.6052]]], [[[-114.5795, 40.6108], [-114.5809, 40.609], [-114.5842, 40.6115], [-114.5796, 40.6131], [-114.5795, 40.6108]]], [[[-114.5573, 40.6802], [-114.5531, 40.6794], [-114.5544, 40.6777], [-114.5592, 40.6785], [-114.5573, 40.6802]]], [[[-114.5876, 40.6959], [-114.5845, 40.6965], [-114.5827, 40.694], [-114.5856, 40.6934], [-114.5876, 40.6959]]], [[[-114.5858, 40.7117], [-114.5851, 40.7155], [-114.5824, 40.716], [-114.5823, 40.711], [-114.5858, 40.7117]]], [[[-114.5664, 40.719], [-114.5677, 40.7242], [-114.5614, 40.723], [-114.5664, 40.719]]], [[[-114.306, 41.2314], [-114.3081, 41.2262], [-114.303, 41.2248], [-114.3032, 41.2215], [-114.3095, 41.2207], [-114.3145, 41.2237], [-114.3285, 41.2252], [-114.3476, 41.2086], [-114.3657, 41.2099], [-114.3568, 41.2147], [-114.3453, 41.2154], [-114.3362, 41.226], [-114.3196, 41.2368], [-114.3131, 41.2354], [-114.3142, 41.2329], [-114.306, 41.2314]]], [[[-114.3173, 41.2379], [-114.3061, 41.2433], [-114.3058, 41.2363], [-114.3173, 41.2379]]], [[[-114.3171, 41.3081], [-114.3199, 41.3055], [-114.3102, 41.3043], [-114.3138, 41.3006], [-114.3177, 41.3], [-114.3153, 41.2974], [-114.3239, 41.2947], [-114.3225, 41.2927], [-114.3172, 41.2939], [-114.3115, 41.2914], [-114.3115, 41.2889], [-114.3232, 41.2762], [-114.3319, 41.2745], [-114.3333, 41.2759], [-114.3436, 41.2626], [-114.353, 41.2591], [-114.3763, 41.2602], [-114.3867, 41.2662], [-114.3895, 41.2648], [-114.3927, 41.2669], [-114.3989, 41.26], [-114.3971, 41.2577], [-114.399, 41.2544], [-114.3992, 41.2659], [-114.3937, 41.2755], [-114.3847, 41.2829], [-114.3873, 41.2886], [-114.3765, 41.2881], [-114.3624, 41.2918], [-114.3529, 41.3036], [-114.3388, 41.3151], [-114.3158, 41.3117], [-114.3195, 41.31], [-114.3171, 41.3081]]], [[[-114.2456, 36.2953], [-114.2394, 36.3089], [-114.2352, 36.3057], [-114.2365, 36.2932], [-114.244, 36.2791], [-114.2474, 36.2787], [-114.2456, 36.2953]]], [[[-114.2281, 36.3322], [-114.2211, 36.3296], [-114.2172, 36.3237], [-114.2195, 36.3161], [-114.2241, 36.3257], [-114.2361, 36.3325], [-114.2381, 36.3359], [-114.2405, 36.3475], [-114.2324, 36.3459], [-114.2281, 36.3322]]], [[[-114.1098, 36.4059], [-114.1217, 36.3912], [-114.1282, 36.37], [-114.126, 36.3686], [-114.1318, 36.3541], [-114.1359, 36.3501], [-114.1439, 36.3509], [-114.1406, 36.3758], [-114.1282, 36.4039], [-114.1325, 36.4094], [-114.1321, 36.4129], [-114.1381, 36.4168], [-114.1215, 36.4196], [-114.1155, 36.411], [-114.1098, 36.4059]]], [[[-114.2416, 36.3777], [-114.2464, 36.3713], [-114.2372, 36.3928], [-114.2349, 36.4097], [-114.2329, 36.4101], [-114.2295, 36.4086], [-114.2249, 36.3987], [-114.2276, 36.397], [-114.2252, 36.3931], [-114.2318, 36.389], [-114.232, 36.3845], [-114.2416, 36.3777]]], [[[-114.176, 36.3983], [-114.1663, 36.4017], [-114.1721, 36.3957], [-114.1737, 36.3863], [-114.1811, 36.3841], [-114.176, 36.3983]]], [[[-114.0645, 36.456], [-114.0633, 36.4576], [-114.0545, 36.4517], [-114.0589, 36.4501], [-114.0645, 36.456]]], [[[-114.2422, 36.4265], [-114.253, 36.4461], [-114.2567, 36.4409], [-114.2668, 36.4366], [-114.2694, 36.4282], [-114.273, 36.4305], [-114.2723, 36.4369], [-114.276, 36.4451], [-114.2679, 36.448], [-114.2631, 36.4403], [-114.2607, 36.44], [-114.2594, 36.4502], [-114.2564, 36.4508], [-114.2624, 36.4539], [-114.2686, 36.4526], [-114.2666, 36.4579], [-114.2576, 36.4605], [-114.2356, 36.4812], [-114.2314, 36.4826], [-114.2288, 36.4799], [-114.2355, 36.4714], [-114.2305, 36.4589], [-114.2338, 36.4423], [-114.2422, 36.4265]]], [[[-114.2027, 36.4902], [-114.2113, 36.4882], [-114.2087, 36.4969], [-114.1959, 36.4992], [-114.2027, 36.4902]]], [[[-114.0784, 36.5205], [-114.0787, 36.5188], [-114.0889, 36.5178], [-114.1074, 36.5232], [-114.1085, 36.5259], [-114.1044, 36.5287], [-114.1044, 36.5264], [-114.0784, 36.5205]]], [[[-114.0545, 36.5293], [-114.0511, 36.5274], [-114.0563, 36.5264], [-114.0565, 36.5299], [-114.0545, 36.5293]]], [[[-114.1689, 36.5392], [-114.1642, 36.5424], [-114.1548, 36.539], [-114.1541, 36.5348], [-114.158, 36.5319], [-114.1689, 36.5392]]], [[[-114.0998, 36.68], [-114.0972, 36.6762], [-114.0987, 36.675], [-114.1033, 36.6763], [-114.0998, 36.68]]], [[[-114.2739, 36.8418], [-114.2719, 36.8471], [-114.2644, 36.8415], [-114.2632, 36.832], [-114.2662, 36.8321], [-114.2739, 36.8418]]], [[[-114.281, 36.8828], [-114.2803, 36.8814], [-114.2894, 36.8781], [-114.281, 36.8828]]], [[[-114.2381, 37.0843], [-114.2194, 37.0719], [-114.2134, 37.0644], [-114.2056, 37.064], [-114.1766, 37.051], [-114.1724, 37.0396], [-114.1726, 37.0327], [-114.1779, 37.0281], [-114.1806, 37.0162], [-114.1839, 37.0145], [-114.1888, 37.0178], [-114.1907, 37.0139], [-114.1907, 37.0209], [-114.1851, 37.0366], [-114.1864, 37.0433], [-114.1887, 37.0434], [-114.1906, 37.038], [-114.1931, 37.0373], [-114.1963, 37.0458], [-114.2063, 37.0498], [-114.2094, 37.0593], [-114.2127, 37.059], [-114.211, 37.0528], [-114.2244, 37.062], [-114.2169, 37.0505], [-114.2085, 37.0431], [-114.2069, 37.036], [-114.2043, 37.0186], [-114.2064, 37.0164], [-114.2069, 37.0024], [-114.2119, 36.9938], [-114.213, 37.0012], [-114.2106, 37.0078], [-114.214, 37.0067], [-114.2189, 36.9981], [-114.222, 37.0041], [-114.2141, 37.0262], [-114.2178, 37.0373], [-114.2235, 37.0451], [-114.2262, 37.0393], [-114.2186, 37.0324], [-114.217, 37.0277], [-114.2272, 37.004], [-114.2303, 37.003], [-114.2264, 37.0227], [-114.2325, 37.0442], [-114.2406, 37.0565], [-114.2419, 37.0921], [-114.2283, 37.0843], [-114.2288, 37.0826], [-114.2381, 37.0843]]], [[[-114.2712, 37.0651], [-114.2647, 37.0554], [-114.2619, 37.0583], [-114.2563, 37.0538], [-114.2538, 37.0487], [-114.2626, 37.0454], [-114.257, 37.0359], [-114.261, 37.0362], [-114.2655, 37.0443], [-114.2636, 37.0346], [-114.274, 37.0398], [-114.2717, 37.047], [-114.2844, 37.0585], [-114.2836, 37.0636], [-114.2866, 37.0686], [-114.2813, 37.0678], [-114.2818, 37.0729], [-114.2747, 37.0696], [-114.2749, 37.0657], [-114.2712, 37.0651]]], [[[-114.1753, 37.056], [-114.1836, 37.0594], [-114.1838, 37.0617], [-114.173, 37.0593], [-114.165, 37.0537], [-114.1654, 37.0469], [-114.1707, 37.049], [-114.1753, 37.056]]], [[[-114.2885, 37.0595], [-114.2914, 37.0582], [-114.2951, 37.0647], [-114.2886, 37.0648], [-114.2873, 37.0629], [-114.2898, 37.0621], [-114.2885, 37.0595]]], [[[-114.2665, 37.0759], [-114.2627, 37.0761], [-114.2625, 37.0624], [-114.2644, 37.0695], [-114.2761, 37.0814], [-114.2607, 37.0844], [-114.2673, 37.0782], [-114.2665, 37.0759]]], [[[-114.2257, 37.1385], [-114.23, 37.1412], [-114.2041, 37.1479], [-114.2133, 37.1413], [-114.2257, 37.1385]]], [[[-114.2246, 37.153], [-114.2189, 37.1529], [-114.219, 37.1475], [-114.2251, 37.1471], [-114.2246, 37.153]]], [[[-114.1345, 37.171], [-114.1305, 37.1674], [-114.1378, 37.1645], [-114.1516, 37.1653], [-114.158, 37.1615], [-114.1574, 37.1595], [-114.1664, 37.1589], [-114.1764, 37.1532], [-114.1916, 37.1523], [-114.2075, 37.1477], [-114.2127, 37.15], [-114.2021, 37.1558], [-114.1981, 37.1612], [-114.1969, 37.1563], [-114.1843, 37.1568], [-114.1766, 37.1594], [-114.1762, 37.166], [-114.1684, 37.1617], [-114.1528, 37.1704], [-114.1473, 37.1706], [-114.14, 37.1669], [-114.1345, 37.171]], [[-114.2009, 37.1543], [-114.2028, 37.1524], [-114.1971, 37.1523], [-114.196, 37.1539], [-114.2009, 37.1543]]], [[[-114.146, 37.1818], [-114.1426, 37.182], [-114.1429, 37.1839], [-114.1534, 37.1877], [-114.1405, 37.1865], [-114.1426, 37.1801], [-114.1472, 37.1771], [-114.1472, 37.1743], [-114.1568, 37.1822], [-114.1735, 37.1819], [-114.179, 37.1861], [-114.1789, 37.189], [-114.1719, 37.1915], [-114.1696, 37.1904], [-114.1712, 37.1872], [-114.1619, 37.1833], [-114.1634, 37.1929], [-114.1574, 37.1942], [-114.1609, 37.1883], [-114.146, 37.1818]]], [[[-114.1707, 37.1971], [-114.1651, 37.1985], [-114.1634, 37.1929], [-114.1694, 37.194], [-114.1707, 37.1971]]], [[[-114.1471, 37.2599], [-114.1536, 37.2563], [-114.164, 37.2545], [-114.1639, 37.2503], [-114.178, 37.259], [-114.1745, 37.2676], [-114.1699, 37.2647], [-114.1628, 37.2648], [-114.1471, 37.2599]]], [[[-114.0794, 37.2885], [-114.079, 37.2747], [-114.0746, 37.2688], [-114.0738, 37.263], [-114.0768, 37.2615], [-114.0865, 37.2644], [-114.093, 37.2635], [-114.0968, 37.2682], [-114.0983, 37.2556], [-114.1126, 37.2793], [-114.1168, 37.2796], [-114.1213, 37.2751], [-114.1232, 37.2687], [-114.128, 37.266], [-114.1286, 37.2614], [-114.1089, 37.2537], [-114.1103, 37.2506], [-114.1267, 37.2474], [-114.1355, 37.2532], [-114.1411, 37.2508], [-114.1435, 37.2574], [-114.1408, 37.257], [-114.133, 37.2617], [-114.1364, 37.2682], [-114.1318, 37.2785], [-114.1249, 37.2782], [-114.1226, 37.286], [-114.1166, 37.2846], [-114.1167, 37.2871], [-114.1215, 37.2882], [-114.1139, 37.2896], [-114.1143, 37.2928], [-114.1091, 37.2929], [-114.1118, 37.2993], [-114.1071, 37.3046], [-114.0965, 37.2998], [-114.0962, 37.3055], [-114.0892, 37.301], [-114.0794, 37.2885]], [[-114.1061, 37.2818], [-114.1049, 37.2795], [-114.0852, 37.2762], [-114.0836, 37.2784], [-114.0877, 37.2888], [-114.1061, 37.2818]], [[-114.0995, 37.2726], [-114.097, 37.2746], [-114.1033, 37.2763], [-114.1038, 37.2739], [-114.0995, 37.2726]]], [[[-114.0631, 37.2782], [-114.0672, 37.2781], [-114.0733, 37.2906], [-114.0775, 37.2924], [-114.0806, 37.3014], [-114.0634, 37.2959], [-114.0687, 37.2881], [-114.0631, 37.2782]]], [[[-114.094, 37.3096], [-114.0933, 37.3183], [-114.0892, 37.321], [-114.0805, 37.3172], [-114.086, 37.3002], [-114.094, 37.3096]]], [[[-114.0994, 37.3264], [-114.0993, 37.329], [-114.0902, 37.3375], [-114.0852, 37.3323], [-114.0876, 37.3269], [-114.0994, 37.3264]]], [[[-114.0848, 37.3379], [-114.0765, 37.3377], [-114.0768, 37.3355], [-114.0826, 37.3345], [-114.0848, 37.3379]]], [[[-114.1916, 40.419], [-114.1951, 40.4172], [-114.1946, 40.4212], [-114.1916, 40.4234], [-114.1916, 40.419]]], [[[-114.2152, 40.4423], [-114.2113, 40.4393], [-114.2096, 40.4326], [-114.218, 40.4418], [-114.2152, 40.4423]]], [[[-114.0554, 41.5322], [-114.0584, 41.5322], [-114.0601, 41.5372], [-114.0554, 41.5322]]], [[[-114.0591, 41.5497], [-114.0561, 41.5512], [-114.0511, 41.5472], [-114.0542, 41.5426], [-114.0507, 41.5416], [-114.0535, 41.5379], [-114.0583, 41.543], [-114.0591, 41.5497]]], [[[-114.088, 41.5444], [-114.0899, 41.5424], [-114.0986, 41.5465], [-114.09, 41.5463], [-114.088, 41.5444]]], [[[-114.0602, 41.5406], [-114.0627, 41.5397], [-114.0766, 41.5464], [-114.0778, 41.5496], [-114.0826, 41.5489], [-114.0814, 41.5513], [-114.0728, 41.5561], [-114.0602, 41.5406]]], [[[-114.0934, 41.5522], [-114.0882, 41.5475], [-114.0933, 41.5485], [-114.0977, 41.5487], [-114.0934, 41.5522]]], [[[-114.0988, 41.57], [-114.0957, 41.5709], [-114.0945, 41.5703], [-114.0975, 41.5658], [-114.0988, 41.57]]], [[[-114.086, 41.6199], [-114.0799, 41.6165], [-114.0787, 41.6198], [-114.0772, 41.6072], [-114.075, 41.6203], [-114.0727, 41.6231], [-114.0667, 41.6231], [-114.0676, 41.6121], [-114.0595, 41.6066], [-114.0625, 41.6002], [-114.0594, 41.5983], [-114.0667, 41.5915], [-114.0722, 41.593], [-114.0711, 41.5889], [-114.0778, 41.594], [-114.0862, 41.5959], [-114.0932, 41.5904], [-114.0955, 41.5928], [-114.0947, 41.5979], [-114.0982, 41.5978], [-114.1, 41.5946], [-114.0947, 41.5891], [-114.0962, 41.5822], [-114.1089, 41.5869], [-114.106, 41.5702], [-114.1198, 41.5806], [-114.124, 41.5691], [-114.1294, 41.5637], [-114.1404, 41.5618], [-114.1473, 41.5532], [-114.151, 41.5538], [-114.1532, 41.5591], [-114.1509, 41.565], [-114.1447, 41.5691], [-114.1494, 41.5728], [-114.1465, 41.5743], [-114.1514, 41.5742], [-114.148, 41.5856], [-114.1419, 41.5895], [-114.1321, 41.5894], [-114.1366, 41.5956], [-114.1276, 41.5943], [-114.1288, 41.598], [-114.1265, 41.6019], [-114.1175, 41.6081], [-114.1238, 41.6082], [-114.1221, 41.6116], [-114.1243, 41.6142], [-114.1334, 41.6029], [-114.1459, 41.5952], [-114.1506, 41.5986], [-114.1452, 41.5995], [-114.1433, 41.6031], [-114.1353, 41.6043], [-114.1263, 41.6177], [-114.1032, 41.6255], [-114.101, 41.6173], [-114.0954, 41.6134], [-114.086, 41.6199]], [[-114.1187, 41.6132], [-114.1179, 41.6092], [-114.1151, 41.6088], [-114.1107, 41.6115], [-114.11, 41.6163], [-114.1187, 41.6132]], [[-114.1018, 41.6051], [-114.0981, 41.5992], [-114.098, 41.61], [-114.107, 41.61], [-114.1018, 41.6051]], [[-114.0788, 41.6025], [-114.0829, 41.6043], [-114.0823, 41.6092], [-114.0871, 41.6036], [-114.0852, 41.5994], [-114.0788, 41.6025]], [[-114.1088, 41.6006], [-114.1093, 41.6051], [-114.1139, 41.6075], [-114.1135, 41.6026], [-114.1088, 41.6006]]], [[[-114.0974, 41.9438], [-114.0963, 41.949], [-114.0899, 41.948], [-114.0903, 41.9437], [-114.0935, 41.9416], [-114.0974, 41.9438]]], [[[-114.1129, 41.9811], [-114.1024, 41.9792], [-114.1042, 41.9767], [-114.1144, 41.9787], [-114.1165, 41.9708], [-114.1122, 41.9697], [-114.108, 41.9635], [-114.1041, 41.97], [-114.1039, 41.9635], [-114.1004, 41.9618], [-114.1038, 41.9586], [-114.1076, 41.9621], [-114.1177, 41.9457], [-114.1159, 41.9392], [-114.1201, 41.9342], [-114.1155, 41.93], [-114.1173, 41.9268], [-114.1145, 41.9191], [-114.1174, 41.9189], [-114.1183, 41.9147], [-114.1274, 41.9249], [-114.1284, 41.9322], [-114.1457, 41.9376], [-114.1533, 41.936], [-114.1578, 41.9399], [-114.1647, 41.9538], [-114.1695, 41.9744], [-114.175, 41.9805], [-114.1767, 41.9928], [-114.1762, 41.9942], [-114.1178, 41.9941], [-114.1167, 41.987], [-114.1138, 41.9881], [-114.1129, 41.9811]], [[-114.1246, 41.9386], [-114.1285, 41.9388], [-114.1299, 41.9367], [-114.1232, 41.9303], [-114.1246, 41.9386]]]]}}]}