{
"type": "FeatureCollection",
"name": "paleowave_v2_top50",
"crs": { "type": "name", "properties": { "name": "urn:ogc:def:crs:OGC:1.3:CRS84" } },
"features": [
{ "type": "Feature", "properties": { "rank": 43, "latitude": 40.822777778066126, "longitude": -117.69694444407966, "ml_probability": 0.78989953, "on_triassic": false, "dist_to_triassic_m": 1309, "formation_code": "TRc", "formation_name": "Limestone, minor amounts of dolomite, shale, and sandstone; locally thick conglomerate units", "rock_type": "limestone", "geo_bonus": 0.1, "composite_score": 0.8899, "priority": 6, "elevation_m": 1713.047607421875, "slope_deg": 34.031486511230469, "aspect_deg": 84.72515869140625, "tri": 0.3592529296875, "tpi_15m": -27.21435546875, "tpi_adj": 0.1, "composite_v2": 0.9899, "rank_v2": 1, "rank_v1": 6, "rank_delta": 5 }, "geometry": { "type": "Point", "coordinates": [ -117.696944444079662, 40.822777778066126 ] } },
{ "type": "Feature", "properties": { "rank": 6, "latitude": 40.418888888379918, "longitude": -117.70444444408771, "ml_probability": 0.83046496, "on_triassic": false, "dist_to_triassic_m": 3338, "formation_code": "TRc", "formation_name": "Limestone, minor amounts of dolomite, shale, and sandstone; locally thick conglomerate units", "rock_type": "limestone", "geo_bonus": 0.05, "composite_score": 0.8805, "priority": 7, "elevation_m": 1557.119873046875, "slope_deg": 10.555048942565918, "aspect_deg": 85.250831604003906, "tri": 0.01953125, "tpi_15m": -15.5771484375, "tpi_adj": 0.1, "composite_v2": 0.9805, "rank_v2": 2, "rank_v1": 7, "rank_delta": 5 }, "geometry": { "type": "Point", "coordinates": [ -117.704444444087713, 40.418888888379918 ] } },
{ "type": "Feature", "properties": { "rank": 1, "latitude": 40.787222222440377, "longitude": -117.45638888826534, "ml_probability": 0.85334641, "on_triassic": false, "dist_to_triassic_m": 13040, "formation_code": "TRc", "formation_name": "Limestone, minor amounts of dolomite, shale, and sandstone; locally thick conglomerate units", "rock_type": "limestone", "geo_bonus": 0.0, "composite_score": 0.8533, "priority": 8, "elevation_m": 1426.6485595703125, "slope_deg": 10.055235862731934, "aspect_deg": 88.049674987792969, "tri": 0.0296630859375, "tpi_15m": -65.361328125, "tpi_adj": 0.1, "composite_v2": 0.9533, "rank_v2": 3, "rank_v1": 8, "rank_delta": 5 }, "geometry": { "type": "Point", "coordinates": [ -117.456388888265337, 40.787222222440377 ] } },
{ "type": "Feature", "properties": { "rank": 15, "latitude": 40.404722221685283, "longitude": -118.24388888911248, "ml_probability": 0.80045837, "on_triassic": false, "dist_to_triassic_m": 52, "formation_code": "TRc", "formation_name": "Limestone, minor amounts of dolomite, shale, and sandstone; locally thick conglomerate units", "rock_type": "limestone", "geo_bonus": 0.2, "composite_score": 1.0, "priority": 1, "elevation_m": 1731.5267333984375, "slope_deg": 34.988155364990234, "aspect_deg": 84.49395751953125, "tri": 0.0784912109375, "tpi_15m": 125.2650146484375, "tpi_adj": -0.05, "composite_v2": 0.95, "rank_v2": 4, "rank_v1": 1, "rank_delta": -3 }, "geometry": { "type": "Point", "coordinates": [ -118.243888889112483, 40.404722221685283 ] } },
{ "type": "Feature", "properties": { "rank": 35, "latitude": 40.265277776965561, "longitude": -117.47972222162376, "ml_probability": 0.79251772, "on_triassic": false, "dist_to_triassic_m": 4157, "formation_code": "TRc", "formation_name": "Limestone, minor amounts of dolomite, shale, and sandstone; locally thick conglomerate units", "rock_type": "limestone", "geo_bonus": 0.05, "composite_score": 0.8425, "priority": 13, "elevation_m": 1473.40576171875, "slope_deg": 10.237759590148926, "aspect_deg": 84.573410034179688, "tri": 0.04736328125, "tpi_15m": -14.74853515625, "tpi_adj": 0.1, "composite_v2": 0.9425, "rank_v2": 5, "rank_v1": 13, "rank_delta": 8 }, "geometry": { "type": "Point", "coordinates": [ -117.47972222162376, 40.265277776965561 ] } },
{ "type": "Feature", "properties": { "rank": 17, "latitude": 40.113055554442838, "longitude": -117.20249999910334, "ml_probability": 0.79911894, "on_triassic": false, "dist_to_triassic_m": 4801, "formation_code": "TRc", "formation_name": "Limestone, minor amounts of dolomite, shale, and sandstone; locally thick conglomerate units", "rock_type": "limestone", "geo_bonus": 0.05, "composite_score": 0.8491, "priority": 10, "elevation_m": 1510.1595458984375, "slope_deg": 10.820047378540039, "aspect_deg": 86.05303955078125, "tri": 0.0738525390625, "tpi_15m": -4.466552734375, "tpi_adj": 0.05, "composite_v2": 0.8991, "rank_v2": 6, "rank_v1": 10, "rank_delta": 4 }, "geometry": { "type": "Point", "coordinates": [ -117.202499999103338, 40.113055554442838 ] } },
{ "type": "Feature", "properties": { "rank": 19, "latitude": 40.799722222465057, "longitude": -118.14027777788991, "ml_probability": 0.79732817, "on_triassic": false, "dist_to_triassic_m": 14464, "formation_code": "TRc", "formation_name": "Limestone, minor amounts of dolomite, shale, and sandstone; locally thick conglomerate units", "rock_type": "limestone", "geo_bonus": 0.0, "composite_score": 0.7973, "priority": 28, "elevation_m": 1583.483642578125, "slope_deg": 10.878848075866699, "aspect_deg": 87.122856140136719, "tri": 0.07275390625, "tpi_15m": -31.963134765625, "tpi_adj": 0.1, "composite_v2": 0.8973, "rank_v2": 7, "rank_v1": 28, "rank_delta": 21 }, "geometry": { "type": "Point", "coordinates": [ -118.140277777889906, 40.799722222465057 ] } },
{ "type": "Feature", "properties": { "rank": 24, "latitude": 40.095555554408293, "longitude": -117.24555555470521, "ml_probability": 0.79563963, "on_triassic": false, "dist_to_triassic_m": 7060, "formation_code": "TRc", "formation_name": "Limestone, minor amounts of dolomite, shale, and sandstone; locally thick conglomerate units", "rock_type": "limestone", "geo_bonus": 0.0, "composite_score": 0.7956, "priority": 32, "elevation_m": 1538.3585205078125, "slope_deg": 10.674291610717773, "aspect_deg": 86.866523742675781, "tri": 0.03662109375, "tpi_15m": -22.9644775390625, "tpi_adj": 0.1, "composite_v2": 0.8956, "rank_v2": 8, "rank_v1": 32, "rank_delta": 24 }, "geometry": { "type": "Point", "coordinates": [ -117.245555554705206, 40.095555554408293 ] } },
{ "type": "Feature", "properties": { "rank": 24, "latitude": 40.095555554408293, "longitude": -117.24555555470521, "ml_probability": 0.79563963, "on_triassic": false, "dist_to_triassic_m": 7060, "formation_code": "TRc", "formation_name": "Limestone, minor amounts of dolomite, shale, and sandstone; locally thick conglomerate units", "rock_type": "limestone", "geo_bonus": 0.0, "composite_score": 0.7956, "priority": 32, "elevation_m": 1734.42236328125, "slope_deg": 10.849762916564941, "aspect_deg": 85.934364318847656, "tri": 0.08984375, "tpi_15m": -37.7158203125, "tpi_adj": 0.1, "composite_v2": 0.8956, "rank_v2": 8, "rank_v1": 32, "rank_delta": 24 }, "geometry": { "type": "Point", "coordinates": [ -117.245555554705206, 40.095555554408293 ] } },
{ "type": "Feature", "properties": { "rank": 27, "latitude": 40.209166665743687, "longitude": -117.58777777729556, "ml_probability": 0.7951619, "on_triassic": false, "dist_to_triassic_m": 992, "formation_code": "TRc", "formation_name": "Limestone, minor amounts of dolomite, shale, and sandstone; locally thick conglomerate units", "rock_type": "limestone", "geo_bonus": 0.1, "composite_score": 0.8952, "priority": 2, "elevation_m": 1732.699951171875, "slope_deg": 34.197216033935547, "aspect_deg": 84.675941467285156, "tri": 0.163818359375, "tpi_15m": -1.3453369140625, "tpi_adj": 0.0, "composite_v2": 0.8952, "rank_v2": 10, "rank_v1": 2, "rank_delta": -8 }, "geometry": { "type": "Point", "coordinates": [ -117.587777777295557, 40.209166665743687 ] } },
{ "type": "Feature", "properties": { "rank": 31, "latitude": 40.3719444438428, "longitude": -117.57694444395058, "ml_probability": 0.7937991, "on_triassic": false, "dist_to_triassic_m": 6488, "formation_code": "TRc", "formation_name": "Limestone, minor amounts of dolomite, shale, and sandstone; locally thick conglomerate units", "rock_type": "limestone", "geo_bonus": 0.0, "composite_score": 0.7938, "priority": 37, "elevation_m": 1702.19580078125, "slope_deg": 34.989402770996094, "aspect_deg": 24.466934204101562, "tri": 0.06005859375, "tpi_15m": -117.9000244140625, "tpi_adj": 0.1, "composite_v2": 0.8938, "rank_v2": 11, "rank_v1": 37, "rank_delta": 26 }, "geometry": { "type": "Point", "coordinates": [ -117.57694444395058, 40.3719444438428 ] } },
{ "type": "Feature", "properties": { "rank": 34, "latitude": 40.113055554442838, "longitude": -117.20277777688142, "ml_probability": 0.79283285, "on_triassic": false, "dist_to_triassic_m": 4817, "formation_code": "TRc", "formation_name": "Limestone, minor amounts of dolomite, shale, and sandstone; locally thick conglomerate units", "rock_type": "limestone", "geo_bonus": 0.05, "composite_score": 0.8428, "priority": 12, "elevation_m": 1509.853515625, "slope_deg": 10.823575973510742, "aspect_deg": 87.708854675292969, "tri": 0.128662109375, "tpi_15m": -5.564697265625, "tpi_adj": 0.05, "composite_v2": 0.8928, "rank_v2": 12, "rank_v1": 12, "rank_delta": 0 }, "geometry": { "type": "Point", "coordinates": [ -117.202777776881419, 40.113055554442838 ] } },
{ "type": "Feature", "properties": { "rank": 40, "latitude": 40.371666666064478, "longitude": -117.57694444395058, "ml_probability": 0.79112983, "on_triassic": false, "dist_to_triassic_m": 6462, "formation_code": "TRc", "formation_name": "Limestone, minor amounts of dolomite, shale, and sandstone; locally thick conglomerate units", "rock_type": "limestone", "geo_bonus": 0.0, "composite_score": 0.7911, "priority": 42, "elevation_m": 1695.0157470703125, "slope_deg": 34.297454833984375, "aspect_deg": 26.41851806640625, "tri": 0.073974609375, "tpi_15m": -125.5848388671875, "tpi_adj": 0.1, "composite_v2": 0.8911, "rank_v2": 13, "rank_v1": 42, "rank_delta": 29 }, "geometry": { "type": "Point", "coordinates": [ -117.57694444395058, 40.371666666064478 ] } },
{ "type": "Feature", "properties": { "rank": 41, "latitude": 40.740555555681588, "longitude": -117.6313888884536, "ml_probability": 0.79059702, "on_triassic": false, "dist_to_triassic_m": 9897, "formation_code": "TRc", "formation_name": "Limestone, minor amounts of dolomite, shale, and sandstone; locally thick conglomerate units", "rock_type": "limestone", "geo_bonus": 0.0, "composite_score": 0.7906, "priority": 43, "elevation_m": 1677.745849609375, "slope_deg": 33.613262176513672, "aspect_deg": 84.108489990234375, "tri": 0.2755126953125, "tpi_15m": -113.09228515625, "tpi_adj": 0.1, "composite_v2": 0.8906, "rank_v2": 14, "rank_v1": 43, "rank_delta": 29 }, "geometry": { "type": "Point", "coordinates": [ -117.6313888884536, 40.740555555681588 ] } },
{ "type": "Feature", "properties": { "rank": 49, "latitude": 40.795833333568488, "longitude": -117.4591666660461, "ml_probability": 0.78878969, "on_triassic": false, "dist_to_triassic_m": 14024, "formation_code": "TRc", "formation_name": "Limestone, minor amounts of dolomite, shale, and sandstone; locally thick conglomerate units", "rock_type": "limestone", "geo_bonus": 0.0, "composite_score": 0.7888, "priority": 49, "elevation_m": 1669.3021240234375, "slope_deg": 35.257266998291016, "aspect_deg": 29.853187561035156, "tri": 0.903076171875, "tpi_15m": -44.6683349609375, "tpi_adj": 0.1, "composite_v2": 0.8888, "rank_v2": 15, "rank_v1": 49, "rank_delta": 34 }, "geometry": { "type": "Point", "coordinates": [ -117.459166666046102, 40.795833333568488 ] } },
{ "type": "Feature", "properties": { "rank": 2, "latitude": 40.907222222677269, "longitude": -118.46444444490528, "ml_probability": 0.85232025, "on_triassic": false, "dist_to_triassic_m": 41459, "formation_code": "TRc", "formation_name": "Limestone, minor amounts of dolomite, shale, and sandstone; locally thick conglomerate units", "rock_type": "limestone", "geo_bonus": 0.0, "composite_score": 0.8523, "priority": 9, "elevation_m": 1436.3778076171875, "slope_deg": 10.453691482543945, "aspect_deg": 85.310714721679688, "tri": 0.0855712890625, "tpi_15m": 0.89453125, "tpi_adj": 0.0, "composite_v2": 0.8523, "rank_v2": 16, "rank_v1": 9, "rank_delta": -7 }, "geometry": { "type": "Point", "coordinates": [ -118.464444444905283, 40.907222222677269 ] } },
{ "type": "Feature", "properties": { "rank": 28, "latitude": 40.55027777752818, "longitude": -118.23250000021132, "ml_probability": 0.7946049, "on_triassic": false, "dist_to_triassic_m": 1361, "formation_code": "TRc", "formation_name": "Limestone, minor amounts of dolomite, shale, and sandstone; locally thick conglomerate units", "rock_type": "limestone", "geo_bonus": 0.1, "composite_score": 0.8946, "priority": 3, "elevation_m": 1668.3492431640625, "slope_deg": 35.338726043701172, "aspect_deg": 84.819900512695312, "tri": 0.075439453125, "tpi_15m": 6.3199462890625, "tpi_adj": -0.05, "composite_v2": 0.8446, "rank_v2": 17, "rank_v1": 3, "rank_delta": -14 }, "geometry": { "type": "Point", "coordinates": [ -118.232500000211317, 40.55027777752818 ] } },
{ "type": "Feature", "properties": { "rank": 3, "latitude": 40.434444443966186, "longitude": -117.68666666629083, "ml_probability": 0.84231639, "on_triassic": false, "dist_to_triassic_m": 4781, "formation_code": "TRc", "formation_name": "Limestone, minor amounts of dolomite, shale, and sandstone; locally thick conglomerate units", "rock_type": "limestone", "geo_bonus": 0.05, "composite_score": 0.8923, "priority": 4, "elevation_m": 1536.197265625, "slope_deg": 10.14393138885498, "aspect_deg": 85.832984924316406, "tri": 0.036376953125, "tpi_15m": 6.7947998046875, "tpi_adj": -0.05, "composite_v2": 0.8423, "rank_v2": 18, "rank_v1": 4, "rank_delta": -14 }, "geometry": { "type": "Point", "coordinates": [ -117.686666666290833, 40.434444443966186 ] } },
{ "type": "Feature", "properties": { "rank": 37, "latitude": 40.839722222544019, "longitude": -117.72083333299425, "ml_probability": 0.79204267, "on_triassic": false, "dist_to_triassic_m": 1059, "formation_code": "TRc", "formation_name": "Limestone, minor amounts of dolomite, shale, and sandstone; locally thick conglomerate units", "rock_type": "limestone", "geo_bonus": 0.1, "composite_score": 0.892, "priority": 5, "elevation_m": 1696.8897705078125, "slope_deg": 33.599327087402344, "aspect_deg": 24.933223724365234, "tri": 0.154541015625, "tpi_15m": 93.7452392578125, "tpi_adj": -0.05, "composite_v2": 0.842, "rank_v2": 19, "rank_v1": 5, "rank_delta": -14 }, "geometry": { "type": "Point", "coordinates": [ -117.720833332994246, 40.839722222544019 ] } },
{ "type": "Feature", "properties": { "rank": 4, "latitude": 39.159166663670881, "longitude": -118.86083333422056, "ml_probability": 0.83943707, "on_triassic": false, "dist_to_triassic_m": 124118, "formation_code": "TRc", "formation_name": "Limestone, minor amounts of dolomite, shale, and sandstone; locally thick conglomerate units", "rock_type": "limestone", "geo_bonus": 0.0, "composite_score": 0.8394, "priority": 15, "elevation_m": 1524.565185546875, "slope_deg": 10.615339279174805, "aspect_deg": 84.851417541503906, "tri": 0.090087890625, "tpi_15m": -14.1707763671875, "tpi_adj": 0.0, "composite_v2": 0.8394, "rank_v2": 20, "rank_v1": 15, "rank_delta": -5 }, "geometry": { "type": "Point", "coordinates": [ -118.860833334220558, 39.159166663670881 ] } },
{ "type": "Feature", "properties": { "rank": 50, "latitude": 40.406388888355245, "longitude": -117.70555555520004, "ml_probability": 0.78864872, "on_triassic": false, "dist_to_triassic_m": 2194, "formation_code": "TRc", "formation_name": "Limestone, minor amounts of dolomite, shale, and sandstone; locally thick conglomerate units", "rock_type": "limestone", "geo_bonus": 0.05, "composite_score": 0.8386, "priority": 16, "elevation_m": 1555.4888916015625, "slope_deg": 14.292210578918457, "aspect_deg": 85.68914794921875, "tri": 0.0523681640625, "tpi_15m": -2.7227783203125, "tpi_adj": 0.0, "composite_v2": 0.8386, "rank_v2": 21, "rank_v1": 16, "rank_delta": -5 }, "geometry": { "type": "Point", "coordinates": [ -117.705555555200036, 40.406388888355245 ] } },
{ "type": "Feature", "properties": { "rank": 5, "latitude": 38.458888884510685, "longitude": -118.39972222261343, "ml_probability": 0.83049053, "on_triassic": false, "dist_to_triassic_m": 148217, "formation_code": "TRc", "formation_name": "Limestone, minor amounts of dolomite, shale, and sandstone; locally thick conglomerate units", "rock_type": "limestone", "geo_bonus": 0.0, "composite_score": 0.8305, "priority": 17, "elevation_m": 1734.7410888671875, "slope_deg": 10.571502685546875, "aspect_deg": 85.675407409667969, "tri": 0.060302734375, "tpi_15m": -37.9306640625, "tpi_adj": 0.0, "composite_v2": 0.8305, "rank_v2": 22, "rank_v1": 17, "rank_delta": -5 }, "geometry": { "type": "Point", "coordinates": [ -118.399722222613434, 38.458888884510685 ] } },
{ "type": "Feature", "properties": { "rank": 8, "latitude": 39.02416666340438, "longitude": -118.77055555634568, "ml_probability": 0.82007194, "on_triassic": false, "dist_to_triassic_m": 126554, "formation_code": "TRc", "formation_name": "Limestone, minor amounts of dolomite, shale, and sandstone; locally thick conglomerate units", "rock_type": "limestone", "geo_bonus": 0.0, "composite_score": 0.8201, "priority": 19, "elevation_m": 1467.728759765625, "slope_deg": 10.557125091552734, "aspect_deg": 86.432952880859375, "tri": 0.0281982421875, "tpi_15m": 39.7261962890625, "tpi_adj": 0.0, "composite_v2": 0.8201, "rank_v2": 23, "rank_v1": 19, "rank_delta": -4 }, "geometry": { "type": "Point", "coordinates": [ -118.770555556345684, 39.02416666340438 ] } },
{ "type": "Feature", "properties": { "rank": 10, "latitude": 39.159166663670881, "longitude": -118.86111111199864, "ml_probability": 0.81427044, "on_triassic": false, "dist_to_triassic_m": 124134, "formation_code": "TRc", "formation_name": "Limestone, minor amounts of dolomite, shale, and sandstone; locally thick conglomerate units", "rock_type": "limestone", "geo_bonus": 0.0, "composite_score": 0.8143, "priority": 21, "elevation_m": 1524.159423828125, "slope_deg": 10.278964996337891, "aspect_deg": 83.514961242675781, "tri": 0.0157470703125, "tpi_15m": -13.7059326171875, "tpi_adj": 0.0, "composite_v2": 0.8143, "rank_v2": 24, "rank_v1": 21, "rank_delta": -3 }, "geometry": { "type": "Point", "coordinates": [ -118.861111111998639, 39.159166663670881 ] } },
{ "type": "Feature", "properties": { "rank": 11, "latitude": 40.776111111307337, "longitude": -118.51138888940022, "ml_probability": 0.81180894, "on_triassic": false, "dist_to_triassic_m": 33005, "formation_code": "TRc", "formation_name": "Limestone, minor amounts of dolomite, shale, and sandstone; locally thick conglomerate units", "rock_type": "limestone", "geo_bonus": 0.0, "composite_score": 0.8118, "priority": 22, "elevation_m": 1679.367431640625, "slope_deg": 10.229355812072754, "aspect_deg": 85.368476867675781, "tri": 0.104736328125, "tpi_15m": 9.2730712890625, "tpi_adj": 0.0, "composite_v2": 0.8118, "rank_v2": 25, "rank_v1": 22, "rank_delta": -3 }, "geometry": { "type": "Point", "coordinates": [ -118.511388889400223, 40.776111111307337 ] } },
{ "type": "Feature", "properties": { "rank": 12, "latitude": 38.701111107211077, "longitude": -118.78805555636453, "ml_probability": 0.80561513, "on_triassic": false, "dist_to_triassic_m": 149610, "formation_code": "TRc", "formation_name": "Limestone, minor amounts of dolomite, shale, and sandstone; locally thick conglomerate units", "rock_type": "limestone", "geo_bonus": 0.0, "composite_score": 0.8056, "priority": 23, "elevation_m": 1659.4794921875, "slope_deg": 34.942958831787109, "aspect_deg": 84.793472290039062, "tri": 0.0264892578125, "tpi_15m": 83.6199951171875, "tpi_adj": 0.0, "composite_v2": 0.8056, "rank_v2": 26, "rank_v1": 23, "rank_delta": -3 }, "geometry": { "type": "Point", "coordinates": [ -118.788055556364526, 38.701111107211077 ] } },
{ "type": "Feature", "properties": { "rank": 13, "latitude": 38.724722218368797, "longitude": -118.9436111120874, "ml_probability": 0.80345458, "on_triassic": false, "dist_to_triassic_m": 158109, "formation_code": "TRc", "formation_name": "Limestone, minor amounts of dolomite, shale, and sandstone; locally thick conglomerate units", "rock_type": "limestone", "geo_bonus": 0.0, "composite_score": 0.8035, "priority": 24, "elevation_m": 1553.3779296875, "slope_deg": 10.973362922668457, "aspect_deg": 86.481048583984375, "tri": 0.07958984375, "tpi_15m": 2.1385498046875, "tpi_adj": 0.0, "composite_v2": 0.8035, "rank_v2": 27, "rank_v1": 24, "rank_delta": -3 }, "geometry": { "type": "Point", "coordinates": [ -118.943611112087396, 38.724722218368797 ] } },
{ "type": "Feature", "properties": { "rank": 14, "latitude": 39.159166663670881, "longitude": -118.86055555644248, "ml_probability": 0.80088222, "on_triassic": false, "dist_to_triassic_m": 124101, "formation_code": "TRc", "formation_name": "Limestone, minor amounts of dolomite, shale, and sandstone; locally thick conglomerate units", "rock_type": "limestone", "geo_bonus": 0.0, "composite_score": 0.8009, "priority": 25, "elevation_m": 1525.0184326171875, "slope_deg": 10.867324829101562, "aspect_deg": 85.733367919921875, "tri": 0.041748046875, "tpi_15m": -14.58154296875, "tpi_adj": 0.0, "composite_v2": 0.8009, "rank_v2": 28, "rank_v1": 25, "rank_delta": -3 }, "geometry": { "type": "Point", "coordinates": [ -118.860555556442478, 39.159166663670881 ] } },
{ "type": "Feature", "properties": { "rank": 16, "latitude": 39.816388887190527, "longitude": -118.15750000013064, "ml_probability": 0.79985476, "on_triassic": false, "dist_to_triassic_m": 29976, "formation_code": "TRc", "formation_name": "Limestone, minor amounts of dolomite, shale, and sandstone; locally thick conglomerate units", "rock_type": "limestone", "geo_bonus": 0.0, "composite_score": 0.7999, "priority": 26, "elevation_m": 1690.9591064453125, "slope_deg": 34.695953369140625, "aspect_deg": 84.5772705078125, "tri": 0.172119140625, "tpi_15m": -117.78662109375, "tpi_adj": 0.0, "composite_v2": 0.7999, "rank_v2": 29, "rank_v1": 26, "rank_delta": -3 }, "geometry": { "type": "Point", "coordinates": [ -118.157500000130639, 39.816388887190527 ] } },
{ "type": "Feature", "properties": { "rank": 18, "latitude": 39.886111109550384, "longitude": -118.9233333342878, "ml_probability": 0.79886627, "on_triassic": false, "dist_to_triassic_m": 73098, "formation_code": "TRc", "formation_name": "Limestone, minor amounts of dolomite, shale, and sandstone; locally thick conglomerate units", "rock_type": "limestone", "geo_bonus": 0.0, "composite_score": 0.7989, "priority": 27, "elevation_m": 1405.7366943359375, "slope_deg": 10.515250205993652, "aspect_deg": 85.217498779296875, "tri": 0.0704345703125, "tpi_15m": -2.10302734375, "tpi_adj": 0.0, "composite_v2": 0.7989, "rank_v2": 30, "rank_v1": 27, "rank_delta": -3 }, "geometry": { "type": "Point", "coordinates": [ -118.923333334287804, 39.886111109550384 ] } },
{ "type": "Feature", "properties": { "rank": 20, "latitude": 39.183611108163582, "longitude": -118.8083333341641, "ml_probability": 0.79725087, "on_triassic": false, "dist_to_triassic_m": 119056, "formation_code": "TRc", "formation_name": "Limestone, minor amounts of dolomite, shale, and sandstone; locally thick conglomerate units", "rock_type": "limestone", "geo_bonus": 0.0, "composite_score": 0.7973, "priority": 28, "elevation_m": 1583.483642578125, "slope_deg": 10.878848075866699, "aspect_deg": 87.122856140136719, "tri": 0.07275390625, "tpi_15m": -31.963134765625, "tpi_adj": 0.0, "composite_v2": 0.7973, "rank_v2": 31, "rank_v1": 28, "rank_delta": -3 }, "geometry": { "type": "Point", "coordinates": [ -118.808333334164104, 39.183611108163582 ] } },
{ "type": "Feature", "properties": { "rank": 20, "latitude": 39.183611108163582, "longitude": -118.8083333341641, "ml_probability": 0.79725087, "on_triassic": false, "dist_to_triassic_m": 119056, "formation_code": "TRc", "formation_name": "Limestone, minor amounts of dolomite, shale, and sandstone; locally thick conglomerate units", "rock_type": "limestone", "geo_bonus": 0.0, "composite_score": 0.7973, "priority": 28, "elevation_m": 1685.1953125, "slope_deg": 33.605907440185547, "aspect_deg": 84.084197998046875, "tri": 0.18994140625, "tpi_15m": 28.83837890625, "tpi_adj": 0.0, "composite_v2": 0.7973, "rank_v2": 31, "rank_v1": 28, "rank_delta": -3 }, "geometry": { "type": "Point", "coordinates": [ -118.808333334164104, 39.183611108163582 ] } },
{ "type": "Feature", "properties": { "rank": 21, "latitude": 38.432222217791377, "longitude": -118.56666666723748, "ml_probability": 0.79610622, "on_triassic": false, "dist_to_triassic_m": 159055, "formation_code": "TRc", "formation_name": "Limestone, minor amounts of dolomite, shale, and sandstone; locally thick conglomerate units", "rock_type": "limestone", "geo_bonus": 0.0, "composite_score": 0.7961, "priority": 30, "elevation_m": 1693.790771484375, "slope_deg": 31.851604461669922, "aspect_deg": 84.382431030273438, "tri": 0.2392578125, "tpi_15m": 108.2032470703125, "tpi_adj": 0.0, "composite_v2": 0.7961, "rank_v2": 33, "rank_v1": 30, "rank_delta": -3 }, "geometry": { "type": "Point", "coordinates": [ -118.566666667237484, 38.432222217791377 ] } },
{ "type": "Feature", "properties": { "rank": 22, "latitude": 38.701388884989406, "longitude": -118.79138888970142, "ml_probability": 0.79598647, "on_triassic": false, "dist_to_triassic_m": 149801, "formation_code": "TRc", "formation_name": "Limestone, minor amounts of dolomite, shale, and sandstone; locally thick conglomerate units", "rock_type": "limestone", "geo_bonus": 0.0, "composite_score": 0.796, "priority": 31, "elevation_m": 1665.53564453125, "slope_deg": 34.884925842285156, "aspect_deg": 85.828117370605469, "tri": 0.09521484375, "tpi_15m": 54.306884765625, "tpi_adj": 0.0, "composite_v2": 0.796, "rank_v2": 34, "rank_v1": 31, "rank_delta": -3 }, "geometry": { "type": "Point", "coordinates": [ -118.791388889701423, 38.701388884989406 ] } },
{ "type": "Feature", "properties": { "rank": 23, "latitude": 40.139166665605501, "longitude": -117.47222222161572, "ml_probability": 0.79586679, "on_triassic": false, "dist_to_triassic_m": 3371, "formation_code": "TRc", "formation_name": "Limestone, minor amounts of dolomite, shale, and sandstone; locally thick conglomerate units", "rock_type": "limestone", "geo_bonus": 0.05, "composite_score": 0.8459, "priority": 11, "elevation_m": 1668.370361328125, "slope_deg": 34.156410217285156, "aspect_deg": 19.847578048706055, "tri": 0.766357421875, "tpi_15m": 39.7525634765625, "tpi_adj": -0.05, "composite_v2": 0.7959, "rank_v2": 35, "rank_v1": 11, "rank_delta": -24 }, "geometry": { "type": "Point", "coordinates": [ -117.472222221615723, 40.139166665605501 ] } },
{ "type": "Feature", "properties": { "rank": 25, "latitude": 38.458888884510685, "longitude": -118.40000000039151, "ml_probability": 0.79558283, "on_triassic": false, "dist_to_triassic_m": 148230, "formation_code": "TRc", "formation_name": "Limestone, minor amounts of dolomite, shale, and sandstone; locally thick conglomerate units", "rock_type": "limestone", "geo_bonus": 0.0, "composite_score": 0.7956, "priority": 32, "elevation_m": 1538.3585205078125, "slope_deg": 10.674291610717773, "aspect_deg": 86.866523742675781, "tri": 0.03662109375, "tpi_15m": -22.9644775390625, "tpi_adj": 0.0, "composite_v2": 0.7956, "rank_v2": 36, "rank_v1": 32, "rank_delta": -4 }, "geometry": { "type": "Point", "coordinates": [ -118.400000000391515, 38.458888884510685 ] } },
{ "type": "Feature", "properties": { "rank": 25, "latitude": 38.458888884510685, "longitude": -118.40000000039151, "ml_probability": 0.79558283, "on_triassic": false, "dist_to_triassic_m": 148230, "formation_code": "TRc", "formation_name": "Limestone, minor amounts of dolomite, shale, and sandstone; locally thick conglomerate units", "rock_type": "limestone", "geo_bonus": 0.0, "composite_score": 0.7956, "priority": 32, "elevation_m": 1734.42236328125, "slope_deg": 10.849762916564941, "aspect_deg": 85.934364318847656, "tri": 0.08984375, "tpi_15m": -37.7158203125, "tpi_adj": 0.0, "composite_v2": 0.7956, "rank_v2": 36, "rank_v1": 32, "rank_delta": -4 }, "geometry": { "type": "Point", "coordinates": [ -118.400000000391515, 38.458888884510685 ] } },
{ "type": "Feature", "properties": { "rank": 26, "latitude": 39.654722220204711, "longitude": -117.85888888869832, "ml_probability": 0.79540676, "on_triassic": false, "dist_to_triassic_m": 28718, "formation_code": "TRc", "formation_name": "Limestone, minor amounts of dolomite, shale, and sandstone; locally thick conglomerate units", "rock_type": "limestone", "geo_bonus": 0.0, "composite_score": 0.7954, "priority": 34, "elevation_m": 1696.8526611328125, "slope_deg": 35.709110260009766, "aspect_deg": 26.231584548950195, "tri": 0.8685302734375, "tpi_15m": -117.1907958984375, "tpi_adj": 0.0, "composite_v2": 0.7954, "rank_v2": 38, "rank_v1": 34, "rank_delta": -4 }, "geometry": { "type": "Point", "coordinates": [ -117.858888888698317, 39.654722220204711 ] } },
{ "type": "Feature", "properties": { "rank": 30, "latitude": 40.734444444558413, "longitude": -118.79111111192336, "ml_probability": 0.79397529, "on_triassic": false, "dist_to_triassic_m": 51578, "formation_code": "TRc", "formation_name": "Limestone, minor amounts of dolomite, shale, and sandstone; locally thick conglomerate units", "rock_type": "limestone", "geo_bonus": 0.0, "composite_score": 0.794, "priority": 35, "elevation_m": 1647.8858642578125, "slope_deg": 32.451145172119141, "aspect_deg": 85.388465881347656, "tri": 0.0484619140625, "tpi_15m": 22.1751708984375, "tpi_adj": 0.0, "composite_v2": 0.794, "rank_v2": 39, "rank_v1": 35, "rank_delta": -4 }, "geometry": { "type": "Point", "coordinates": [ -118.791111111923357, 40.734444444558413 ] } },
{ "type": "Feature", "properties": { "rank": 30, "latitude": 40.734444444558413, "longitude": -118.79111111192336, "ml_probability": 0.79397529, "on_triassic": false, "dist_to_triassic_m": 51578, "formation_code": "TRc", "formation_name": "Limestone, minor amounts of dolomite, shale, and sandstone; locally thick conglomerate units", "rock_type": "limestone", "geo_bonus": 0.0, "composite_score": 0.794, "priority": 35, "elevation_m": 1646.93212890625, "slope_deg": 34.398208618164062, "aspect_deg": 26.268331527709961, "tri": 0.716552734375, "tpi_15m": 66.98388671875, "tpi_adj": 0.0, "composite_v2": 0.794, "rank_v2": 39, "rank_v1": 35, "rank_delta": -4 }, "geometry": { "type": "Point", "coordinates": [ -118.791111111923357, 40.734444444558413 ] } },
{ "type": "Feature", "properties": { "rank": 32, "latitude": 39.182777774828601, "longitude": -118.53250000053404, "ml_probability": 0.79341787, "on_triassic": false, "dist_to_triassic_m": 99885, "formation_code": "TRc", "formation_name": "Limestone, minor amounts of dolomite, shale, and sandstone; locally thick conglomerate units", "rock_type": "limestone", "geo_bonus": 0.0, "composite_score": 0.7934, "priority": 38, "elevation_m": 1697.09033203125, "slope_deg": 35.637126922607422, "aspect_deg": 28.126432418823242, "tri": 0.1055908203125, "tpi_15m": 70.6500244140625, "tpi_adj": 0.0, "composite_v2": 0.7934, "rank_v2": 41, "rank_v1": 38, "rank_delta": -3 }, "geometry": { "type": "Point", "coordinates": [ -118.532500000534043, 39.182777774828601 ] } },
{ "type": "Feature", "properties": { "rank": 33, "latitude": 39.02388888562605, "longitude": -118.77166666745801, "ml_probability": 0.79313195, "on_triassic": false, "dist_to_triassic_m": 126652, "formation_code": "TRc", "formation_name": "Limestone, minor amounts of dolomite, shale, and sandstone; locally thick conglomerate units", "rock_type": "limestone", "geo_bonus": 0.0, "composite_score": 0.7931, "priority": 39, "elevation_m": 1462.1905517578125, "slope_deg": 10.484132766723633, "aspect_deg": 88.006614685058594, "tri": 0.0008544921875, "tpi_15m": 37.9893798828125, "tpi_adj": 0.0, "composite_v2": 0.7931, "rank_v2": 42, "rank_v1": 39, "rank_delta": -3 }, "geometry": { "type": "Point", "coordinates": [ -118.771666667458007, 39.02388888562605 ] } },
{ "type": "Feature", "properties": { "rank": 38, "latitude": 39.728055553682815, "longitude": -117.78694444417648, "ml_probability": 0.79169452, "on_triassic": false, "dist_to_triassic_m": 22199, "formation_code": "TRc", "formation_name": "Limestone, minor amounts of dolomite, shale, and sandstone; locally thick conglomerate units", "rock_type": "limestone", "geo_bonus": 0.0, "composite_score": 0.7917, "priority": 41, "elevation_m": 1666.850830078125, "slope_deg": 33.905731201171875, "aspect_deg": 23.660982131958008, "tri": 0.053955078125, "tpi_15m": -144.403076171875, "tpi_adj": 0.0, "composite_v2": 0.7917, "rank_v2": 43, "rank_v1": 41, "rank_delta": -2 }, "geometry": { "type": "Point", "coordinates": [ -117.786944444176484, 39.728055553682815 ] } },
{ "type": "Feature", "properties": { "rank": 39, "latitude": 40.401111110567037, "longitude": -117.2077777768868, "ml_probability": 0.79122305, "on_triassic": false, "dist_to_triassic_m": 2143, "formation_code": "TRc", "formation_name": "Limestone, minor amounts of dolomite, shale, and sandstone; locally thick conglomerate units", "rock_type": "limestone", "geo_bonus": 0.05, "composite_score": 0.8412, "priority": 14, "elevation_m": 1697.098388671875, "slope_deg": 35.160758972167969, "aspect_deg": 27.337032318115234, "tri": 0.5667724609375, "tpi_15m": 61.7457275390625, "tpi_adj": -0.05, "composite_v2": 0.7912, "rank_v2": 44, "rank_v1": 14, "rank_delta": -30 }, "geometry": { "type": "Point", "coordinates": [ -117.2077777768868, 40.401111110567037 ] } },
{ "type": "Feature", "properties": { "rank": 44, "latitude": 38.458888884510685, "longitude": -118.39944444483535, "ml_probability": 0.78983712, "on_triassic": false, "dist_to_triassic_m": 148203, "formation_code": "TRc", "formation_name": "Limestone, minor amounts of dolomite, shale, and sandstone; locally thick conglomerate units", "rock_type": "limestone", "geo_bonus": 0.0, "composite_score": 0.7898, "priority": 45, "elevation_m": 1735.0361328125, "slope_deg": 10.407114028930664, "aspect_deg": 87.724380493164062, "tri": 0.00830078125, "tpi_15m": -38.1685791015625, "tpi_adj": 0.0, "composite_v2": 0.7898, "rank_v2": 46, "rank_v1": 45, "rank_delta": -1 }, "geometry": { "type": "Point", "coordinates": [ -118.399444444835353, 38.458888884510685 ] } },
{ "type": "Feature", "properties": { "rank": 44, "latitude": 38.458888884510685, "longitude": -118.39944444483535, "ml_probability": 0.78983712, "on_triassic": false, "dist_to_triassic_m": 148203, "formation_code": "TRc", "formation_name": "Limestone, minor amounts of dolomite, shale, and sandstone; locally thick conglomerate units", "rock_type": "limestone", "geo_bonus": 0.0, "composite_score": 0.7898, "priority": 45, "elevation_m": 1659.657958984375, "slope_deg": 33.999073028564453, "aspect_deg": 28.078651428222656, "tri": 0.005615234375, "tpi_15m": -67.9261474609375, "tpi_adj": 0.0, "composite_v2": 0.7898, "rank_v2": 46, "rank_v1": 45, "rank_delta": -1 }, "geometry": { "type": "Point", "coordinates": [ -118.399444444835353, 38.458888884510685 ] } },
{ "type": "Feature", "properties": { "rank": 45, "latitude": 38.252777772992687, "longitude": -118.36638888924423, "ml_probability": 0.78978586, "on_triassic": false, "dist_to_triassic_m": 166378, "formation_code": "TRc", "formation_name": "Limestone, minor amounts of dolomite, shale, and sandstone; locally thick conglomerate units", "rock_type": "limestone", "geo_bonus": 0.0, "composite_score": 0.7898, "priority": 45, "elevation_m": 1659.657958984375, "slope_deg": 33.999073028564453, "aspect_deg": 28.078651428222656, "tri": 0.005615234375, "tpi_15m": -67.9261474609375, "tpi_adj": 0.0, "composite_v2": 0.7898, "rank_v2": 46, "rank_v1": 45, "rank_delta": -1 }, "geometry": { "type": "Point", "coordinates": [ -118.366388889244234, 38.252777772992687 ] } },
{ "type": "Feature", "properties": { "rank": 45, "latitude": 38.252777772992687, "longitude": -118.36638888924423, "ml_probability": 0.78978586, "on_triassic": false, "dist_to_triassic_m": 166378, "formation_code": "TRc", "formation_name": "Limestone, minor amounts of dolomite, shale, and sandstone; locally thick conglomerate units", "rock_type": "limestone", "geo_bonus": 0.0, "composite_score": 0.7898, "priority": 45, "elevation_m": 1735.0361328125, "slope_deg": 10.407114028930664, "aspect_deg": 87.724380493164062, "tri": 0.00830078125, "tpi_15m": -38.1685791015625, "tpi_adj": 0.0, "composite_v2": 0.7898, "rank_v2": 46, "rank_v1": 45, "rank_delta": -1 }, "geometry": { "type": "Point", "coordinates": [ -118.366388889244234, 38.252777772992687 ] } },
{ "type": "Feature", "properties": { "rank": 46, "latitude": 38.57583332918599, "longitude": -118.40527777817496, "ml_probability": 0.78896171, "on_triassic": false, "dist_to_triassic_m": 137859, "formation_code": "TRc", "formation_name": "Limestone, minor amounts of dolomite, shale, and sandstone; locally thick conglomerate units", "rock_type": "limestone", "geo_bonus": 0.0, "composite_score": 0.789, "priority": 47, "elevation_m": 1704.716064453125, "slope_deg": 33.336009979248047, "aspect_deg": 25.300239562988281, "tri": 0.214111328125, "tpi_15m": 93.465576171875, "tpi_adj": 0.0, "composite_v2": 0.789, "rank_v2": 49, "rank_v1": 47, "rank_delta": -2 }, "geometry": { "type": "Point", "coordinates": [ -118.405277778174963, 38.57583332918599 ] } },
{ "type": "Feature", "properties": { "rank": 47, "latitude": 39.221388886015937, "longitude": -118.3586111114581, "ml_probability": 0.78885204, "on_triassic": false, "dist_to_triassic_m": 84747, "formation_code": "TRc", "formation_name": "Limestone, minor amounts of dolomite, shale, and sandstone; locally thick conglomerate units", "rock_type": "limestone", "geo_bonus": 0.0, "composite_score": 0.7889, "priority": 48, "elevation_m": 1694.668701171875, "slope_deg": 34.362289428710938, "aspect_deg": 25.163169860839844, "tri": 0.4117431640625, "tpi_15m": 86.1834716796875, "tpi_adj": 0.0, "composite_v2": 0.7889, "rank_v2": 50, "rank_v1": 48, "rank_delta": -2 }, "geometry": { "type": "Point", "coordinates": [ -118.358611111458103, 39.221388886015937 ] } },
{ "type": "Feature", "properties": { "rank": 48, "latitude": 39.696944442510286, "longitude": -117.85222222202448, "ml_probability": 0.78882098, "on_triassic": false, "dist_to_triassic_m": 28188, "formation_code": "TRc", "formation_name": "Limestone, minor amounts of dolomite, shale, and sandstone; locally thick conglomerate units", "rock_type": "limestone", "geo_bonus": 0.0, "composite_score": 0.7888, "priority": 49, "elevation_m": 1669.3021240234375, "slope_deg": 35.257266998291016, "aspect_deg": 29.853187561035156, "tri": 0.903076171875, "tpi_15m": -44.6683349609375, "tpi_adj": 0.0, "composite_v2": 0.7888, "rank_v2": 51, "rank_v1": 49, "rank_delta": -2 }, "geometry": { "type": "Point", "coordinates": [ -117.85222222202448, 39.696944442510286 ] } },
{ "type": "Feature", "properties": { "rank": 48, "latitude": 39.696944442510286, "longitude": -117.85222222202448, "ml_probability": 0.78882098, "on_triassic": false, "dist_to_triassic_m": 28188, "formation_code": "TRc", "formation_name": "Limestone, minor amounts of dolomite, shale, and sandstone; locally thick conglomerate units", "rock_type": "limestone", "geo_bonus": 0.0, "composite_score": 0.7888, "priority": 49, "elevation_m": 1713.8392333984375, "slope_deg": 34.816936492919922, "aspect_deg": 83.802040100097656, "tri": 0.1331787109375, "tpi_15m": 180.4559326171875, "tpi_adj": 0.0, "composite_v2": 0.7888, "rank_v2": 51, "rank_v1": 49, "rank_delta": -2 }, "geometry": { "type": "Point", "coordinates": [ -117.85222222202448, 39.696944442510286 ] } },
{ "type": "Feature", "properties": { "rank": 7, "latitude": 40.795555555790166, "longitude": -117.45944444382418, "ml_probability": 0.82949549, "on_triassic": false, "dist_to_triassic_m": 14000, "formation_code": "TRc", "formation_name": "Limestone, minor amounts of dolomite, shale, and sandstone; locally thick conglomerate units", "rock_type": "limestone", "geo_bonus": 0.0, "composite_score": 0.8295, "priority": 18, "elevation_m": 1695.0908203125, "slope_deg": 34.238502502441406, "aspect_deg": 84.712394714355469, "tri": 0.0400390625, "tpi_15m": 162.1624755859375, "tpi_adj": -0.05, "composite_v2": 0.7795, "rank_v2": 53, "rank_v1": 18, "rank_delta": -35 }, "geometry": { "type": "Point", "coordinates": [ -117.459444443824182, 40.795555555790166 ] } },
{ "type": "Feature", "properties": { "rank": 9, "latitude": 40.795277778011837, "longitude": -117.45861111048995, "ml_probability": 0.8188923, "on_triassic": false, "dist_to_triassic_m": 13952, "formation_code": "TRc", "formation_name": "Limestone, minor amounts of dolomite, shale, and sandstone; locally thick conglomerate units", "rock_type": "limestone", "geo_bonus": 0.0, "composite_score": 0.8189, "priority": 20, "elevation_m": 1683.05029296875, "slope_deg": 34.526149749755859, "aspect_deg": 84.189491271972656, "tri": 0.0069580078125, "tpi_15m": 152.431396484375, "tpi_adj": -0.05, "composite_v2": 0.7689, "rank_v2": 54, "rank_v1": 20, "rank_delta": -34 }, "geometry": { "type": "Point", "coordinates": [ -117.458611110489954, 40.795277778011837 ] } },
{ "type": "Feature", "properties": { "rank": 19, "latitude": 40.799722222465057, "longitude": -118.14027777788991, "ml_probability": 0.79732817, "on_triassic": false, "dist_to_triassic_m": 14464, "formation_code": "TRc", "formation_name": "Limestone, minor amounts of dolomite, shale, and sandstone; locally thick conglomerate units", "rock_type": "limestone", "geo_bonus": 0.0, "composite_score": 0.7973, "priority": 28, "elevation_m": 1685.1953125, "slope_deg": 33.605907440185547, "aspect_deg": 84.084197998046875, "tri": 0.18994140625, "tpi_15m": 28.83837890625, "tpi_adj": -0.05, "composite_v2": 0.7473, "rank_v2": 55, "rank_v1": 28, "rank_delta": -27 }, "geometry": { "type": "Point", "coordinates": [ -118.140277777889906, 40.799722222465057 ] } },
{ "type": "Feature", "properties": { "rank": 29, "latitude": 40.751111111257984, "longitude": -117.50916666609989, "ml_probability": 0.79402113, "on_triassic": false, "dist_to_triassic_m": 11544, "formation_code": "TRc", "formation_name": "Limestone, minor amounts of dolomite, shale, and sandstone; locally thick conglomerate units", "rock_type": "limestone", "geo_bonus": 0.0, "composite_score": 0.794, "priority": 35, "elevation_m": 1647.8858642578125, "slope_deg": 32.451145172119141, "aspect_deg": 85.388465881347656, "tri": 0.0484619140625, "tpi_15m": 22.1751708984375, "tpi_adj": -0.05, "composite_v2": 0.744, "rank_v2": 56, "rank_v1": 35, "rank_delta": -21 }, "geometry": { "type": "Point", "coordinates": [ -117.509166666099887, 40.751111111257984 ] } },
{ "type": "Feature", "properties": { "rank": 29, "latitude": 40.751111111257984, "longitude": -117.50916666609989, "ml_probability": 0.79402113, "on_triassic": false, "dist_to_triassic_m": 11544, "formation_code": "TRc", "formation_name": "Limestone, minor amounts of dolomite, shale, and sandstone; locally thick conglomerate units", "rock_type": "limestone", "geo_bonus": 0.0, "composite_score": 0.794, "priority": 35, "elevation_m": 1646.93212890625, "slope_deg": 34.398208618164062, "aspect_deg": 26.268331527709961, "tri": 0.716552734375, "tpi_15m": 66.98388671875, "tpi_adj": -0.05, "composite_v2": 0.744, "rank_v2": 56, "rank_v1": 35, "rank_delta": -21 }, "geometry": { "type": "Point", "coordinates": [ -117.509166666099887, 40.751111111257984 ] } },
{ "type": "Feature", "properties": { "rank": 36, "latitude": 40.795555555790166, "longitude": -117.4591666660461, "ml_probability": 0.79210216, "on_triassic": false, "dist_to_triassic_m": 13994, "formation_code": "TRc", "formation_name": "Limestone, minor amounts of dolomite, shale, and sandstone; locally thick conglomerate units", "rock_type": "limestone", "geo_bonus": 0.0, "composite_score": 0.7921, "priority": 40, "elevation_m": 1696.6728515625, "slope_deg": 34.914619445800781, "aspect_deg": 83.834541320800781, "tri": 0.0498046875, "tpi_15m": 164.1973876953125, "tpi_adj": -0.05, "composite_v2": 0.7421, "rank_v2": 58, "rank_v1": 40, "rank_delta": -18 }, "geometry": { "type": "Point", "coordinates": [ -117.459166666046102, 40.795555555790166 ] } },
{ "type": "Feature", "properties": { "rank": 42, "latitude": 40.724722222316998, "longitude": -117.5219444438914, "ml_probability": 0.7904619, "on_triassic": false, "dist_to_triassic_m": 10438, "formation_code": "TRc", "formation_name": "Limestone, minor amounts of dolomite, shale, and sandstone; locally thick conglomerate units", "rock_type": "limestone", "geo_bonus": 0.0, "composite_score": 0.7905, "priority": 44, "elevation_m": 1695.555908203125, "slope_deg": 34.597267150878906, "aspect_deg": 295.138671875, "tri": 0.1522216796875, "tpi_15m": 61.0301513671875, "tpi_adj": -0.05, "composite_v2": 0.7405, "rank_v2": 59, "rank_v1": 44, "rank_delta": -15 }, "geometry": { "type": "Point", "coordinates": [ -117.5219444438914, 40.724722222316998 ] } },
{ "type": "Feature", "properties": { "rank": 49, "latitude": 40.795833333568488, "longitude": -117.4591666660461, "ml_probability": 0.78878969, "on_triassic": false, "dist_to_triassic_m": 14024, "formation_code": "TRc", "formation_name": "Limestone, minor amounts of dolomite, shale, and sandstone; locally thick conglomerate units", "rock_type": "limestone", "geo_bonus": 0.0, "composite_score": 0.7888, "priority": 49, "elevation_m": 1713.8392333984375, "slope_deg": 34.816936492919922, "aspect_deg": 83.802040100097656, "tri": 0.1331787109375, "tpi_15m": 180.4559326171875, "tpi_adj": -0.05, "composite_v2": 0.7388, "rank_v2": 60, "rank_v1": 49, "rank_delta": -11 }, "geometry": { "type": "Point", "coordinates": [ -117.459166666046102, 40.795833333568488 ] } }
]
}
