{
"type": "FeatureCollection",
"name": "priority_targets",
"crs": { "type": "name", "properties": { "name": "urn:ogc:def:crs:OGC:1.3:CRS84" } },
"features": [
{ "type": "Feature", "properties": { "rank": 15, "latitude": 40.404722221685283, "longitude": -118.24388888911248, "ml_probability": 0.80045837, "on_triassic": false, "dist_to_triassic_m": 52, "formation_code": "TRc", "formation_name": "Limestone, minor amounts of dolomite, shale, and sandstone; locally thick conglomerate units", "rock_type": "limestone", "geo_bonus": 0.2, "composite_score": 1.0, "priority": 1 }, "geometry": { "type": "Point", "coordinates": [ -118.243888889112483, 40.404722221685283 ] } },
{ "type": "Feature", "properties": { "rank": 27, "latitude": 40.209166665743687, "longitude": -117.58777777729556, "ml_probability": 0.7951619, "on_triassic": false, "dist_to_triassic_m": 992, "formation_code": "TRc", "formation_name": "Limestone, minor amounts of dolomite, shale, and sandstone; locally thick conglomerate units", "rock_type": "limestone", "geo_bonus": 0.1, "composite_score": 0.8952, "priority": 2 }, "geometry": { "type": "Point", "coordinates": [ -117.587777777295557, 40.209166665743687 ] } },
{ "type": "Feature", "properties": { "rank": 28, "latitude": 40.55027777752818, "longitude": -118.23250000021132, "ml_probability": 0.7946049, "on_triassic": false, "dist_to_triassic_m": 1361, "formation_code": "TRc", "formation_name": "Limestone, minor amounts of dolomite, shale, and sandstone; locally thick conglomerate units", "rock_type": "limestone", "geo_bonus": 0.1, "composite_score": 0.8946, "priority": 3 }, "geometry": { "type": "Point", "coordinates": [ -118.232500000211317, 40.55027777752818 ] } },
{ "type": "Feature", "properties": { "rank": 3, "latitude": 40.434444443966186, "longitude": -117.68666666629083, "ml_probability": 0.84231639, "on_triassic": false, "dist_to_triassic_m": 4781, "formation_code": "TRc", "formation_name": "Limestone, minor amounts of dolomite, shale, and sandstone; locally thick conglomerate units", "rock_type": "limestone", "geo_bonus": 0.05, "composite_score": 0.8923, "priority": 4 }, "geometry": { "type": "Point", "coordinates": [ -117.686666666290833, 40.434444443966186 ] } },
{ "type": "Feature", "properties": { "rank": 37, "latitude": 40.839722222544019, "longitude": -117.72083333299425, "ml_probability": 0.79204267, "on_triassic": false, "dist_to_triassic_m": 1059, "formation_code": "TRc", "formation_name": "Limestone, minor amounts of dolomite, shale, and sandstone; locally thick conglomerate units", "rock_type": "limestone", "geo_bonus": 0.1, "composite_score": 0.892, "priority": 5 }, "geometry": { "type": "Point", "coordinates": [ -117.720833332994246, 40.839722222544019 ] } },
{ "type": "Feature", "properties": { "rank": 43, "latitude": 40.822777778066126, "longitude": -117.69694444407966, "ml_probability": 0.78989953, "on_triassic": false, "dist_to_triassic_m": 1309, "formation_code": "TRc", "formation_name": "Limestone, minor amounts of dolomite, shale, and sandstone; locally thick conglomerate units", "rock_type": "limestone", "geo_bonus": 0.1, "composite_score": 0.8899, "priority": 6 }, "geometry": { "type": "Point", "coordinates": [ -117.696944444079662, 40.822777778066126 ] } },
{ "type": "Feature", "properties": { "rank": 6, "latitude": 40.418888888379918, "longitude": -117.70444444408771, "ml_probability": 0.83046496, "on_triassic": false, "dist_to_triassic_m": 3338, "formation_code": "TRc", "formation_name": "Limestone, minor amounts of dolomite, shale, and sandstone; locally thick conglomerate units", "rock_type": "limestone", "geo_bonus": 0.05, "composite_score": 0.8805, "priority": 7 }, "geometry": { "type": "Point", "coordinates": [ -117.704444444087713, 40.418888888379918 ] } },
{ "type": "Feature", "properties": { "rank": 1, "latitude": 40.787222222440377, "longitude": -117.45638888826534, "ml_probability": 0.85334641, "on_triassic": false, "dist_to_triassic_m": 13040, "formation_code": "TRc", "formation_name": "Limestone, minor amounts of dolomite, shale, and sandstone; locally thick conglomerate units", "rock_type": "limestone", "geo_bonus": 0.0, "composite_score": 0.8533, "priority": 8 }, "geometry": { "type": "Point", "coordinates": [ -117.456388888265337, 40.787222222440377 ] } },
{ "type": "Feature", "properties": { "rank": 2, "latitude": 40.907222222677269, "longitude": -118.46444444490528, "ml_probability": 0.85232025, "on_triassic": false, "dist_to_triassic_m": 41459, "formation_code": "TRc", "formation_name": "Limestone, minor amounts of dolomite, shale, and sandstone; locally thick conglomerate units", "rock_type": "limestone", "geo_bonus": 0.0, "composite_score": 0.8523, "priority": 9 }, "geometry": { "type": "Point", "coordinates": [ -118.464444444905283, 40.907222222677269 ] } },
{ "type": "Feature", "properties": { "rank": 17, "latitude": 40.113055554442838, "longitude": -117.20249999910334, "ml_probability": 0.79911894, "on_triassic": false, "dist_to_triassic_m": 4801, "formation_code": "TRc", "formation_name": "Limestone, minor amounts of dolomite, shale, and sandstone; locally thick conglomerate units", "rock_type": "limestone", "geo_bonus": 0.05, "composite_score": 0.8491, "priority": 10 }, "geometry": { "type": "Point", "coordinates": [ -117.202499999103338, 40.113055554442838 ] } },
{ "type": "Feature", "properties": { "rank": 23, "latitude": 40.139166665605501, "longitude": -117.47222222161572, "ml_probability": 0.79586679, "on_triassic": false, "dist_to_triassic_m": 3371, "formation_code": "TRc", "formation_name": "Limestone, minor amounts of dolomite, shale, and sandstone; locally thick conglomerate units", "rock_type": "limestone", "geo_bonus": 0.05, "composite_score": 0.8459, "priority": 11 }, "geometry": { "type": "Point", "coordinates": [ -117.472222221615723, 40.139166665605501 ] } },
{ "type": "Feature", "properties": { "rank": 34, "latitude": 40.113055554442838, "longitude": -117.20277777688142, "ml_probability": 0.79283285, "on_triassic": false, "dist_to_triassic_m": 4817, "formation_code": "TRc", "formation_name": "Limestone, minor amounts of dolomite, shale, and sandstone; locally thick conglomerate units", "rock_type": "limestone", "geo_bonus": 0.05, "composite_score": 0.8428, "priority": 12 }, "geometry": { "type": "Point", "coordinates": [ -117.202777776881419, 40.113055554442838 ] } },
{ "type": "Feature", "properties": { "rank": 35, "latitude": 40.265277776965561, "longitude": -117.47972222162376, "ml_probability": 0.79251772, "on_triassic": false, "dist_to_triassic_m": 4157, "formation_code": "TRc", "formation_name": "Limestone, minor amounts of dolomite, shale, and sandstone; locally thick conglomerate units", "rock_type": "limestone", "geo_bonus": 0.05, "composite_score": 0.8425, "priority": 13 }, "geometry": { "type": "Point", "coordinates": [ -117.47972222162376, 40.265277776965561 ] } },
{ "type": "Feature", "properties": { "rank": 39, "latitude": 40.401111110567037, "longitude": -117.2077777768868, "ml_probability": 0.79122305, "on_triassic": false, "dist_to_triassic_m": 2143, "formation_code": "TRc", "formation_name": "Limestone, minor amounts of dolomite, shale, and sandstone; locally thick conglomerate units", "rock_type": "limestone", "geo_bonus": 0.05, "composite_score": 0.8412, "priority": 14 }, "geometry": { "type": "Point", "coordinates": [ -117.2077777768868, 40.401111110567037 ] } },
{ "type": "Feature", "properties": { "rank": 4, "latitude": 39.159166663670881, "longitude": -118.86083333422056, "ml_probability": 0.83943707, "on_triassic": false, "dist_to_triassic_m": 124118, "formation_code": "TRc", "formation_name": "Limestone, minor amounts of dolomite, shale, and sandstone; locally thick conglomerate units", "rock_type": "limestone", "geo_bonus": 0.0, "composite_score": 0.8394, "priority": 15 }, "geometry": { "type": "Point", "coordinates": [ -118.860833334220558, 39.159166663670881 ] } },
{ "type": "Feature", "properties": { "rank": 50, "latitude": 40.406388888355245, "longitude": -117.70555555520004, "ml_probability": 0.78864872, "on_triassic": false, "dist_to_triassic_m": 2194, "formation_code": "TRc", "formation_name": "Limestone, minor amounts of dolomite, shale, and sandstone; locally thick conglomerate units", "rock_type": "limestone", "geo_bonus": 0.05, "composite_score": 0.8386, "priority": 16 }, "geometry": { "type": "Point", "coordinates": [ -117.705555555200036, 40.406388888355245 ] } },
{ "type": "Feature", "properties": { "rank": 5, "latitude": 38.458888884510685, "longitude": -118.39972222261343, "ml_probability": 0.83049053, "on_triassic": false, "dist_to_triassic_m": 148217, "formation_code": "TRc", "formation_name": "Limestone, minor amounts of dolomite, shale, and sandstone; locally thick conglomerate units", "rock_type": "limestone", "geo_bonus": 0.0, "composite_score": 0.8305, "priority": 17 }, "geometry": { "type": "Point", "coordinates": [ -118.399722222613434, 38.458888884510685 ] } },
{ "type": "Feature", "properties": { "rank": 7, "latitude": 40.795555555790166, "longitude": -117.45944444382418, "ml_probability": 0.82949549, "on_triassic": false, "dist_to_triassic_m": 14000, "formation_code": "TRc", "formation_name": "Limestone, minor amounts of dolomite, shale, and sandstone; locally thick conglomerate units", "rock_type": "limestone", "geo_bonus": 0.0, "composite_score": 0.8295, "priority": 18 }, "geometry": { "type": "Point", "coordinates": [ -117.459444443824182, 40.795555555790166 ] } },
{ "type": "Feature", "properties": { "rank": 8, "latitude": 39.02416666340438, "longitude": -118.77055555634568, "ml_probability": 0.82007194, "on_triassic": false, "dist_to_triassic_m": 126554, "formation_code": "TRc", "formation_name": "Limestone, minor amounts of dolomite, shale, and sandstone; locally thick conglomerate units", "rock_type": "limestone", "geo_bonus": 0.0, "composite_score": 0.8201, "priority": 19 }, "geometry": { "type": "Point", "coordinates": [ -118.770555556345684, 39.02416666340438 ] } },
{ "type": "Feature", "properties": { "rank": 9, "latitude": 40.795277778011837, "longitude": -117.45861111048995, "ml_probability": 0.8188923, "on_triassic": false, "dist_to_triassic_m": 13952, "formation_code": "TRc", "formation_name": "Limestone, minor amounts of dolomite, shale, and sandstone; locally thick conglomerate units", "rock_type": "limestone", "geo_bonus": 0.0, "composite_score": 0.8189, "priority": 20 }, "geometry": { "type": "Point", "coordinates": [ -117.458611110489954, 40.795277778011837 ] } },
{ "type": "Feature", "properties": { "rank": 10, "latitude": 39.159166663670881, "longitude": -118.86111111199864, "ml_probability": 0.81427044, "on_triassic": false, "dist_to_triassic_m": 124134, "formation_code": "TRc", "formation_name": "Limestone, minor amounts of dolomite, shale, and sandstone; locally thick conglomerate units", "rock_type": "limestone", "geo_bonus": 0.0, "composite_score": 0.8143, "priority": 21 }, "geometry": { "type": "Point", "coordinates": [ -118.861111111998639, 39.159166663670881 ] } },
{ "type": "Feature", "properties": { "rank": 11, "latitude": 40.776111111307337, "longitude": -118.51138888940022, "ml_probability": 0.81180894, "on_triassic": false, "dist_to_triassic_m": 33005, "formation_code": "TRc", "formation_name": "Limestone, minor amounts of dolomite, shale, and sandstone; locally thick conglomerate units", "rock_type": "limestone", "geo_bonus": 0.0, "composite_score": 0.8118, "priority": 22 }, "geometry": { "type": "Point", "coordinates": [ -118.511388889400223, 40.776111111307337 ] } },
{ "type": "Feature", "properties": { "rank": 12, "latitude": 38.701111107211077, "longitude": -118.78805555636453, "ml_probability": 0.80561513, "on_triassic": false, "dist_to_triassic_m": 149610, "formation_code": "TRc", "formation_name": "Limestone, minor amounts of dolomite, shale, and sandstone; locally thick conglomerate units", "rock_type": "limestone", "geo_bonus": 0.0, "composite_score": 0.8056, "priority": 23 }, "geometry": { "type": "Point", "coordinates": [ -118.788055556364526, 38.701111107211077 ] } },
{ "type": "Feature", "properties": { "rank": 13, "latitude": 38.724722218368797, "longitude": -118.9436111120874, "ml_probability": 0.80345458, "on_triassic": false, "dist_to_triassic_m": 158109, "formation_code": "TRc", "formation_name": "Limestone, minor amounts of dolomite, shale, and sandstone; locally thick conglomerate units", "rock_type": "limestone", "geo_bonus": 0.0, "composite_score": 0.8035, "priority": 24 }, "geometry": { "type": "Point", "coordinates": [ -118.943611112087396, 38.724722218368797 ] } },
{ "type": "Feature", "properties": { "rank": 14, "latitude": 39.159166663670881, "longitude": -118.86055555644248, "ml_probability": 0.80088222, "on_triassic": false, "dist_to_triassic_m": 124101, "formation_code": "TRc", "formation_name": "Limestone, minor amounts of dolomite, shale, and sandstone; locally thick conglomerate units", "rock_type": "limestone", "geo_bonus": 0.0, "composite_score": 0.8009, "priority": 25 }, "geometry": { "type": "Point", "coordinates": [ -118.860555556442478, 39.159166663670881 ] } },
{ "type": "Feature", "properties": { "rank": 16, "latitude": 39.816388887190527, "longitude": -118.15750000013064, "ml_probability": 0.79985476, "on_triassic": false, "dist_to_triassic_m": 29976, "formation_code": "TRc", "formation_name": "Limestone, minor amounts of dolomite, shale, and sandstone; locally thick conglomerate units", "rock_type": "limestone", "geo_bonus": 0.0, "composite_score": 0.7999, "priority": 26 }, "geometry": { "type": "Point", "coordinates": [ -118.157500000130639, 39.816388887190527 ] } },
{ "type": "Feature", "properties": { "rank": 18, "latitude": 39.886111109550384, "longitude": -118.9233333342878, "ml_probability": 0.79886627, "on_triassic": false, "dist_to_triassic_m": 73098, "formation_code": "TRc", "formation_name": "Limestone, minor amounts of dolomite, shale, and sandstone; locally thick conglomerate units", "rock_type": "limestone", "geo_bonus": 0.0, "composite_score": 0.7989, "priority": 27 }, "geometry": { "type": "Point", "coordinates": [ -118.923333334287804, 39.886111109550384 ] } },
{ "type": "Feature", "properties": { "rank": 19, "latitude": 40.799722222465057, "longitude": -118.14027777788991, "ml_probability": 0.79732817, "on_triassic": false, "dist_to_triassic_m": 14464, "formation_code": "TRc", "formation_name": "Limestone, minor amounts of dolomite, shale, and sandstone; locally thick conglomerate units", "rock_type": "limestone", "geo_bonus": 0.0, "composite_score": 0.7973, "priority": 28 }, "geometry": { "type": "Point", "coordinates": [ -118.140277777889906, 40.799722222465057 ] } },
{ "type": "Feature", "properties": { "rank": 20, "latitude": 39.183611108163582, "longitude": -118.8083333341641, "ml_probability": 0.79725087, "on_triassic": false, "dist_to_triassic_m": 119056, "formation_code": "TRc", "formation_name": "Limestone, minor amounts of dolomite, shale, and sandstone; locally thick conglomerate units", "rock_type": "limestone", "geo_bonus": 0.0, "composite_score": 0.7973, "priority": 28 }, "geometry": { "type": "Point", "coordinates": [ -118.808333334164104, 39.183611108163582 ] } },
{ "type": "Feature", "properties": { "rank": 21, "latitude": 38.432222217791377, "longitude": -118.56666666723748, "ml_probability": 0.79610622, "on_triassic": false, "dist_to_triassic_m": 159055, "formation_code": "TRc", "formation_name": "Limestone, minor amounts of dolomite, shale, and sandstone; locally thick conglomerate units", "rock_type": "limestone", "geo_bonus": 0.0, "composite_score": 0.7961, "priority": 30 }, "geometry": { "type": "Point", "coordinates": [ -118.566666667237484, 38.432222217791377 ] } },
{ "type": "Feature", "properties": { "rank": 22, "latitude": 38.701388884989406, "longitude": -118.79138888970142, "ml_probability": 0.79598647, "on_triassic": false, "dist_to_triassic_m": 149801, "formation_code": "TRc", "formation_name": "Limestone, minor amounts of dolomite, shale, and sandstone; locally thick conglomerate units", "rock_type": "limestone", "geo_bonus": 0.0, "composite_score": 0.796, "priority": 31 }, "geometry": { "type": "Point", "coordinates": [ -118.791388889701423, 38.701388884989406 ] } },
{ "type": "Feature", "properties": { "rank": 24, "latitude": 40.095555554408293, "longitude": -117.24555555470521, "ml_probability": 0.79563963, "on_triassic": false, "dist_to_triassic_m": 7060, "formation_code": "TRc", "formation_name": "Limestone, minor amounts of dolomite, shale, and sandstone; locally thick conglomerate units", "rock_type": "limestone", "geo_bonus": 0.0, "composite_score": 0.7956, "priority": 32 }, "geometry": { "type": "Point", "coordinates": [ -117.245555554705206, 40.095555554408293 ] } },
{ "type": "Feature", "properties": { "rank": 25, "latitude": 38.458888884510685, "longitude": -118.40000000039151, "ml_probability": 0.79558283, "on_triassic": false, "dist_to_triassic_m": 148230, "formation_code": "TRc", "formation_name": "Limestone, minor amounts of dolomite, shale, and sandstone; locally thick conglomerate units", "rock_type": "limestone", "geo_bonus": 0.0, "composite_score": 0.7956, "priority": 32 }, "geometry": { "type": "Point", "coordinates": [ -118.400000000391515, 38.458888884510685 ] } },
{ "type": "Feature", "properties": { "rank": 26, "latitude": 39.654722220204711, "longitude": -117.85888888869832, "ml_probability": 0.79540676, "on_triassic": false, "dist_to_triassic_m": 28718, "formation_code": "TRc", "formation_name": "Limestone, minor amounts of dolomite, shale, and sandstone; locally thick conglomerate units", "rock_type": "limestone", "geo_bonus": 0.0, "composite_score": 0.7954, "priority": 34 }, "geometry": { "type": "Point", "coordinates": [ -117.858888888698317, 39.654722220204711 ] } },
{ "type": "Feature", "properties": { "rank": 30, "latitude": 40.734444444558413, "longitude": -118.79111111192336, "ml_probability": 0.79397529, "on_triassic": false, "dist_to_triassic_m": 51578, "formation_code": "TRc", "formation_name": "Limestone, minor amounts of dolomite, shale, and sandstone; locally thick conglomerate units", "rock_type": "limestone", "geo_bonus": 0.0, "composite_score": 0.794, "priority": 35 }, "geometry": { "type": "Point", "coordinates": [ -118.791111111923357, 40.734444444558413 ] } },
{ "type": "Feature", "properties": { "rank": 29, "latitude": 40.751111111257984, "longitude": -117.50916666609989, "ml_probability": 0.79402113, "on_triassic": false, "dist_to_triassic_m": 11544, "formation_code": "TRc", "formation_name": "Limestone, minor amounts of dolomite, shale, and sandstone; locally thick conglomerate units", "rock_type": "limestone", "geo_bonus": 0.0, "composite_score": 0.794, "priority": 35 }, "geometry": { "type": "Point", "coordinates": [ -117.509166666099887, 40.751111111257984 ] } },
{ "type": "Feature", "properties": { "rank": 31, "latitude": 40.3719444438428, "longitude": -117.57694444395058, "ml_probability": 0.7937991, "on_triassic": false, "dist_to_triassic_m": 6488, "formation_code": "TRc", "formation_name": "Limestone, minor amounts of dolomite, shale, and sandstone; locally thick conglomerate units", "rock_type": "limestone", "geo_bonus": 0.0, "composite_score": 0.7938, "priority": 37 }, "geometry": { "type": "Point", "coordinates": [ -117.57694444395058, 40.3719444438428 ] } },
{ "type": "Feature", "properties": { "rank": 32, "latitude": 39.182777774828601, "longitude": -118.53250000053404, "ml_probability": 0.79341787, "on_triassic": false, "dist_to_triassic_m": 99885, "formation_code": "TRc", "formation_name": "Limestone, minor amounts of dolomite, shale, and sandstone; locally thick conglomerate units", "rock_type": "limestone", "geo_bonus": 0.0, "composite_score": 0.7934, "priority": 38 }, "geometry": { "type": "Point", "coordinates": [ -118.532500000534043, 39.182777774828601 ] } },
{ "type": "Feature", "properties": { "rank": 33, "latitude": 39.02388888562605, "longitude": -118.77166666745801, "ml_probability": 0.79313195, "on_triassic": false, "dist_to_triassic_m": 126652, "formation_code": "TRc", "formation_name": "Limestone, minor amounts of dolomite, shale, and sandstone; locally thick conglomerate units", "rock_type": "limestone", "geo_bonus": 0.0, "composite_score": 0.7931, "priority": 39 }, "geometry": { "type": "Point", "coordinates": [ -118.771666667458007, 39.02388888562605 ] } },
{ "type": "Feature", "properties": { "rank": 36, "latitude": 40.795555555790166, "longitude": -117.4591666660461, "ml_probability": 0.79210216, "on_triassic": false, "dist_to_triassic_m": 13994, "formation_code": "TRc", "formation_name": "Limestone, minor amounts of dolomite, shale, and sandstone; locally thick conglomerate units", "rock_type": "limestone", "geo_bonus": 0.0, "composite_score": 0.7921, "priority": 40 }, "geometry": { "type": "Point", "coordinates": [ -117.459166666046102, 40.795555555790166 ] } },
{ "type": "Feature", "properties": { "rank": 38, "latitude": 39.728055553682815, "longitude": -117.78694444417648, "ml_probability": 0.79169452, "on_triassic": false, "dist_to_triassic_m": 22199, "formation_code": "TRc", "formation_name": "Limestone, minor amounts of dolomite, shale, and sandstone; locally thick conglomerate units", "rock_type": "limestone", "geo_bonus": 0.0, "composite_score": 0.7917, "priority": 41 }, "geometry": { "type": "Point", "coordinates": [ -117.786944444176484, 39.728055553682815 ] } },
{ "type": "Feature", "properties": { "rank": 40, "latitude": 40.371666666064478, "longitude": -117.57694444395058, "ml_probability": 0.79112983, "on_triassic": false, "dist_to_triassic_m": 6462, "formation_code": "TRc", "formation_name": "Limestone, minor amounts of dolomite, shale, and sandstone; locally thick conglomerate units", "rock_type": "limestone", "geo_bonus": 0.0, "composite_score": 0.7911, "priority": 42 }, "geometry": { "type": "Point", "coordinates": [ -117.57694444395058, 40.371666666064478 ] } },
{ "type": "Feature", "properties": { "rank": 41, "latitude": 40.740555555681588, "longitude": -117.6313888884536, "ml_probability": 0.79059702, "on_triassic": false, "dist_to_triassic_m": 9897, "formation_code": "TRc", "formation_name": "Limestone, minor amounts of dolomite, shale, and sandstone; locally thick conglomerate units", "rock_type": "limestone", "geo_bonus": 0.0, "composite_score": 0.7906, "priority": 43 }, "geometry": { "type": "Point", "coordinates": [ -117.6313888884536, 40.740555555681588 ] } },
{ "type": "Feature", "properties": { "rank": 42, "latitude": 40.724722222316998, "longitude": -117.5219444438914, "ml_probability": 0.7904619, "on_triassic": false, "dist_to_triassic_m": 10438, "formation_code": "TRc", "formation_name": "Limestone, minor amounts of dolomite, shale, and sandstone; locally thick conglomerate units", "rock_type": "limestone", "geo_bonus": 0.0, "composite_score": 0.7905, "priority": 44 }, "geometry": { "type": "Point", "coordinates": [ -117.5219444438914, 40.724722222316998 ] } },
{ "type": "Feature", "properties": { "rank": 45, "latitude": 38.252777772992687, "longitude": -118.36638888924423, "ml_probability": 0.78978586, "on_triassic": false, "dist_to_triassic_m": 166378, "formation_code": "TRc", "formation_name": "Limestone, minor amounts of dolomite, shale, and sandstone; locally thick conglomerate units", "rock_type": "limestone", "geo_bonus": 0.0, "composite_score": 0.7898, "priority": 45 }, "geometry": { "type": "Point", "coordinates": [ -118.366388889244234, 38.252777772992687 ] } },
{ "type": "Feature", "properties": { "rank": 44, "latitude": 38.458888884510685, "longitude": -118.39944444483535, "ml_probability": 0.78983712, "on_triassic": false, "dist_to_triassic_m": 148203, "formation_code": "TRc", "formation_name": "Limestone, minor amounts of dolomite, shale, and sandstone; locally thick conglomerate units", "rock_type": "limestone", "geo_bonus": 0.0, "composite_score": 0.7898, "priority": 45 }, "geometry": { "type": "Point", "coordinates": [ -118.399444444835353, 38.458888884510685 ] } },
{ "type": "Feature", "properties": { "rank": 46, "latitude": 38.57583332918599, "longitude": -118.40527777817496, "ml_probability": 0.78896171, "on_triassic": false, "dist_to_triassic_m": 137859, "formation_code": "TRc", "formation_name": "Limestone, minor amounts of dolomite, shale, and sandstone; locally thick conglomerate units", "rock_type": "limestone", "geo_bonus": 0.0, "composite_score": 0.789, "priority": 47 }, "geometry": { "type": "Point", "coordinates": [ -118.405277778174963, 38.57583332918599 ] } },
{ "type": "Feature", "properties": { "rank": 47, "latitude": 39.221388886015937, "longitude": -118.3586111114581, "ml_probability": 0.78885204, "on_triassic": false, "dist_to_triassic_m": 84747, "formation_code": "TRc", "formation_name": "Limestone, minor amounts of dolomite, shale, and sandstone; locally thick conglomerate units", "rock_type": "limestone", "geo_bonus": 0.0, "composite_score": 0.7889, "priority": 48 }, "geometry": { "type": "Point", "coordinates": [ -118.358611111458103, 39.221388886015937 ] } },
{ "type": "Feature", "properties": { "rank": 48, "latitude": 39.696944442510286, "longitude": -117.85222222202448, "ml_probability": 0.78882098, "on_triassic": false, "dist_to_triassic_m": 28188, "formation_code": "TRc", "formation_name": "Limestone, minor amounts of dolomite, shale, and sandstone; locally thick conglomerate units", "rock_type": "limestone", "geo_bonus": 0.0, "composite_score": 0.7888, "priority": 49 }, "geometry": { "type": "Point", "coordinates": [ -117.85222222202448, 39.696944442510286 ] } },
{ "type": "Feature", "properties": { "rank": 49, "latitude": 40.795833333568488, "longitude": -117.4591666660461, "ml_probability": 0.78878969, "on_triassic": false, "dist_to_triassic_m": 14024, "formation_code": "TRc", "formation_name": "Limestone, minor amounts of dolomite, shale, and sandstone; locally thick conglomerate units", "rock_type": "limestone", "geo_bonus": 0.0, "composite_score": 0.7888, "priority": 49 }, "geometry": { "type": "Point", "coordinates": [ -117.459166666046102, 40.795833333568488 ] } }
]
}
