{
"type": "FeatureCollection",
"name": "top_candidates",
"crs": { "type": "name", "properties": { "name": "urn:ogc:def:crs:OGC:1.3:CRS84" } },
"features": [
{ "type": "Feature", "properties": { "rank": 1, "longitude": -117.45638888826534, "latitude": 40.787222222440377, "probability": 0.85334641 }, "geometry": { "type": "Point", "coordinates": [ -117.456388888265337, 40.787222222440377 ] } },
{ "type": "Feature", "properties": { "rank": 2, "longitude": -118.46444444490528, "latitude": 40.907222222677269, "probability": 0.85232025 }, "geometry": { "type": "Point", "coordinates": [ -118.464444444905283, 40.907222222677269 ] } },
{ "type": "Feature", "properties": { "rank": 3, "longitude": -117.68666666629083, "latitude": 40.434444443966186, "probability": 0.84231639 }, "geometry": { "type": "Point", "coordinates": [ -117.686666666290833, 40.434444443966186 ] } },
{ "type": "Feature", "properties": { "rank": 4, "longitude": -118.86083333422057, "latitude": 39.159166663670881, "probability": 0.83943707 }, "geometry": { "type": "Point", "coordinates": [ -118.860833334220573, 39.159166663670881 ] } },
{ "type": "Feature", "properties": { "rank": 5, "longitude": -118.39972222261343, "latitude": 38.458888884510685, "probability": 0.83049053 }, "geometry": { "type": "Point", "coordinates": [ -118.399722222613434, 38.458888884510685 ] } },
{ "type": "Feature", "properties": { "rank": 6, "longitude": -117.70444444408773, "latitude": 40.418888888379918, "probability": 0.83046496 }, "geometry": { "type": "Point", "coordinates": [ -117.704444444087727, 40.418888888379918 ] } },
{ "type": "Feature", "properties": { "rank": 7, "longitude": -117.45944444382418, "latitude": 40.795555555790166, "probability": 0.82949549 }, "geometry": { "type": "Point", "coordinates": [ -117.459444443824182, 40.795555555790166 ] } },
{ "type": "Feature", "properties": { "rank": 8, "longitude": -118.77055555634568, "latitude": 39.02416666340438, "probability": 0.82007194 }, "geometry": { "type": "Point", "coordinates": [ -118.770555556345684, 39.02416666340438 ] } },
{ "type": "Feature", "properties": { "rank": 9, "longitude": -117.45861111048995, "latitude": 40.795277778011837, "probability": 0.8188923 }, "geometry": { "type": "Point", "coordinates": [ -117.458611110489954, 40.795277778011837 ] } },
{ "type": "Feature", "properties": { "rank": 10, "longitude": -118.86111111199865, "latitude": 39.159166663670881, "probability": 0.81427044 }, "geometry": { "type": "Point", "coordinates": [ -118.861111111998653, 39.159166663670881 ] } },
{ "type": "Feature", "properties": { "rank": 11, "longitude": -118.51138888940022, "latitude": 40.776111111307337, "probability": 0.81180894 }, "geometry": { "type": "Point", "coordinates": [ -118.511388889400223, 40.776111111307337 ] } },
{ "type": "Feature", "properties": { "rank": 12, "longitude": -118.78805555636451, "latitude": 38.701111107211077, "probability": 0.80561513 }, "geometry": { "type": "Point", "coordinates": [ -118.788055556364512, 38.701111107211077 ] } },
{ "type": "Feature", "properties": { "rank": 13, "longitude": -118.9436111120874, "latitude": 38.724722218368797, "probability": 0.80345458 }, "geometry": { "type": "Point", "coordinates": [ -118.943611112087396, 38.724722218368797 ] } },
{ "type": "Feature", "properties": { "rank": 14, "longitude": -118.86055555644249, "latitude": 39.159166663670881, "probability": 0.80088222 }, "geometry": { "type": "Point", "coordinates": [ -118.860555556442492, 39.159166663670881 ] } },
{ "type": "Feature", "properties": { "rank": 15, "longitude": -118.24388888911247, "latitude": 40.404722221685283, "probability": 0.80045837 }, "geometry": { "type": "Point", "coordinates": [ -118.243888889112469, 40.404722221685283 ] } },
{ "type": "Feature", "properties": { "rank": 16, "longitude": -118.15750000013065, "latitude": 39.816388887190527, "probability": 0.79985476 }, "geometry": { "type": "Point", "coordinates": [ -118.157500000130653, 39.816388887190527 ] } },
{ "type": "Feature", "properties": { "rank": 17, "longitude": -117.20249999910334, "latitude": 40.113055554442838, "probability": 0.79911894 }, "geometry": { "type": "Point", "coordinates": [ -117.202499999103338, 40.113055554442838 ] } },
{ "type": "Feature", "properties": { "rank": 18, "longitude": -118.9233333342878, "latitude": 39.886111109550384, "probability": 0.79886627 }, "geometry": { "type": "Point", "coordinates": [ -118.923333334287804, 39.886111109550384 ] } },
{ "type": "Feature", "properties": { "rank": 19, "longitude": -118.14027777788991, "latitude": 40.799722222465057, "probability": 0.79732817 }, "geometry": { "type": "Point", "coordinates": [ -118.140277777889906, 40.799722222465057 ] } },
{ "type": "Feature", "properties": { "rank": 20, "longitude": -118.8083333341641, "latitude": 39.183611108163582, "probability": 0.79725087 }, "geometry": { "type": "Point", "coordinates": [ -118.808333334164104, 39.183611108163582 ] } },
{ "type": "Feature", "properties": { "rank": 21, "longitude": -118.56666666723747, "latitude": 38.432222217791377, "probability": 0.79610622 }, "geometry": { "type": "Point", "coordinates": [ -118.56666666723747, 38.432222217791377 ] } },
{ "type": "Feature", "properties": { "rank": 22, "longitude": -118.79138888970142, "latitude": 38.701388884989406, "probability": 0.79598647 }, "geometry": { "type": "Point", "coordinates": [ -118.791388889701423, 38.701388884989406 ] } },
{ "type": "Feature", "properties": { "rank": 23, "longitude": -117.47222222161571, "latitude": 40.139166665605501, "probability": 0.79586679 }, "geometry": { "type": "Point", "coordinates": [ -117.472222221615709, 40.139166665605501 ] } },
{ "type": "Feature", "properties": { "rank": 24, "longitude": -117.24555555470521, "latitude": 40.095555554408293, "probability": 0.79563963 }, "geometry": { "type": "Point", "coordinates": [ -117.245555554705206, 40.095555554408293 ] } },
{ "type": "Feature", "properties": { "rank": 25, "longitude": -118.40000000039151, "latitude": 38.458888884510685, "probability": 0.79558283 }, "geometry": { "type": "Point", "coordinates": [ -118.400000000391515, 38.458888884510685 ] } },
{ "type": "Feature", "properties": { "rank": 26, "longitude": -117.85888888869832, "latitude": 39.654722220204711, "probability": 0.79540676 }, "geometry": { "type": "Point", "coordinates": [ -117.858888888698317, 39.654722220204711 ] } },
{ "type": "Feature", "properties": { "rank": 27, "longitude": -117.58777777729557, "latitude": 40.209166665743687, "probability": 0.7951619 }, "geometry": { "type": "Point", "coordinates": [ -117.587777777295571, 40.209166665743687 ] } },
{ "type": "Feature", "properties": { "rank": 28, "longitude": -118.23250000021133, "latitude": 40.55027777752818, "probability": 0.7946049 }, "geometry": { "type": "Point", "coordinates": [ -118.232500000211331, 40.55027777752818 ] } },
{ "type": "Feature", "properties": { "rank": 29, "longitude": -117.50916666609989, "latitude": 40.751111111257984, "probability": 0.79402113 }, "geometry": { "type": "Point", "coordinates": [ -117.509166666099887, 40.751111111257984 ] } },
{ "type": "Feature", "properties": { "rank": 30, "longitude": -118.79111111192336, "latitude": 40.734444444558413, "probability": 0.79397529 }, "geometry": { "type": "Point", "coordinates": [ -118.791111111923357, 40.734444444558413 ] } },
{ "type": "Feature", "properties": { "rank": 31, "longitude": -117.57694444395058, "latitude": 40.3719444438428, "probability": 0.7937991 }, "geometry": { "type": "Point", "coordinates": [ -117.57694444395058, 40.3719444438428 ] } },
{ "type": "Feature", "properties": { "rank": 32, "longitude": -118.53250000053404, "latitude": 39.182777774828601, "probability": 0.79341787 }, "geometry": { "type": "Point", "coordinates": [ -118.532500000534043, 39.182777774828601 ] } },
{ "type": "Feature", "properties": { "rank": 33, "longitude": -118.77166666745799, "latitude": 39.02388888562605, "probability": 0.79313195 }, "geometry": { "type": "Point", "coordinates": [ -118.771666667457993, 39.02388888562605 ] } },
{ "type": "Feature", "properties": { "rank": 34, "longitude": -117.20277777688142, "latitude": 40.113055554442838, "probability": 0.79283285 }, "geometry": { "type": "Point", "coordinates": [ -117.202777776881419, 40.113055554442838 ] } },
{ "type": "Feature", "properties": { "rank": 35, "longitude": -117.47972222162377, "latitude": 40.265277776965561, "probability": 0.79251772 }, "geometry": { "type": "Point", "coordinates": [ -117.479722221623774, 40.265277776965561 ] } },
{ "type": "Feature", "properties": { "rank": 36, "longitude": -117.4591666660461, "latitude": 40.795555555790166, "probability": 0.79210216 }, "geometry": { "type": "Point", "coordinates": [ -117.459166666046102, 40.795555555790166 ] } },
{ "type": "Feature", "properties": { "rank": 37, "longitude": -117.72083333299425, "latitude": 40.839722222544019, "probability": 0.79204267 }, "geometry": { "type": "Point", "coordinates": [ -117.720833332994246, 40.839722222544019 ] } },
{ "type": "Feature", "properties": { "rank": 38, "longitude": -117.78694444417648, "latitude": 39.728055553682815, "probability": 0.79169452 }, "geometry": { "type": "Point", "coordinates": [ -117.786944444176484, 39.728055553682815 ] } },
{ "type": "Feature", "properties": { "rank": 39, "longitude": -117.20777777688679, "latitude": 40.401111110567044, "probability": 0.79122305 }, "geometry": { "type": "Point", "coordinates": [ -117.207777776886786, 40.401111110567044 ] } },
{ "type": "Feature", "properties": { "rank": 40, "longitude": -117.57694444395058, "latitude": 40.371666666064478, "probability": 0.79112983 }, "geometry": { "type": "Point", "coordinates": [ -117.57694444395058, 40.371666666064478 ] } },
{ "type": "Feature", "properties": { "rank": 41, "longitude": -117.63138888845359, "latitude": 40.740555555681588, "probability": 0.79059702 }, "geometry": { "type": "Point", "coordinates": [ -117.631388888453586, 40.740555555681588 ] } },
{ "type": "Feature", "properties": { "rank": 42, "longitude": -117.52194444389141, "latitude": 40.724722222316998, "probability": 0.7904619 }, "geometry": { "type": "Point", "coordinates": [ -117.521944443891414, 40.724722222316998 ] } },
{ "type": "Feature", "properties": { "rank": 43, "longitude": -117.69694444407966, "latitude": 40.822777778066126, "probability": 0.78989953 }, "geometry": { "type": "Point", "coordinates": [ -117.696944444079662, 40.822777778066126 ] } },
{ "type": "Feature", "properties": { "rank": 44, "longitude": -118.39944444483535, "latitude": 38.458888884510685, "probability": 0.78983712 }, "geometry": { "type": "Point", "coordinates": [ -118.399444444835353, 38.458888884510685 ] } },
{ "type": "Feature", "properties": { "rank": 45, "longitude": -118.36638888924425, "latitude": 38.252777772992687, "probability": 0.78978586 }, "geometry": { "type": "Point", "coordinates": [ -118.366388889244249, 38.252777772992687 ] } },
{ "type": "Feature", "properties": { "rank": 46, "longitude": -118.40527777817496, "latitude": 38.57583332918599, "probability": 0.78896171 }, "geometry": { "type": "Point", "coordinates": [ -118.405277778174963, 38.57583332918599 ] } },
{ "type": "Feature", "properties": { "rank": 47, "longitude": -118.3586111114581, "latitude": 39.221388886015937, "probability": 0.78885204 }, "geometry": { "type": "Point", "coordinates": [ -118.358611111458103, 39.221388886015937 ] } },
{ "type": "Feature", "properties": { "rank": 48, "longitude": -117.85222222202448, "latitude": 39.696944442510286, "probability": 0.78882098 }, "geometry": { "type": "Point", "coordinates": [ -117.85222222202448, 39.696944442510286 ] } },
{ "type": "Feature", "properties": { "rank": 49, "longitude": -117.4591666660461, "latitude": 40.795833333568488, "probability": 0.78878969 }, "geometry": { "type": "Point", "coordinates": [ -117.459166666046102, 40.795833333568488 ] } },
{ "type": "Feature", "properties": { "rank": 50, "longitude": -117.70555555520004, "latitude": 40.406388888355245, "probability": 0.78864872 }, "geometry": { "type": "Point", "coordinates": [ -117.705555555200036, 40.406388888355245 ] } }
]
}
